{"type":"FeatureCollection","features":[{"type":"Feature","properties":{"name":"Магас","osm":"relation/10119651","licence":"Data © OpenStreetMap contributors, ODbL 1.0. http://osm.org/copyright"},"geometry":{"type":"Polygon","coordinates":[[[44.79602,43.16751],[44.79626,43.16544],[44.79843,43.16306],[44.79752,43.16125],[44.79732,43.16044],[44.79719,43.15894],[44.79831,43.15762],[44.79947,43.15685],[44.80021,43.15475],[44.79844,43.15313],[44.79783,43.15306],[44.79792,43.15223],[44.79887,43.1521],[44.80077,43.15184],[44.83177,43.15021],[44.83503,43.15786],[44.83615,43.16518],[44.83676,43.16833],[44.83757,43.17217],[44.83862,43.17272],[44.83624,43.17561],[44.83399,43.17824],[44.83202,43.1802],[44.82589,43.1875],[44.82425,43.18951],[44.82351,43.18958],[44.82147,43.19077],[44.82056,43.19149],[44.81691,43.19407],[44.81525,43.19037],[44.80953,43.18915],[44.80672,43.18916],[44.80047,43.18917],[44.8006,43.18872],[44.80074,43.18784],[44.80088,43.18719],[44.80082,43.18684],[44.80045,43.18605],[44.80011,43.18509],[44.79989,43.18426],[44.79987,43.18311],[44.80008,43.1816],[44.8001,43.18012],[44.79973,43.1781],[44.79847,43.17583],[44.79873,43.17339],[44.79602,43.16751]]]}}]}