{"type":"FeatureCollection","features":[{"type":"Feature","properties":{"name":"Элиста","osm":"relation/10241972","licence":"Data © OpenStreetMap contributors, ODbL 1.0. http://osm.org/copyright"},"geometry":{"type":"Polygon","coordinates":[[[44.1804,46.31817],[44.19459,46.31235],[44.18583,46.3039],[44.19055,46.30321],[44.19151,46.30301],[44.19289,46.30265],[44.20769,46.29912],[44.22009,46.29482],[44.23037,46.29084],[44.23307,46.29],[44.24051,46.28714],[44.25002,46.28523],[44.25411,46.28447],[44.25648,46.28405],[44.25918,46.28344],[44.25926,46.28342],[44.2595,46.28339],[44.26137,46.28309],[44.26309,46.28283],[44.26563,46.28245],[44.2691,46.28216],[44.27134,46.28204],[44.27677,46.28157],[44.28069,46.28179],[44.28499,46.28547],[44.28634,46.28534],[44.29851,46.28325],[44.32914,46.2835],[44.33034,46.28812],[44.33178,46.29415],[44.33987,46.32164],[44.31635,46.32888],[44.30434,46.32982],[44.29867,46.33125],[44.29421,46.33125],[44.2894,46.33302],[44.27859,46.33456],[44.2794,46.34222],[44.281,46.36654],[44.26544,46.36755],[44.26477,46.37598],[44.25121,46.37758],[44.24472,46.34949],[44.2434,46.34568],[44.2334,46.34704],[44.23295,46.34646],[44.22874,46.34677],[44.22715,46.34045],[44.22609,46.33801],[44.22555,46.33582],[44.22275,46.33368],[44.21616,46.33316],[44.21777,46.32915],[44.21853,46.32703],[44.21604,46.32697],[44.20838,46.32721],[44.20577,46.32402],[44.19446,46.32546],[44.19152,46.32464],[44.18784,46.32362],[44.18596,46.32309],[44.1804,46.31817]]]}}]}