{"type":"FeatureCollection","features":[{"type":"Feature","properties":{"name":"Ростов-на-Дону","osm":"relation/1285772","licence":"Data © OpenStreetMap contributors, ODbL 1.0. http://osm.org/copyright"},"geometry":{"type":"Polygon","coordinates":[[[39.47099,47.20487],[39.48586,47.17578],[39.5446,47.16647],[39.54535,47.16694],[39.55331,47.16561],[39.59554,47.17706],[39.62126,47.15338],[39.64378,47.15559],[39.65745,47.15861],[39.68174,47.16003],[39.6852,47.1624],[39.68778,47.16129],[39.69182,47.16275],[39.69301,47.16464],[39.69745,47.16705],[39.69727,47.16811],[39.70311,47.17029],[39.7046,47.16995],[39.70529,47.16922],[39.70989,47.17005],[39.71017,47.17155],[39.71196,47.17167],[39.71199,47.17204],[39.7103,47.17268],[39.71201,47.17303],[39.71131,47.1742],[39.71234,47.1752],[39.71556,47.17303],[39.71668,47.17325],[39.71613,47.1742],[39.71734,47.17502],[39.71873,47.17482],[39.71972,47.17317],[39.72018,47.17308],[39.72075,47.17486],[39.72203,47.17527],[39.73431,47.17528],[39.73613,47.17347],[39.74276,47.17522],[39.74461,47.17296],[39.74701,47.17186],[39.74759,47.1712],[39.74773,47.1697],[39.75762,47.1654],[39.76157,47.16296],[39.7628,47.1661],[39.76409,47.16673],[39.76772,47.17529],[39.7757,47.17552],[39.77576,47.1824],[39.79505,47.18338],[39.82055,47.19925],[39.80802,47.20881],[39.80805,47.20914],[39.80144,47.21321],[39.80881,47.22109],[39.83109,47.22944],[39.85063,47.24269],[39.84894,47.24409],[39.85111,47.24565],[39.85072,47.24597],[39.85139,47.24713],[39.84842,47.24772],[39.84745,47.24816],[39.8472,47.24887],[39.84569,47.2491],[39.84508,47.25095],[39.84252,47.25178],[39.84257,47.25319],[39.84162,47.25331],[39.84016,47.25421],[39.83509,47.25481],[39.83427,47.25461],[39.83321,47.25536],[39.83206,47.25547],[39.82565,47.25541],[39.82524,47.25553],[39.82533,47.25649],[39.82263,47.25729],[39.82759,47.26133],[39.83743,47.26812],[39.83683,47.26948],[39.84067,47.273],[39.83952,47.27322],[39.83778,47.27224],[39.83512,47.27207],[39.83393,47.2709],[39.83268,47.27177],[39.83358,47.27239],[39.83308,47.27255],[39.82865,47.27155],[39.82843,47.27131],[39.82889,47.27068],[39.82626,47.26938],[39.82372,47.27084],[39.82551,47.27222],[39.82488,47.27289],[39.80809,47.27629],[39.81397,47.28899],[39.8136,47.28977],[39.80722,47.29097],[39.80699,47.29323],[39.8036,47.29323],[39.80345,47.30707],[39.80314,47.30714],[39.8031,47.30821],[39.80362,47.30822],[39.80326,47.3128],[39.80304,47.33846],[39.79469,47.34008],[39.79401,47.33985],[39.79372,47.33894],[39.79112,47.33796],[39.78548,47.33686],[39.78489,47.33645],[39.78446,47.33746],[39.78352,47.3368],[39.78139,47.33626],[39.78025,47.33702],[39.78121,47.3386],[39.78013,47.33905],[39.78003,47.33987],[39.77873,47.34066],[39.77816,47.34195],[39.77627,47.34168],[39.77521,47.34297],[39.77235,47.34349],[39.77175,47.34517],[39.77006,47.34468],[39.7686,47.34498],[39.76713,47.34472],[39.76561,47.34544],[39.76289,47.34552],[39.75998,47.34639],[39.7583,47.34591],[39.75797,47.34638],[39.75564,47.34689],[39.75324,47.3488],[39.7511,47.34911],[39.75086,47.35008],[39.75153,47.35127],[39.75278,47.35174],[39.75537,47.35396],[39.75567,47.35465],[39.7573,47.35538],[39.72999,47.35547],[39.73156,47.35249],[39.73735,47.33819],[39.74034,47.3281],[39.73636,47.32705],[39.73715,47.32527],[39.74023,47.32446],[39.74471,47.32161],[39.74333,47.32053],[39.75001,47.31641],[39.73509,47.30542],[39.73507,47.30427],[39.73331,47.3041],[39.73275,47.30368],[39.71858,47.30209],[39.71582,47.30432],[39.71342,47.30253],[39.71356,47.30162],[39.70382,47.30052],[39.70213,47.30152],[39.70391,47.30291],[39.70572,47.3019],[39.71205,47.30657],[39.71275,47.30648],[39.71396,47.30717],[39.71515,47.30844],[39.72505,47.31558],[39.71676,47.32016],[39.71326,47.31743],[39.69794,47.31809],[39.69652,47.31873],[39.69773,47.32022],[39.69814,47.32176],[39.6995,47.32184],[39.69982,47.32341],[39.70336,47.32432],[39.70449,47.32547],[39.70201,47.32679],[39.70552,47.33067],[39.70577,47.3317],[39.70445,47.33305],[39.7067,47.33546],[39.70661,47.33658],[39.70574,47.33707],[39.70124,47.33699],[39.69998,47.33776],[39.70067,47.33826],[39.70042,47.3386],[39.69903,47.33892],[39.70019,47.34085],[39.70286,47.34013],[39.70412,47.34019],[39.70495,47.34219],[39.70647,47.34345],[39.70658,47.34469],[39.70456,47.34429],[39.70361,47.3447],[39.7014,47.34682],[39.70108,47.34802],[39.69933,47.34854],[39.69935,47.34948],[39.69806,47.35035],[39.69906,47.35131],[39.70121,47.35154],[39.70239,47.35209],[39.70363,47.353],[39.70376,47.35366],[39.7013,47.35454],[39.70092,47.3552],[39.67284,47.35508],[39.67258,47.33011],[39.67295,47.32832],[39.67298,47.32026],[39.67285,47.31821],[39.6724,47.31776],[39.67304,47.31692],[39.67288,47.31508],[39.6726,47.31504],[39.67236,47.30411],[39.67186,47.30412],[39.67233,47.30337],[39.67193,47.30176],[39.6703,47.30173],[39.66995,47.30398],[39.66749,47.30652],[39.66558,47.3065],[39.66605,47.30299],[39.65617,47.30306],[39.65495,47.30276],[39.66022,47.29451],[39.64848,47.29285],[39.64933,47.28952],[39.65232,47.29049],[39.65315,47.28824],[39.63529,47.28147],[39.63404,47.28341],[39.62751,47.2809],[39.62727,47.28042],[39.62766,47.27902],[39.62362,47.27824],[39.62401,47.27743],[39.61925,47.27583],[39.61734,47.27456],[39.62225,47.26634],[39.62449,47.26574],[39.62338,47.26421],[39.62433,47.26286],[39.62171,47.26054],[39.62064,47.26035],[39.62062,47.25988],[39.614,47.25419],[39.57689,47.25421],[39.57607,47.2537],[39.57517,47.25422],[39.56868,47.25458],[39.56835,47.25509],[39.56447,47.25573],[39.56433,47.25663],[39.56118,47.25461],[39.55846,47.25477],[39.55645,47.25335],[39.55342,47.25195],[39.5536,47.25104],[39.55311,47.25043],[39.55486,47.24915],[39.54393,47.24668],[39.5439,47.24538],[39.54239,47.24363],[39.54181,47.24125],[39.53919,47.23931],[39.53922,47.23734],[39.53845,47.23649],[39.53811,47.23428],[39.53458,47.23318],[39.53228,47.23091],[39.52799,47.23193],[39.52061,47.23501],[39.51468,47.23587],[39.51423,47.23394],[39.49932,47.2193],[39.49047,47.22044],[39.48381,47.22205],[39.47099,47.20487]]]}}]}