{"type":"FeatureCollection","features":[{"type":"Feature","properties":{"name":"Псков","osm":"relation/1306984","licence":"Data © OpenStreetMap contributors, ODbL 1.0. http://osm.org/copyright"},"geometry":{"type":"Polygon","coordinates":[[[28.25453,57.8764],[28.2818,57.85645],[28.28191,57.85846],[28.28387,57.85784],[28.28332,57.8574],[28.28712,57.85526],[28.28484,57.85429],[28.29651,57.8459],[28.29617,57.84572],[28.29624,57.8447],[28.29669,57.84385],[28.29665,57.84244],[28.29537,57.84238],[28.28325,57.83845],[28.28287,57.83764],[28.281,57.83786],[28.27984,57.83668],[28.27826,57.83677],[28.2782,57.83644],[28.27473,57.83667],[28.27476,57.83703],[28.27256,57.83738],[28.27259,57.83771],[28.2733,57.83824],[28.27079,57.8391],[28.26853,57.83755],[28.26541,57.83915],[28.26478,57.84012],[28.25975,57.83996],[28.25875,57.84018],[28.25745,57.83912],[28.2555,57.8394],[28.25605,57.83646],[28.25666,57.83554],[28.25785,57.83457],[28.25966,57.83392],[28.26231,57.83394],[28.26634,57.83552],[28.26928,57.83623],[28.27257,57.83638],[28.27463,57.83606],[28.27264,57.83329],[28.26951,57.83328],[28.27076,57.8315],[28.27719,57.82798],[28.28707,57.8241],[28.28711,57.82317],[28.2818,57.82285],[28.27932,57.82379],[28.27727,57.824],[28.27744,57.82447],[28.27273,57.82657],[28.27141,57.82627],[28.27449,57.82252],[28.2751,57.82218],[28.27469,57.82192],[28.27588,57.82098],[28.27602,57.82035],[28.27128,57.81945],[28.26958,57.81949],[28.26965,57.81783],[28.26694,57.81707],[28.27036,57.81334],[28.2708,57.81327],[28.27098,57.81172],[28.27053,57.81145],[28.26937,57.81152],[28.26827,57.81275],[28.26569,57.81206],[28.26817,57.8094],[28.26693,57.80905],[28.26819,57.80751],[28.25735,57.80464],[28.25763,57.80425],[28.26982,57.79956],[28.27724,57.79612],[28.28274,57.79631],[28.28388,57.79505],[28.28449,57.79478],[28.28513,57.79502],[28.28651,57.79436],[28.28509,57.79316],[28.28371,57.79271],[28.28288,57.79078],[28.2837,57.78936],[28.28236,57.78681],[28.29576,57.7871],[28.29832,57.78745],[28.29878,57.78708],[28.31114,57.78609],[28.31076,57.78969],[28.31832,57.79142],[28.32056,57.79144],[28.32357,57.79186],[28.32431,57.78975],[28.32425,57.78562],[28.32475,57.78388],[28.32375,57.78385],[28.3246,57.78064],[28.32228,57.78012],[28.32345,57.77669],[28.32169,57.77204],[28.32533,57.76988],[28.32766,57.76768],[28.33137,57.76858],[28.33269,57.76866],[28.33418,57.76992],[28.33364,57.77317],[28.33123,57.77842],[28.33315,57.77842],[28.33913,57.77363],[28.34293,57.77353],[28.34731,57.77463],[28.34966,57.77472],[28.3527,57.77443],[28.35192,57.77788],[28.35352,57.77822],[28.35444,57.77724],[28.35476,57.7765],[28.35434,57.77382],[28.3543,57.76779],[28.35366,57.76625],[28.35066,57.76268],[28.35055,57.76167],[28.35086,57.75987],[28.35137,57.75948],[28.35108,57.75904],[28.35085,57.75705],[28.35021,57.75566],[28.3501,57.75418],[28.34979,57.75385],[28.34922,57.75186],[28.34858,57.7511],[28.35218,57.7503],[28.35608,57.75097],[28.35663,57.75052],[28.35634,57.74896],[28.35716,57.74819],[28.35819,57.74802],[28.36257,57.74859],[28.36272,57.74897],[28.3667,57.74921],[28.36743,57.7508],[28.36896,57.75652],[28.37288,57.75514],[28.37399,57.75285],[28.37657,57.75149],[28.37997,57.75111],[28.38977,57.75116],[28.39264,57.75075],[28.3962,57.74851],[28.39818,57.74782],[28.40165,57.7484],[28.41078,57.74732],[28.41367,57.74652],[28.41565,57.74493],[28.41715,57.74422],[28.41699,57.74481],[28.41519,57.7461],[28.41557,57.74657],[28.41827,57.74617],[28.42443,57.75287],[28.42122,57.75503],[28.42384,57.75791],[28.42418,57.76039],[28.42763,57.76097],[28.4203,57.7683],[28.42156,57.76871],[28.42226,57.76966],[28.42863,57.77256],[28.43379,57.77649],[28.44203,57.77906],[28.44425,57.78024],[28.44475,57.78238],[28.44401,57.78454],[28.45217,57.78647],[28.44838,57.79357],[28.43964,57.79866],[28.44006,57.79925],[28.44214,57.80049],[28.44387,57.80247],[28.44844,57.80407],[28.4504,57.80355],[28.45523,57.80675],[28.46087,57.80662],[28.45862,57.81938],[28.45828,57.83003],[28.46357,57.83593],[28.43751,57.83472],[28.44133,57.83856],[28.43576,57.84009],[28.43161,57.83775],[28.43046,57.83825],[28.42271,57.83388],[28.41994,57.8315],[28.41904,57.83183],[28.41938,57.83211],[28.4171,57.83224],[28.41679,57.83297],[28.41548,57.83394],[28.41495,57.83388],[28.41329,57.83469],[28.41373,57.83553],[28.41579,57.83625],[28.41631,57.83717],[28.41929,57.83829],[28.41916,57.83882],[28.41713,57.83931],[28.41691,57.84052],[28.41866,57.84228],[28.41979,57.84281],[28.42162,57.84307],[28.42219,57.84353],[28.42204,57.8441],[28.42066,57.84493],[28.42077,57.84547],[28.4221,57.84602],[28.42071,57.84688],[28.41839,57.84513],[28.41506,57.84632],[28.38795,57.84874],[28.38635,57.85136],[28.3866,57.85171],[28.38569,57.85272],[28.37579,57.85768],[28.3698,57.85701],[28.36945,57.85729],[28.36242,57.85548],[28.36052,57.85536],[28.35996,57.85602],[28.35213,57.85513],[28.35373,57.85222],[28.34853,57.84951],[28.34348,57.8504],[28.34313,57.84999],[28.34781,57.84907],[28.33555,57.84616],[28.33582,57.84573],[28.33554,57.8453],[28.33447,57.84483],[28.33291,57.8457],[28.32526,57.84413],[28.32367,57.84281],[28.3193,57.84379],[28.31972,57.84425],[28.31421,57.84664],[28.31421,57.84937],[28.30715,57.84804],[28.3081,57.85122],[28.30778,57.85294],[28.30167,57.8658],[28.28896,57.86436],[28.28734,57.86365],[28.28508,57.86099],[28.2819,57.85913],[28.27999,57.85969],[28.2803,57.86075],[28.27854,57.86142],[28.27953,57.86185],[28.27904,57.8629],[28.28086,57.86381],[28.27802,57.86728],[28.26043,57.87894],[28.25453,57.8764]]]}}]}