{"type":"FeatureCollection","features":[{"type":"Feature","properties":{"name":"Кемерово","osm":"relation/1312868","licence":"Data © OpenStreetMap contributors, ODbL 1.0. http://osm.org/copyright"},"geometry":{"type":"Polygon","coordinates":[[[85.9095,55.31808],[85.91215,55.31334],[85.92926,55.31181],[85.9301,55.30872],[85.92331,55.3033],[85.92989,55.29981],[85.94742,55.29737],[85.95529,55.30186],[85.96238,55.30156],[85.95522,55.29498],[85.92884,55.28705],[85.92493,55.2884],[85.92214,55.28553],[85.92079,55.28354],[85.92951,55.28286],[85.92897,55.28573],[85.95108,55.29254],[85.95454,55.28819],[85.94961,55.28125],[85.94652,55.28255],[85.94028,55.27773],[85.94064,55.27499],[85.9339,55.2764],[85.9292,55.27262],[85.92951,55.26624],[85.93369,55.26418],[85.92995,55.25844],[85.93665,55.25658],[85.95004,55.27121],[85.96448,55.26675],[85.98795,55.27334],[86.00794,55.26712],[86.00868,55.27451],[86.00116,55.277],[86.00974,55.29246],[86.01578,55.29067],[86.02039,55.29451],[86.02963,55.28766],[86.03389,55.28915],[86.05113,55.28527],[86.06103,55.28771],[86.07207,55.28451],[86.08143,55.28956],[86.073,55.29181],[86.06514,55.29828],[86.05124,55.29666],[86.04433,55.29975],[86.05669,55.30764],[86.06421,55.30065],[86.06887,55.30232],[86.08234,55.2916],[86.08656,55.29373],[86.09228,55.29049],[86.09581,55.29457],[86.10454,55.29187],[86.09973,55.27407],[86.08385,55.26466],[86.08555,55.26232],[86.07838,55.25932],[86.08093,55.25735],[86.12541,55.27392],[86.14244,55.2832],[86.14038,55.28518],[86.15163,55.28951],[86.1394,55.29114],[86.14154,55.294],[86.16497,55.29981],[86.16917,55.3057],[86.1667,55.31031],[86.17851,55.31242],[86.17319,55.31839],[86.18119,55.32077],[86.17788,55.32435],[86.20066,55.32993],[86.20679,55.33975],[86.19895,55.35077],[86.2017,55.36065],[86.20597,55.36469],[86.20203,55.37238],[86.20361,55.37674],[86.18533,55.37862],[86.18358,55.38216],[86.18867,55.38872],[86.1885,55.39443],[86.19275,55.3978],[86.18898,55.40921],[86.18073,55.40909],[86.17309,55.41298],[86.15403,55.41043],[86.17097,55.40902],[86.16207,55.40646],[86.16178,55.40338],[86.15499,55.40731],[86.15332,55.39343],[86.15836,55.39016],[86.15358,55.38227],[86.13537,55.37944],[86.14646,55.40206],[86.13654,55.41377],[86.13837,55.42025],[86.14421,55.41765],[86.16731,55.42093],[86.17447,55.41786],[86.2015,55.41632],[86.21574,55.41856],[86.2233,55.40556],[86.2305,55.40116],[86.22465,55.38762],[86.23376,55.38711],[86.24347,55.39097],[86.23888,55.38504],[86.25561,55.38519],[86.24595,55.39074],[86.24738,55.39856],[86.25267,55.39742],[86.25857,55.40041],[86.26566,55.39644],[86.27939,55.39676],[86.29117,55.40093],[86.28929,55.40418],[86.29204,55.40521],[86.2877,55.41614],[86.27799,55.42074],[86.26158,55.41899],[86.25339,55.42788],[86.24186,55.4261],[86.25059,55.42907],[86.24532,55.43217],[86.21532,55.43285],[86.19849,55.43806],[86.19803,55.44643],[86.20181,55.44676],[86.18693,55.44904],[86.18935,55.45116],[86.18268,55.45415],[86.19142,55.45695],[86.19663,55.45545],[86.20071,55.45898],[86.19275,55.45828],[86.19026,55.46532],[86.18453,55.45911],[86.17258,55.46158],[86.16367,55.46833],[86.16534,55.47189],[86.15629,55.47384],[86.15946,55.47905],[86.1686,55.48032],[86.1708,55.48385],[86.17751,55.48219],[86.191,55.4855],[86.20274,55.48266],[86.20569,55.48484],[86.20345,55.48819],[86.20568,55.48925],[86.20084,55.49162],[86.19974,55.49675],[86.20394,55.51239],[86.19549,55.51246],[86.19522,55.5074],[86.19058,55.50427],[86.18208,55.50708],[86.16699,55.5057],[86.16133,55.51029],[86.16582,55.523],[86.16957,55.52559],[86.16923,55.52866],[86.1658,55.52631],[86.16188,55.53973],[86.16386,55.54284],[86.15952,55.54492],[86.15845,55.53775],[86.15225,55.53297],[86.16368,55.52489],[86.14892,55.52725],[86.1452,55.52073],[86.1387,55.52039],[86.14296,55.52401],[86.1219,55.51598],[86.13031,55.5156],[86.12408,55.51268],[86.11351,55.51463],[86.12132,55.51849],[86.12335,55.52899],[86.13457,55.52573],[86.14103,55.52783],[86.13956,55.53015],[86.12784,55.53417],[86.09978,55.53503],[86.08313,55.5198],[86.08705,55.52835],[86.07042,55.52619],[86.07319,55.51634],[86.07975,55.51333],[86.0712,55.50611],[86.08896,55.50972],[86.08068,55.50509],[86.09982,55.49706],[86.10985,55.50283],[86.12469,55.49336],[86.13798,55.49101],[86.14971,55.50107],[86.152,55.4884],[86.14585,55.48404],[86.13594,55.46321],[86.14827,55.47166],[86.16183,55.46503],[86.15787,55.45657],[86.14561,55.45928],[86.14738,55.45656],[86.1362,55.44479],[86.13769,55.43942],[86.11683,55.45078],[86.10651,55.45001],[86.10574,55.45424],[86.09982,55.4556],[86.1019,55.45846],[86.09166,55.46135],[86.08334,55.45896],[86.07544,55.46263],[86.06833,55.45972],[86.06854,55.45593],[86.06239,55.45128],[86.05449,55.45462],[86.05014,55.44885],[86.05302,55.44717],[86.04805,55.44905],[86.04264,55.44499],[86.04984,55.44087],[86.06916,55.43785],[86.08117,55.43037],[86.08779,55.43572],[86.09334,55.43602],[86.0961,55.43015],[86.06112,55.42098],[86.05388,55.42515],[86.04335,55.42478],[86.04,55.43332],[86.01167,55.42959],[86.01883,55.43508],[86.03316,55.43819],[86.02835,55.4434],[85.9682,55.43043],[85.9625,55.43378],[85.97403,55.43812],[85.96491,55.44208],[85.95646,55.43756],[85.9536,55.43127],[85.94843,55.43045],[85.94895,55.42754],[85.95736,55.42526],[85.95764,55.42278],[85.95075,55.42106],[85.91973,55.43068],[85.94225,55.41657],[85.92972,55.41094],[85.92901,55.39014],[85.93303,55.39148],[85.93751,55.38828],[85.95536,55.39639],[85.98398,55.38149],[85.99608,55.37842],[86.01273,55.38013],[86.00774,55.36892],[85.98926,55.36669],[85.98001,55.36945],[85.98197,55.37527],[85.97321,55.37733],[85.96333,55.36766],[85.9747,55.36632],[85.97155,55.36083],[85.95786,55.36346],[85.96501,55.35309],[85.95734,55.3427],[85.95327,55.34378],[85.95429,55.34115],[85.94794,55.33796],[85.94689,55.33203],[85.95124,55.33172],[85.95166,55.32595],[85.95669,55.32218],[85.99003,55.32653],[86.02606,55.33932],[86.03763,55.35714],[86.02891,55.34104],[86.01433,55.33346],[86.0132,55.33101],[86.01848,55.32366],[86.00846,55.31937],[86.0005,55.32334],[85.99739,55.31989],[85.98818,55.32548],[85.95979,55.32076],[85.93586,55.33159],[85.9321,55.33667],[85.91383,55.32841],[85.9111,55.32288],[85.91303,55.32198],[85.91025,55.32107],[85.91305,55.31853],[85.9095,55.31808]]]}}]}