{"type":"FeatureCollection","features":[{"type":"Feature","properties":{"name":"Гатчина","osm":"relation/1316250","licence":"Data © OpenStreetMap contributors, ODbL 1.0. http://osm.org/copyright"},"geometry":{"type":"Polygon","coordinates":[[[30.04173,59.57468],[30.04618,59.57329],[30.04375,59.57127],[30.04621,59.57045],[30.04319,59.56786],[30.04573,59.56704],[30.04349,59.56486],[30.04866,59.56323],[30.05214,59.56608],[30.0577,59.56466],[30.06225,59.56493],[30.06309,59.56443],[30.06515,59.56423],[30.06623,59.56394],[30.06827,59.56392],[30.0697,59.56367],[30.07065,59.56377],[30.07106,59.56439],[30.07165,59.56473],[30.07385,59.5641],[30.07426,59.56375],[30.07477,59.56287],[30.07579,59.56242],[30.07655,59.56201],[30.07726,59.56135],[30.07812,59.56121],[30.07849,59.561],[30.06868,59.55898],[30.06613,59.56033],[30.06347,59.55966],[30.06032,59.55821],[30.06169,59.55343],[30.06867,59.54876],[30.0692,59.54878],[30.06949,59.54791],[30.07,59.54792],[30.07032,59.54855],[30.07314,59.54907],[30.07945,59.54946],[30.08204,59.54923],[30.08268,59.54883],[30.0827,59.54729],[30.0822,59.54673],[30.084,59.5465],[30.08457,59.54697],[30.08476,59.5471],[30.08497,59.54728],[30.08514,59.5474],[30.08522,59.54749],[30.08531,59.54756],[30.08532,59.54763],[30.08563,59.54782],[30.08609,59.54821],[30.08614,59.54829],[30.08613,59.54841],[30.08604,59.54862],[30.08603,59.54865],[30.0861,59.54886],[30.08612,59.54898],[30.08621,59.54921],[30.0862,59.54928],[30.08641,59.54965],[30.09218,59.54788],[30.0934,59.54725],[30.09364,59.54716],[30.08595,59.54308],[30.08654,59.5427],[30.08532,59.5418],[30.08491,59.5414],[30.08351,59.54116],[30.08346,59.54111],[30.08304,59.54109],[30.08308,59.54101],[30.08362,59.54088],[30.08367,59.54082],[30.08376,59.54077],[30.08411,59.54065],[30.08421,59.54063],[30.08443,59.54061],[30.08454,59.54058],[30.08478,59.54054],[30.08493,59.54058],[30.08497,59.54057],[30.08503,59.54054],[30.08512,59.54051],[30.08543,59.54047],[30.08549,59.54044],[30.08552,59.54038],[30.08558,59.54036],[30.08561,59.54039],[30.08569,59.54041],[30.08602,59.54033],[30.08638,59.5403],[30.08653,59.54027],[30.08762,59.54002],[30.08787,59.53994],[30.08795,59.53994],[30.08824,59.53985],[30.08842,59.53983],[30.08869,59.53976],[30.08906,59.53961],[30.08451,59.53606],[30.08823,59.53496],[30.09098,59.53356],[30.09755,59.53298],[30.09949,59.5335],[30.10025,59.53354],[30.10046,59.53359],[30.10035,59.53365],[30.10062,59.53382],[30.1008,59.53374],[30.10124,59.53389],[30.10146,59.534],[30.10165,59.53414],[30.10193,59.53431],[30.10241,59.53451],[30.10271,59.53461],[30.10267,59.53776],[30.1116,59.53373],[30.11181,59.53374],[30.11095,59.54104],[30.11228,59.54106],[30.11346,59.54105],[30.11358,59.54184],[30.11366,59.54191],[30.1138,59.54192],[30.1177,59.54173],[30.11886,59.54178],[30.11923,59.54108],[30.11934,59.54075],[30.12061,59.54047],[30.12145,59.53922],[30.1217,59.5321],[30.12463,59.53202],[30.12671,59.53199],[30.12831,59.53605],[30.12947,59.53593],[30.12983,59.53681],[30.12877,59.53698],[30.12993,59.53956],[30.13148,59.54071],[30.13358,59.54128],[30.13878,59.54196],[30.14059,59.54224],[30.14041,59.54241],[30.14112,59.54253],[30.14072,59.54285],[30.1398,59.54354],[30.14022,59.54395],[30.1405,59.5444],[30.14092,59.54488],[30.13793,59.54656],[30.14054,59.54828],[30.14177,59.54759],[30.1436,59.54851],[30.14434,59.54844],[30.14512,59.54916],[30.14396,59.54968],[30.14431,59.55017],[30.14319,59.55082],[30.14406,59.55278],[30.14924,59.55417],[30.15057,59.55302],[30.15157,59.55349],[30.1524,59.55314],[30.15762,59.55202],[30.15912,59.55401],[30.16034,59.5546],[30.16086,59.55623],[30.15943,59.56156],[30.16597,59.56172],[30.16631,59.5634],[30.1595,59.56386],[30.15906,59.56505],[30.15824,59.56615],[30.16367,59.57003],[30.1617,59.57382],[30.15913,59.57645],[30.15926,59.57981],[30.15495,59.58197],[30.15608,59.58281],[30.1585,59.58406],[30.1582,59.58508],[30.15849,59.58611],[30.16183,59.58639],[30.16041,59.58663],[30.15953,59.58681],[30.15754,59.58803],[30.15707,59.58878],[30.15729,59.5894],[30.15826,59.59013],[30.15759,59.59109],[30.15699,59.59233],[30.15657,59.59414],[30.15659,59.59588],[30.15316,59.59673],[30.14862,59.59241],[30.14821,59.59261],[30.14744,59.59223],[30.14815,59.59188],[30.14786,59.59148],[30.14269,59.58888],[30.13988,59.58752],[30.13846,59.58654],[30.13601,59.58637],[30.13566,59.58789],[30.13519,59.59007],[30.13429,59.59456],[30.12701,59.59369],[30.12539,59.59467],[30.12736,59.59524],[30.12816,59.59589],[30.11979,59.60081],[30.11987,59.60593],[30.11951,59.60623],[30.11879,59.60614],[30.1177,59.60608],[30.1166,59.60608],[30.11564,59.60606],[30.11468,59.60595],[30.1132,59.6055],[30.11213,59.60535],[30.11079,59.60539],[30.10683,59.60454],[30.10559,59.60407],[30.10478,59.60352],[30.10294,59.60304],[30.10181,59.60265],[30.10071,59.60179],[30.10007,59.60125],[30.09842,59.60071],[30.09812,59.60045],[30.0978,59.59978],[30.09646,59.59877],[30.09559,59.5983],[30.09519,59.59824],[30.09457,59.59819],[30.09251,59.59835],[30.09237,59.59851],[30.09143,59.59842],[30.0903,59.59842],[30.08977,59.59788],[30.08874,59.59738],[30.08778,59.59742],[30.08758,59.59625],[30.08851,59.59477],[30.08718,59.59461],[30.0873,59.59348],[30.0867,59.59267],[30.08469,59.59212],[30.08439,59.59148],[30.08359,59.59075],[30.07683,59.58668],[30.07339,59.58477],[30.072,59.5841],[30.07078,59.58363],[30.06922,59.58244],[30.0626,59.57701],[30.04634,59.57574],[30.04545,59.57505],[30.04173,59.57468]]]}}]}