{"type":"FeatureCollection","features":[{"type":"Feature","properties":{"name":"Вологда","osm":"relation/1327509","licence":"Data © OpenStreetMap contributors, ODbL 1.0. http://osm.org/copyright"},"geometry":{"type":"Polygon","coordinates":[[[39.73325,59.2304],[39.73351,59.22961],[39.7333,59.22907],[39.73392,59.22828],[39.73443,59.22801],[39.73985,59.2232],[39.74397,59.22452],[39.74776,59.22491],[39.74793,59.22413],[39.74989,59.22383],[39.75242,59.22232],[39.75349,59.2229],[39.75626,59.22304],[39.75959,59.22257],[39.76291,59.22089],[39.7625,59.21965],[39.76201,59.21662],[39.76248,59.21655],[39.76516,59.21878],[39.7735,59.21877],[39.77371,59.22105],[39.78634,59.22271],[39.78678,59.21903],[39.78928,59.21903],[39.7901,59.21426],[39.7934,59.21442],[39.79375,59.2128],[39.79349,59.21068],[39.79048,59.21068],[39.79059,59.20933],[39.78962,59.20932],[39.78961,59.202],[39.78731,59.2019],[39.78787,59.19942],[39.78203,59.19833],[39.78246,59.19792],[39.77549,59.19632],[39.77521,59.19374],[39.77637,59.1906],[39.7763,59.18932],[39.77677,59.18777],[39.7786,59.18695],[39.7739,59.18579],[39.77237,59.18656],[39.76982,59.18584],[39.76896,59.18576],[39.76791,59.18593],[39.76714,59.18637],[39.76569,59.18341],[39.76454,59.18235],[39.78575,59.18107],[39.78752,59.18128],[39.78808,59.18259],[39.78937,59.1827],[39.79364,59.18123],[39.79443,59.18132],[39.79503,59.18246],[39.79583,59.18285],[39.80104,59.18363],[39.80717,59.18484],[39.80704,59.18498],[39.8119,59.18603],[39.81222,59.18583],[39.8151,59.18681],[39.81897,59.18612],[39.82291,59.18453],[39.82404,59.18451],[39.82435,59.18398],[39.8231,59.18363],[39.82229,59.18381],[39.8208,59.18269],[39.81971,59.18257],[39.82111,59.18114],[39.82259,59.18028],[39.82151,59.17958],[39.82786,59.17685],[39.8311,59.17786],[39.83182,59.17762],[39.84361,59.18197],[39.85012,59.18606],[39.85414,59.18638],[39.88132,59.17842],[39.89342,59.17554],[39.90118,59.17351],[39.90859,59.17049],[39.90867,59.17155],[39.90745,59.17487],[39.91035,59.1781],[39.91751,59.18036],[39.91902,59.18144],[39.91972,59.18405],[39.92205,59.18358],[39.92668,59.18123],[39.92697,59.1814],[39.93161,59.17926],[39.93174,59.17831],[39.9328,59.17743],[39.94276,59.17503],[39.94429,59.17559],[39.94563,59.17785],[39.94655,59.17759],[39.94828,59.17747],[39.95088,59.17645],[39.95552,59.17768],[39.96163,59.18055],[39.97161,59.17693],[39.98793,59.16993],[39.99038,59.17173],[39.99541,59.16941],[39.99813,59.16892],[40.00339,59.17049],[40.00412,59.17143],[40.00353,59.17202],[39.98504,59.17858],[39.97481,59.18064],[39.97386,59.18436],[39.97203,59.18694],[39.9989,59.19718],[39.99808,59.19915],[40.00551,59.21518],[40.0021,59.21673],[40.00114,59.21744],[40.0055,59.21912],[40.00868,59.22179],[40.00807,59.22931],[40.00992,59.23159],[40.01267,59.23287],[40.02283,59.23308],[40.02302,59.23646],[40.01401,59.23627],[40.01387,59.23772],[40.01209,59.23788],[40.00897,59.24096],[40.00126,59.24025],[40.00092,59.24052],[40.00129,59.24343],[39.9956,59.24345],[39.99133,59.24372],[39.9879,59.24366],[39.98311,59.24309],[39.96423,59.24309],[39.96067,59.2514],[39.96247,59.25092],[39.96277,59.2532],[39.96225,59.2532],[39.96249,59.25586],[39.96315,59.25599],[39.9632,59.25651],[39.97153,59.25657],[39.99508,59.26053],[40.00212,59.26154],[40.00263,59.26294],[39.96868,59.28502],[39.95501,59.26862],[39.95522,59.26685],[39.95479,59.26597],[39.95341,59.26577],[39.95264,59.26617],[39.95187,59.2661],[39.95127,59.26682],[39.94848,59.26505],[39.94633,59.26461],[39.94646,59.26353],[39.93874,59.25899],[39.93098,59.25901],[39.9264,59.26359],[39.91754,59.27084],[39.91522,59.27325],[39.91179,59.2718],[39.91028,59.27156],[39.9099,59.26981],[39.9087,59.26946],[39.90904,59.26599],[39.9014,59.26676],[39.90465,59.27548],[39.90197,59.27534],[39.89755,59.27341],[39.89456,59.27449],[39.89343,59.27392],[39.89291,59.27408],[39.89129,59.27313],[39.88778,59.27407],[39.87942,59.27022],[39.87766,59.27103],[39.87486,59.27044],[39.87352,59.27048],[39.87276,59.27034],[39.87186,59.27089],[39.87096,59.27068],[39.8701,59.27114],[39.86975,59.27084],[39.86988,59.27063],[39.8694,59.2698],[39.86902,59.26957],[39.86897,59.26932],[39.86816,59.26917],[39.86826,59.26882],[39.8682,59.26847],[39.86892,59.26774],[39.86885,59.26757],[39.8683,59.26724],[39.86874,59.26708],[39.86885,59.2667],[39.86959,59.26658],[39.86939,59.2663],[39.8687,59.26609],[39.8684,59.26564],[39.86949,59.26529],[39.86943,59.26505],[39.86926,59.2649],[39.86853,59.26479],[39.86832,59.26465],[39.86911,59.2646],[39.86956,59.2644],[39.86974,59.26413],[39.87057,59.26394],[39.87113,59.26403],[39.87145,59.26388],[39.87194,59.26388],[39.87377,59.26418],[39.87504,59.2648],[39.87603,59.26474],[39.87515,59.26351],[39.87507,59.26275],[39.87458,59.26194],[39.87387,59.2611],[39.87264,59.26035],[39.86433,59.2572],[39.85994,59.25481],[39.85893,59.25446],[39.8564,59.25424],[39.85312,59.25449],[39.85043,59.25506],[39.84707,59.25624],[39.84442,59.25673],[39.8416,59.257],[39.83875,59.25704],[39.83193,59.25608],[39.82954,59.25606],[39.8278,59.2559],[39.82638,59.25553],[39.8239,59.25445],[39.823,59.25387],[39.82241,59.25316],[39.82229,59.25257],[39.82251,59.25186],[39.82305,59.25116],[39.8236,59.25074],[39.82573,59.24965],[39.82667,59.24865],[39.82759,59.24692],[39.82765,59.24614],[39.82721,59.24522],[39.82587,59.24402],[39.82356,59.24288],[39.81964,59.2418],[39.81783,59.24155],[39.8134,59.2406],[39.80909,59.24016],[39.79962,59.24028],[39.79795,59.24042],[39.79596,59.24092],[39.79504,59.24103],[39.79115,59.2403],[39.78966,59.23982],[39.78702,59.23819],[39.78618,59.23824],[39.78512,59.23933],[39.78411,59.2394],[39.78213,59.23913],[39.78012,59.23859],[39.77889,59.23778],[39.77769,59.23664],[39.77473,59.23441],[39.77435,59.23395],[39.77397,59.23374],[39.7732,59.23362],[39.77166,59.23377],[39.76984,59.23439],[39.76743,59.23548],[39.76533,59.23624],[39.76047,59.23743],[39.75875,59.23774],[39.75675,59.23789],[39.75025,59.23783],[39.74532,59.23758],[39.74243,59.23728],[39.74141,59.23683],[39.74055,59.2362],[39.73964,59.23521],[39.73675,59.23351],[39.73483,59.2331],[39.73397,59.23265],[39.73345,59.23205],[39.73325,59.2304]]]}}]}