{"type":"FeatureCollection","features":[{"type":"Feature","properties":{"name":"Салехард","osm":"relation/13264489","licence":"Data © OpenStreetMap contributors, ODbL 1.0. http://osm.org/copyright"},"geometry":{"type":"Polygon","coordinates":[[[66.52123,66.58925],[66.52229,66.58583],[66.52444,66.58349],[66.52875,66.58121],[66.53385,66.5801],[66.54172,66.57668],[66.54322,66.57447],[66.5461,66.5718],[66.54659,66.57024],[66.54569,66.56836],[66.54619,66.56647],[66.54757,66.56482],[66.54685,66.5647],[66.54678,66.56407],[66.54634,66.56397],[66.54818,66.56348],[66.5485,66.56207],[66.55017,66.56065],[66.5574,66.55802],[66.55928,66.55677],[66.55837,66.55645],[66.55903,66.5561],[66.56004,66.55641],[66.56194,66.55558],[66.56004,66.55517],[66.56386,66.55058],[66.56602,66.54867],[66.5657,66.54863],[66.56791,66.54771],[66.57121,66.54541],[66.57088,66.54531],[66.57136,66.54497],[66.57599,66.5427],[66.57627,66.54241],[66.5752,66.54214],[66.57612,66.54011],[66.57572,66.53984],[66.579,66.53915],[66.57847,66.53774],[66.57512,66.53531],[66.57033,66.52997],[66.56952,66.52799],[66.56984,66.52677],[66.57236,66.52445],[66.57764,66.52262],[66.57726,66.52227],[66.58137,66.52147],[66.58796,66.52113],[66.59857,66.52303],[66.59998,66.52274],[66.60757,66.52427],[66.60819,66.52293],[66.61306,66.52271],[66.6144,66.52315],[66.61535,66.52465],[66.63242,66.5258],[66.65565,66.52462],[66.67209,66.52118],[66.67377,66.52194],[66.67382,66.52253],[66.67713,66.52273],[66.67914,66.52023],[66.67894,66.51918],[66.67826,66.5184],[66.6762,66.51789],[66.67683,66.51736],[66.68094,66.51842],[66.6811,66.51673],[66.68502,66.51199],[66.68982,66.51117],[66.69343,66.51121],[66.69511,66.51072],[66.69685,66.50856],[66.72198,66.51051],[66.7658,66.52045],[66.78514,66.51805],[66.78482,66.52465],[66.78419,66.52659],[66.78263,66.52797],[66.78295,66.52866],[66.78434,66.52956],[66.784,66.53189],[66.77659,66.53552],[66.77211,66.53572],[66.77061,66.5363],[66.77124,66.53683],[66.76957,66.537],[66.77121,66.53733],[66.77239,66.53826],[66.77115,66.53844],[66.77156,66.53896],[66.76957,66.53903],[66.7693,66.53956],[66.77122,66.54066],[66.76984,66.54089],[66.76658,66.54003],[66.76638,66.54048],[66.7642,66.54123],[66.76486,66.54176],[66.76388,66.54218],[66.76521,66.54307],[66.76431,66.5432],[66.7644,66.54375],[66.7638,66.54439],[66.76226,66.5451],[66.76344,66.54575],[66.76244,66.54593],[66.76205,66.54543],[66.76112,66.54569],[66.76041,66.54661],[66.75854,66.54669],[66.75802,66.54732],[66.7557,66.5479],[66.7558,66.54847],[66.75303,66.54791],[66.75303,66.54884],[66.75262,66.54901],[66.75119,66.54831],[66.74873,66.54806],[66.75111,66.54927],[66.74973,66.54994],[66.75085,66.55024],[66.7501,66.55065],[66.75079,66.55116],[66.74734,66.55061],[66.74631,66.5508],[66.74912,66.55123],[66.74953,66.55147],[66.74917,66.55172],[66.74764,66.55131],[66.74655,66.55166],[66.74527,66.55138],[66.74323,66.55169],[66.74283,66.55201],[66.74348,66.5525],[66.74218,66.55252],[66.74127,66.55299],[66.73519,66.55289],[66.73464,66.55324],[66.73532,66.5536],[66.73518,66.55396],[66.7331,66.55322],[66.72835,66.55314],[66.72766,66.55295],[66.72747,66.55247],[66.72525,66.55269],[66.72484,66.55308],[66.72569,66.55381],[66.72758,66.55401],[66.7196,66.55389],[66.72045,66.55498],[66.72142,66.55514],[66.72193,66.5546],[66.72292,66.55502],[66.72128,66.55576],[66.72083,66.5567],[66.72323,66.55698],[66.72224,66.55745],[66.72206,66.55807],[66.71962,66.55786],[66.72164,66.5587],[66.71762,66.55851],[66.71775,66.55939],[66.719,66.56021],[66.71704,66.56028],[66.71694,66.56062],[66.71869,66.561],[66.7182,66.5624],[66.71951,66.56256],[66.72009,66.56317],[66.71966,66.56354],[66.71802,66.56301],[66.71659,66.56342],[66.71639,66.56369],[66.71697,66.56402],[66.71966,66.56456],[66.71561,66.56545],[66.71629,66.56626],[66.71611,66.56657],[66.71142,66.56664],[66.7081,66.56578],[66.70813,66.56486],[66.70642,66.5648],[66.70233,66.56549],[66.70162,66.56663],[66.70093,66.56694],[66.69956,66.56695],[66.69742,66.56605],[66.6963,66.56687],[66.69636,66.5685],[66.69337,66.56847],[66.69272,66.56908],[66.69273,66.5696],[66.69368,66.57011],[66.69528,66.57024],[66.69597,66.57091],[66.69462,66.57314],[66.6995,66.57221],[66.69996,66.57243],[66.69915,66.57322],[66.69995,66.57415],[66.70227,66.57467],[66.7043,66.57436],[66.70527,66.57461],[66.70583,66.57555],[66.70381,66.57518],[66.70333,66.57549],[66.70529,66.57622],[66.70562,66.57676],[66.70521,66.57734],[66.70427,66.5779],[66.70263,66.57745],[66.70178,66.57784],[66.7068,66.5795],[66.70712,66.57991],[66.70383,66.57988],[66.70328,66.57972],[66.70315,66.5791],[66.70246,66.57899],[66.70058,66.57969],[66.70244,66.57991],[66.70191,66.58041],[66.69801,66.58077],[66.70378,66.58237],[66.70098,66.58243],[66.69775,66.5832],[66.69726,66.5837],[66.69752,66.58438],[66.69673,66.58471],[66.69365,66.58441],[66.6952,66.58554],[66.69475,66.58695],[66.69507,66.58734],[66.69664,66.58763],[66.69843,66.58693],[66.69885,66.5876],[66.68035,66.59092],[66.66808,66.60162],[66.64725,66.59706],[66.64755,66.59633],[66.61155,66.5885],[66.60822,66.58727],[66.60543,66.58725],[66.58006,66.58171],[66.5754,66.58207],[66.56877,66.58629],[66.56763,66.58729],[66.56762,66.58802],[66.56871,66.58874],[66.57427,66.59029],[66.58,66.59289],[66.58173,66.5941],[66.58131,66.59426],[66.58144,66.59459],[66.58013,66.59657],[66.57627,66.59877],[66.57428,66.60058],[66.57457,66.60198],[66.57516,66.60203],[66.57528,66.60229],[66.57482,66.60232],[66.57696,66.60676],[66.57703,66.60812],[66.57358,66.61204],[66.57024,66.62209],[66.56894,66.62289],[66.56501,66.62359],[66.55721,66.62388],[66.55423,66.62521],[66.54718,66.62341],[66.54347,66.62193],[66.53954,66.61949],[66.53744,66.61685],[66.53534,66.61639],[66.53511,66.61441],[66.533,66.61218],[66.53309,66.61157],[66.53265,66.61149],[66.53237,66.60938],[66.53164,66.6085],[66.53121,66.6066],[66.52904,66.60479],[66.52908,66.60341],[66.52736,66.60121],[66.5267,66.59821],[66.52484,66.59512],[66.52311,66.59362],[66.52325,66.59286],[66.52205,66.59178],[66.52123,66.58925]]]}}]}