{"type":"FeatureCollection","features":[{"type":"Feature","properties":{"name":"Архангельск","osm":"relation/1330715","licence":"Data © OpenStreetMap contributors, ODbL 1.0. http://osm.org/copyright"},"geometry":{"type":"Polygon","coordinates":[[[40.28494,64.53094],[40.34468,64.50546],[40.36655,64.50877],[40.36266,64.51164],[40.36496,64.51316],[40.36627,64.52163],[40.36928,64.52293],[40.39674,64.51225],[40.41265,64.51443],[40.43715,64.51374],[40.43605,64.51527],[40.45784,64.51306],[40.51433,64.51909],[40.52038,64.518],[40.51689,64.5144],[40.52354,64.5126],[40.53956,64.51436],[40.57335,64.50473],[40.59196,64.49536],[40.59017,64.48311],[40.59349,64.47988],[40.59256,64.47586],[40.59071,64.47578],[40.59601,64.46836],[40.58662,64.46658],[40.5898,64.46311],[40.61965,64.46835],[40.65748,64.46335],[40.64996,64.45991],[40.65127,64.4584],[40.64743,64.45797],[40.64894,64.45649],[40.63915,64.45571],[40.63515,64.45793],[40.61316,64.45539],[40.61161,64.45108],[40.60381,64.45155],[40.59926,64.44957],[40.59845,64.44653],[40.58587,64.43871],[40.59366,64.43596],[40.58763,64.43161],[40.55771,64.42054],[40.54788,64.41942],[40.54642,64.41118],[40.55996,64.41043],[40.55952,64.40326],[40.59619,64.40562],[40.59945,64.39964],[40.60403,64.39746],[40.61264,64.39748],[40.61864,64.40019],[40.61584,64.40124],[40.61884,64.40513],[40.61602,64.40626],[40.62089,64.40761],[40.61904,64.40801],[40.62057,64.40975],[40.63273,64.40924],[40.64458,64.41435],[40.6592,64.41254],[40.66651,64.41713],[40.6518,64.42193],[40.64802,64.42821],[40.64787,64.43255],[40.62263,64.4378],[40.61512,64.44503],[40.61488,64.44804],[40.61914,64.44822],[40.61995,64.45054],[40.64163,64.45005],[40.65901,64.44729],[40.65531,64.45206],[40.66512,64.45498],[40.6628,64.45689],[40.67179,64.46326],[40.68629,64.46475],[40.70537,64.46175],[40.70671,64.46471],[40.73313,64.462],[40.74314,64.45778],[40.74859,64.46011],[40.74848,64.4622],[40.76452,64.46006],[40.79258,64.45093],[40.80039,64.4546],[40.78562,64.47518],[40.77669,64.48214],[40.8007,64.48257],[40.80085,64.48818],[40.79891,64.49182],[40.79454,64.49389],[40.78335,64.49221],[40.77294,64.49405],[40.7617,64.49023],[40.7549,64.49138],[40.75027,64.49587],[40.74299,64.49788],[40.72878,64.49613],[40.71832,64.50861],[40.70996,64.51423],[40.71496,64.52096],[40.69755,64.52915],[40.692,64.54441],[40.68074,64.54426],[40.65935,64.55361],[40.66112,64.56362],[40.66562,64.56709],[40.66562,64.57303],[40.67328,64.57461],[40.66628,64.57961],[40.65278,64.58165],[40.60425,64.57378],[40.58196,64.57572],[40.62597,64.60006],[40.68519,64.5955],[40.67786,64.59891],[40.69392,64.59818],[40.69335,64.59572],[40.71113,64.59488],[40.71055,64.59648],[40.71596,64.59632],[40.71755,64.5961],[40.7157,64.59398],[40.73089,64.59362],[40.73636,64.59046],[40.76299,64.59739],[40.83603,64.59263],[40.83651,64.59675],[40.76548,64.59832],[40.76607,64.60273],[40.75604,64.60131],[40.73788,64.6058],[40.74034,64.60823],[40.72971,64.61153],[40.70879,64.61127],[40.70885,64.61314],[40.70344,64.6142],[40.6856,64.60804],[40.67882,64.60834],[40.67823,64.6048],[40.67068,64.60357],[40.66981,64.59724],[40.62887,64.60234],[40.61872,64.5965],[40.61856,64.5995],[40.61555,64.60148],[40.60687,64.60291],[40.6091,64.60611],[40.59542,64.61106],[40.59489,64.61693],[40.59925,64.62149],[40.59732,64.62212],[40.5876,64.62075],[40.59401,64.61694],[40.59076,64.61697],[40.59265,64.60926],[40.58829,64.60916],[40.5861,64.60614],[40.58361,64.60633],[40.58413,64.61001],[40.57763,64.61092],[40.57432,64.60727],[40.56554,64.60744],[40.565,64.61306],[40.56223,64.61315],[40.5634,64.63359],[40.54274,64.64077],[40.55536,64.6463],[40.55222,64.65132],[40.56313,64.65118],[40.56474,64.64185],[40.57199,64.63772],[40.57818,64.63719],[40.57887,64.63482],[40.58591,64.63427],[40.61289,64.6529],[40.61108,64.65447],[40.6342,64.66191],[40.63249,64.67602],[40.64442,64.68278],[40.6187,64.69289],[40.61483,64.69771],[40.62723,64.69891],[40.64052,64.69604],[40.64476,64.70019],[40.65037,64.71455],[40.64886,64.7177],[40.64665,64.71798],[40.64874,64.72065],[40.64725,64.72404],[40.64209,64.72423],[40.6359,64.72069],[40.6317,64.72223],[40.61486,64.72108],[40.61014,64.7228],[40.61706,64.72445],[40.61002,64.72811],[40.59081,64.72563],[40.58238,64.72831],[40.57832,64.7267],[40.58307,64.72392],[40.58069,64.7218],[40.5633,64.72125],[40.55805,64.72488],[40.55344,64.73825],[40.53605,64.75301],[40.52792,64.75211],[40.52826,64.74672],[40.53251,64.74287],[40.5224,64.73725],[40.52149,64.73247],[40.50806,64.73247],[40.50327,64.74197],[40.48581,64.76104],[40.4555,64.77306],[40.43286,64.76619],[40.42058,64.75776],[40.40859,64.74694],[40.40427,64.73599],[40.40643,64.69933],[40.4129,64.6586],[40.43672,64.62442],[40.47004,64.6065],[40.47092,64.6007],[40.47426,64.59631],[40.47186,64.59249],[40.47589,64.59115],[40.47558,64.58919],[40.46059,64.5878],[40.46534,64.58363],[40.47086,64.56708],[40.4678,64.54462],[40.4577,64.5424],[40.4507,64.54589],[40.44085,64.54285],[40.43685,64.53748],[40.42855,64.53949],[40.42562,64.53819],[40.42612,64.53609],[40.41963,64.53698],[40.42174,64.5386],[40.40526,64.53939],[40.39722,64.54312],[40.38627,64.54308],[40.38421,64.54005],[40.37591,64.53668],[40.33024,64.55968],[40.32008,64.55377],[40.3174,64.54828],[40.3195,64.54732],[40.3188,64.54573],[40.30422,64.54672],[40.28494,64.53094]]]}}]}