{"type":"FeatureCollection","features":[{"type":"Feature","properties":{"name":"Рыбинск","osm":"relation/1432255","licence":"Data © OpenStreetMap contributors, ODbL 1.0. http://osm.org/copyright"},"geometry":{"type":"Polygon","coordinates":[[[38.64893,58.10401],[38.65039,58.10211],[38.65389,58.10304],[38.65543,58.10213],[38.65669,58.09986],[38.66178,58.10018],[38.6611,58.09935],[38.66321,58.09797],[38.66218,58.09659],[38.66177,58.09654],[38.66173,58.09688],[38.66224,58.09772],[38.66028,58.09762],[38.66008,58.09712],[38.66135,58.09638],[38.66124,58.09609],[38.65878,58.09561],[38.6563,58.0944],[38.66003,58.09488],[38.66027,58.09458],[38.66282,58.09457],[38.66283,58.09171],[38.66466,58.09105],[38.66708,58.09322],[38.67386,58.08824],[38.67437,58.0867],[38.68934,58.082],[38.69303,58.08246],[38.69687,58.07811],[38.69934,58.07669],[38.7021,58.07714],[38.70051,58.08021],[38.6995,58.08131],[38.6988,58.08121],[38.69765,58.08319],[38.70635,58.08445],[38.71117,58.08155],[38.71002,58.08105],[38.71495,58.07799],[38.71686,58.07776],[38.72231,58.08063],[38.72255,58.08086],[38.71969,58.08116],[38.71991,58.08166],[38.71964,58.08167],[38.72141,58.08249],[38.7236,58.08232],[38.724,58.08305],[38.72255,58.08316],[38.72255,58.08429],[38.72183,58.08485],[38.7225,58.08519],[38.72009,58.08596],[38.7214,58.08682],[38.72215,58.08791],[38.72228,58.08925],[38.7227,58.08975],[38.72217,58.09054],[38.7228,58.09127],[38.73045,58.09055],[38.74193,58.08728],[38.74989,58.08418],[38.75077,58.08355],[38.74425,58.07964],[38.74356,58.07751],[38.73829,58.07171],[38.74123,58.06777],[38.73912,58.06737],[38.73912,58.06648],[38.73659,58.06649],[38.73641,58.06678],[38.73334,58.06658],[38.72716,58.0603],[38.75051,58.05128],[38.7421,58.04483],[38.75254,58.03977],[38.76384,58.03851],[38.76622,58.04123],[38.76727,58.04177],[38.77469,58.04233],[38.78105,58.04117],[38.78879,58.0392],[38.78627,58.03651],[38.78623,58.03576],[38.78825,58.03505],[38.79205,58.03419],[38.79366,58.03518],[38.79569,58.03436],[38.80014,58.03506],[38.80342,58.03205],[38.80635,58.03338],[38.80785,58.03108],[38.81101,58.03166],[38.81989,58.02764],[38.81771,58.02738],[38.81802,58.02598],[38.81972,58.0255],[38.82045,58.02475],[38.82372,58.01995],[38.82009,58.016],[38.82929,58.01373],[38.83172,58.01242],[38.82509,58.00754],[38.84155,58.00402],[38.84571,58.00647],[38.8423,58.00857],[38.8433,58.01075],[38.84575,58.01302],[38.8458,58.01513],[38.84781,58.01656],[38.84864,58.01689],[38.86301,58.01691],[38.86344,58.01721],[38.86352,58.01956],[38.86594,58.01992],[38.86651,58.01984],[38.86724,58.01824],[38.86902,58.01729],[38.8664,58.01718],[38.86637,58.01665],[38.86423,58.01674],[38.8572,58.0107],[38.8576,58.01052],[38.85653,58.00935],[38.8566,58.0077],[38.85735,58.0077],[38.85748,58.00674],[38.85796,58.00671],[38.85805,58.00545],[38.85872,58.00548],[38.85891,58.00474],[38.85953,58.00477],[38.85977,58.00398],[38.86065,58.00356],[38.86299,58.00386],[38.86619,58.00218],[38.86796,58.0018],[38.86962,58.00287],[38.87367,58.00218],[38.87692,58.00368],[38.87732,58.00437],[38.87692,58.00493],[38.87837,58.00519],[38.88043,58.00477],[38.88087,58.00526],[38.88328,58.00505],[38.88359,58.00444],[38.89488,58.0028],[38.89641,58.00358],[38.89688,58.00439],[38.89686,58.00541],[38.91021,58.0079],[38.90968,58.00846],[38.90516,58.00778],[38.902,58.01243],[38.90472,58.01272],[38.90211,58.01586],[38.90835,58.01632],[38.91207,58.01255],[38.91449,58.00862],[38.94845,58.01529],[38.94798,58.01554],[38.9477,58.01797],[38.94347,58.018],[38.9433,58.02043],[38.94601,58.02183],[38.95393,58.02117],[38.96321,58.02128],[38.96337,58.01903],[38.97434,58.02195],[38.97505,58.02254],[38.97069,58.02393],[38.9697,58.02461],[38.96932,58.02516],[38.96943,58.02715],[38.97,58.02841],[38.96946,58.02967],[38.9652,58.03025],[38.96521,58.03232],[38.9647,58.03274],[38.96495,58.03475],[38.95871,58.04121],[38.95465,58.04276],[38.95476,58.0434],[38.95571,58.04354],[38.95572,58.04446],[38.95487,58.04455],[38.95343,58.04666],[38.94433,58.04531],[38.94363,58.04737],[38.93939,58.04766],[38.93869,58.04547],[38.93524,58.04492],[38.93824,58.04277],[38.93967,58.04299],[38.94102,58.04059],[38.92593,58.04053],[38.9261,58.04165],[38.92738,58.04162],[38.92713,58.04269],[38.9355,58.04352],[38.93493,58.04491],[38.93367,58.04592],[38.93312,58.04713],[38.93495,58.05048],[38.93427,58.0543],[38.92979,58.05517],[38.93093,58.05715],[38.92955,58.05859],[38.92141,58.05933],[38.89808,58.0628],[38.89472,58.06264],[38.88641,58.06609],[38.88866,58.06824],[38.88787,58.0689],[38.88911,58.07078],[38.88704,58.07233],[38.88561,58.07452],[38.86468,58.07725],[38.86653,58.08148],[38.86422,58.08255],[38.86164,58.0803],[38.85891,58.08059],[38.85621,58.07943],[38.85222,58.07999],[38.85853,58.08234],[38.86365,58.08587],[38.85906,58.08751],[38.852,58.08895],[38.85162,58.08967],[38.85238,58.09146],[38.85231,58.09258],[38.85653,58.09433],[38.85569,58.0954],[38.85708,58.09542],[38.85733,58.09473],[38.85848,58.09433],[38.85924,58.09519],[38.86081,58.09416],[38.86171,58.09466],[38.86147,58.09569],[38.86351,58.09723],[38.85964,58.102],[38.83392,58.08695],[38.82748,58.08426],[38.82617,58.08504],[38.8256,58.0848],[38.82559,58.08434],[38.82627,58.08352],[38.82156,58.08185],[38.81219,58.08372],[38.81206,58.08834],[38.81897,58.0922],[38.8185,58.09253],[38.80371,58.08859],[38.80235,58.08752],[38.80156,58.08613],[38.77827,58.09053],[38.77904,58.09149],[38.77741,58.0922],[38.7788,58.09362],[38.77722,58.09431],[38.77598,58.09379],[38.77431,58.09441],[38.77152,58.09922],[38.76934,58.09917],[38.76945,58.09877],[38.76849,58.09787],[38.76466,58.09873],[38.76287,58.09778],[38.75892,58.09943],[38.75824,58.09912],[38.74831,58.10382],[38.7473,58.10398],[38.74529,58.10548],[38.74619,58.10578],[38.7443,58.10709],[38.74345,58.10677],[38.74156,58.10799],[38.74169,58.10882],[38.73786,58.1096],[38.73655,58.11086],[38.72772,58.11102],[38.72477,58.10972],[38.71869,58.11037],[38.71714,58.11113],[38.70484,58.1141],[38.68483,58.12109],[38.64893,58.10401]]]}}]}