{"type":"FeatureCollection","features":[{"type":"Feature","properties":{"name":"Иркутск","osm":"relation/1430614","licence":"Data © OpenStreetMap contributors, ODbL 1.0. http://osm.org/copyright"},"geometry":{"type":"Polygon","coordinates":[[[104.05892,52.39701],[104.05916,52.39429],[104.06357,52.39148],[104.07744,52.38567],[104.08365,52.38432],[104.0894,52.38165],[104.09266,52.37896],[104.10006,52.37727],[104.09848,52.37586],[104.09862,52.37445],[104.09785,52.37363],[104.09435,52.37297],[104.09272,52.37155],[104.08618,52.37015],[104.09121,52.36676],[104.10798,52.3631],[104.10889,52.36596],[104.11448,52.36563],[104.11696,52.36367],[104.1245,52.35977],[104.12744,52.35934],[104.13205,52.35619],[104.13738,52.35184],[104.13671,52.35036],[104.14894,52.34538],[104.14754,52.34304],[104.15266,52.33991],[104.15133,52.33913],[104.14787,52.34129],[104.14168,52.33742],[104.14625,52.33473],[104.14432,52.33321],[104.15106,52.3286],[104.15332,52.32746],[104.15699,52.32927],[104.16184,52.33355],[104.16641,52.33018],[104.16602,52.32977],[104.16673,52.32876],[104.17057,52.32628],[104.16826,52.32445],[104.16973,52.32332],[104.169,52.32269],[104.16928,52.32215],[104.172,52.32145],[104.1738,52.32235],[104.17374,52.32363],[104.18249,52.32902],[104.19284,52.31902],[104.19739,52.31785],[104.20059,52.31622],[104.20631,52.31616],[104.2193,52.30948],[104.21753,52.30617],[104.20959,52.30658],[104.20844,52.30531],[104.20706,52.30539],[104.20626,52.30468],[104.20146,52.30518],[104.19963,52.30416],[104.20006,52.30386],[104.19903,52.3012],[104.20014,52.2997],[104.19868,52.29929],[104.19722,52.29616],[104.19056,52.29431],[104.18742,52.29263],[104.18612,52.28932],[104.194,52.28462],[104.19559,52.28426],[104.19739,52.28231],[104.19946,52.28156],[104.19847,52.27796],[104.19506,52.27642],[104.19071,52.27589],[104.18802,52.27468],[104.19166,52.27077],[104.192,52.26911],[104.19317,52.26746],[104.19123,52.26528],[104.1879,52.26388],[104.18806,52.2632],[104.19059,52.26127],[104.19433,52.26156],[104.19891,52.25932],[104.19591,52.25659],[104.19897,52.25453],[104.20167,52.2565],[104.20414,52.2567],[104.21014,52.25331],[104.20596,52.25097],[104.2041,52.25227],[104.19613,52.24759],[104.19727,52.24672],[104.19386,52.24482],[104.19023,52.24593],[104.18907,52.24536],[104.18939,52.24488],[104.19444,52.24182],[104.20178,52.2424],[104.20845,52.24571],[104.21011,52.24437],[104.21368,52.245],[104.21424,52.24458],[104.22546,52.24506],[104.22594,52.24568],[104.22492,52.25262],[104.2243,52.25261],[104.22417,52.25328],[104.2246,52.25425],[104.22729,52.25303],[104.22716,52.25076],[104.22879,52.24999],[104.22871,52.24944],[104.23765,52.24633],[104.23753,52.2491],[104.24174,52.24956],[104.24574,52.24855],[104.2457,52.24795],[104.25034,52.2478],[104.25528,52.24544],[104.26129,52.24396],[104.26533,52.23769],[104.26459,52.2375],[104.26525,52.23647],[104.26562,52.2324],[104.26776,52.23138],[104.26914,52.22957],[104.2693,52.22795],[104.27113,52.22735],[104.27524,52.22388],[104.27726,52.22309],[104.27738,52.22179],[104.2767,52.22082],[104.28027,52.21905],[104.28,52.21765],[104.28247,52.21748],[104.28301,52.21693],[104.29017,52.21782],[104.29122,52.21631],[104.29392,52.21606],[104.30079,52.21364],[104.31088,52.21506],[104.31353,52.21461],[104.31822,52.21801],[104.31931,52.21627],[104.32338,52.21384],[104.31934,52.21369],[104.3181,52.2125],[104.3222,52.2096],[104.34928,52.20923],[104.37348,52.23511],[104.37431,52.23703],[104.37356,52.23887],[104.37755,52.24024],[104.37291,52.24334],[104.37298,52.24405],[104.37113,52.24574],[104.37888,52.24729],[104.38207,52.24869],[104.38617,52.25244],[104.38644,52.25412],[104.36477,52.25404],[104.36502,52.25921],[104.36055,52.26001],[104.36362,52.26298],[104.36914,52.26526],[104.37231,52.2646],[104.37309,52.26525],[104.37954,52.2648],[104.39297,52.26276],[104.39382,52.26189],[104.39542,52.26188],[104.39559,52.2624],[104.40855,52.25904],[104.42029,52.25797],[104.42121,52.25926],[104.43256,52.25639],[104.42885,52.25775],[104.42895,52.25952],[104.42203,52.26039],[104.42242,52.26195],[104.37864,52.27373],[104.37497,52.27494],[104.37502,52.27551],[104.37292,52.27552],[104.37387,52.27737],[104.37475,52.27721],[104.3756,52.27895],[104.37386,52.28372],[104.37796,52.28399],[104.3818,52.28511],[104.38341,52.28662],[104.38646,52.28738],[104.38786,52.28668],[104.38986,52.28769],[104.39616,52.28694],[104.39861,52.29016],[104.40122,52.28984],[104.40159,52.29157],[104.40354,52.29231],[104.40421,52.29343],[104.40817,52.29285],[104.40854,52.2934],[104.4075,52.2938],[104.40871,52.29404],[104.4086,52.29513],[104.40948,52.2947],[104.40962,52.2934],[104.41149,52.29337],[104.41192,52.29233],[104.41323,52.29281],[104.4133,52.29215],[104.41431,52.29213],[104.41342,52.29105],[104.41501,52.29103],[104.41574,52.29182],[104.41736,52.29181],[104.4177,52.29288],[104.41853,52.29247],[104.41985,52.29304],[104.42005,52.29154],[104.4221,52.29],[104.42421,52.28931],[104.42879,52.29016],[104.42946,52.28976],[104.42909,52.28881],[104.43035,52.28805],[104.43542,52.28784],[104.43733,52.2885],[104.43938,52.29025],[104.44038,52.29018],[104.44072,52.28905],[104.44149,52.28887],[104.44412,52.28957],[104.44335,52.29099],[104.44429,52.29272],[104.44441,52.29462],[104.44519,52.2954],[104.4429,52.29587],[104.43792,52.29827],[104.44162,52.30044],[104.44133,52.30098],[104.44008,52.30182],[104.4367,52.30146],[104.43844,52.30365],[104.43798,52.30511],[104.44847,52.31008],[104.42042,52.34003],[104.40133,52.35461],[104.37077,52.36721],[104.36107,52.36912],[104.35582,52.37121],[104.34102,52.36843],[104.33317,52.36758],[104.32419,52.34904],[104.32247,52.3402],[104.3212,52.33791],[104.3095,52.33404],[104.28894,52.34615],[104.28606,52.35065],[104.28525,52.35503],[104.28233,52.35717],[104.27815,52.35837],[104.27403,52.35812],[104.2646,52.36316],[104.23682,52.37183],[104.22566,52.376],[104.19286,52.38469],[104.18491,52.38941],[104.18077,52.39928],[104.16279,52.40263],[104.14835,52.39809],[104.14082,52.39989],[104.13173,52.40737],[104.1291,52.4102],[104.10822,52.42167],[104.10461,52.42055],[104.10005,52.41786],[104.09997,52.41653],[104.09698,52.41401],[104.09062,52.41237],[104.08884,52.41135],[104.08865,52.41019],[104.08633,52.40944],[104.08564,52.40852],[104.08649,52.40717],[104.08365,52.40579],[104.08178,52.40375],[104.08157,52.40197],[104.07839,52.40078],[104.07815,52.39985],[104.07394,52.40226],[104.06948,52.39987],[104.06409,52.40355],[104.05985,52.40162],[104.05964,52.39822],[104.05892,52.39701]]]}}]}