{"type":"FeatureCollection","features":[{"type":"Feature","properties":{"name":"Красноярск","osm":"relation/1430616","licence":"Data © OpenStreetMap contributors, ODbL 1.0. http://osm.org/copyright"},"geometry":{"type":"Polygon","coordinates":[[[92.62752,55.96935],[92.6288,55.96786],[92.63204,55.9677],[92.66444,55.97213],[92.67842,55.96627],[92.67896,55.96202],[92.67386,55.95899],[92.67409,55.95455],[92.68284,55.95679],[92.76373,55.95177],[92.78497,55.9519],[92.78209,55.94816],[92.78873,55.95198],[92.80703,55.95205],[92.83711,55.94481],[92.83733,55.94217],[92.83543,55.94166],[92.83984,55.9416],[92.84309,55.93983],[92.84579,55.93412],[92.85162,55.9306],[92.85032,55.92624],[92.85314,55.9225],[92.85344,55.91876],[92.8582,55.91529],[92.86892,55.91989],[92.8714,55.91943],[92.87119,55.91701],[92.88026,55.91224],[92.88584,55.91184],[92.88799,55.91386],[92.89881,55.95093],[92.91278,55.95242],[92.92089,55.94874],[92.96637,55.94687],[92.97155,55.94787],[92.9709,55.95352],[92.98632,55.95359],[92.9883,55.95686],[92.99894,55.96228],[92.99827,55.96297],[93.00038,55.96547],[93.00807,55.97193],[93.01106,55.97622],[93.03444,55.97323],[93.03775,55.98195],[93.04634,55.9789],[93.05415,55.97924],[93.06205,56],[93.06447,55.99981],[93.06634,56.00805],[93.06415,56.00815],[93.06608,56.0178],[93.08158,56.01914],[93.09498,56.01521],[93.10876,56.01489],[93.11327,56.02066],[93.11244,56.0223],[93.0831,56.02413],[93.08369,56.02653],[93.09046,56.02587],[93.09295,56.03066],[93.09323,56.03441],[93.09477,56.03463],[93.09412,56.03822],[93.08424,56.03875],[93.07919,56.03753],[93.07815,56.0385],[93.06688,56.0308],[93.06469,56.03243],[93.06538,56.03358],[93.06413,56.03453],[93.07305,56.03857],[93.08485,56.0467],[93.08621,56.04971],[93.07981,56.0533],[93.07394,56.05183],[93.06415,56.05348],[93.05718,56.06012],[93.05832,56.06365],[93.04256,56.0646],[93.04227,56.06033],[93.03838,56.05858],[93.02313,56.05964],[93.0267,56.0608],[93.02729,56.06262],[93.02343,56.06364],[93.02194,56.06586],[93.01595,56.06642],[93.02067,56.06803],[93.01997,56.06936],[93.02274,56.07287],[93.03189,56.07531],[93.03666,56.07308],[93.06645,56.08368],[93.04983,56.08385],[93.04859,56.0855],[93.06826,56.08518],[93.09164,56.087],[93.09362,56.08912],[93.09169,56.09291],[93.09263,56.09526],[93.10754,56.09685],[93.11447,56.10046],[93.11693,56.09822],[93.13177,56.09211],[93.15036,56.08226],[93.1152,56.10199],[93.15524,56.10657],[93.16421,56.10084],[93.16346,56.09582],[93.16637,56.09493],[93.16833,56.09808],[93.16823,56.10162],[93.16256,56.11065],[93.15074,56.11805],[93.15406,56.10855],[93.11573,56.10367],[93.1171,56.11006],[93.12082,56.11418],[93.11992,56.11692],[93.11404,56.12217],[93.10119,56.11704],[93.09511,56.11805],[93.0901,56.11516],[93.08717,56.11591],[93.0716,56.10917],[93.01838,56.11702],[93.01466,56.11423],[93.00745,56.1127],[93.00379,56.11408],[93.00467,56.11567],[93.00354,56.11678],[92.99994,56.11727],[93.00113,56.12057],[92.99669,56.12324],[92.99715,56.12661],[92.9921,56.12902],[92.99084,56.13344],[92.9628,56.1338],[92.97024,56.12115],[92.97955,56.12214],[92.9916,56.11832],[92.99449,56.11556],[92.99467,56.10863],[92.9916,56.10305],[92.98875,56.10089],[92.96189,56.08875],[92.95207,56.08602],[92.95332,56.08862],[92.96678,56.09226],[92.97035,56.0946],[92.95732,56.09383],[92.95103,56.09872],[92.94762,56.09968],[92.94631,56.10414],[92.93748,56.10123],[92.92502,56.10449],[92.92719,56.10859],[92.94109,56.11374],[92.94823,56.11976],[92.93883,56.12199],[92.93037,56.12268],[92.92745,56.12167],[92.92575,56.12282],[92.91855,56.12234],[92.9183,56.12126],[92.91726,56.12226],[92.91269,56.12166],[92.9109,56.12037],[92.90284,56.12011],[92.903,56.12108],[92.89589,56.11875],[92.88988,56.11018],[92.89141,56.10013],[92.88798,56.09507],[92.89479,56.09387],[92.89611,56.09139],[92.8781,56.08496],[92.87033,56.08431],[92.86901,56.08299],[92.86928,56.07909],[92.86785,56.07855],[92.86784,56.07607],[92.87088,56.06648],[92.86931,56.06489],[92.87119,56.0598],[92.85822,56.05593],[92.8498,56.05522],[92.84962,56.05217],[92.84535,56.05074],[92.84889,56.0497],[92.84817,56.04837],[92.84429,56.04473],[92.83831,56.04185],[92.83484,56.04872],[92.83361,56.04859],[92.8318,56.05145],[92.81261,56.04961],[92.80401,56.04694],[92.80233,56.05052],[92.79709,56.05466],[92.79728,56.05798],[92.79334,56.0608],[92.78604,56.07083],[92.77885,56.07343],[92.78036,56.06948],[92.76106,56.06949],[92.7608,56.06685],[92.7508,56.05461],[92.73984,56.05893],[92.73429,56.05795],[92.73177,56.05879],[92.73279,56.06226],[92.73795,56.06567],[92.73456,56.07033],[92.72933,56.06842],[92.73264,56.06729],[92.72952,56.06384],[92.72147,56.06308],[92.6975,56.05727],[92.69618,56.05499],[92.69841,56.05182],[92.68312,56.04837],[92.67816,56.04531],[92.67145,56.04398],[92.65266,56.03622],[92.65325,56.03385],[92.6588,56.03035],[92.65469,56.02495],[92.64791,56.02532],[92.64787,56.02368],[92.65071,56.02367],[92.65167,56.02157],[92.65582,56.02356],[92.65696,56.02291],[92.6564,56.01805],[92.65387,56.01838],[92.65708,56.01314],[92.65631,56.00494],[92.65249,55.99509],[92.65223,55.99152],[92.65368,55.99027],[92.65239,55.98574],[92.65391,55.98272],[92.65943,55.98117],[92.66001,55.97902],[92.65597,55.97899],[92.65322,55.97582],[92.63166,55.9732],[92.62752,55.96935]]]}}]}