{"type":"FeatureCollection","features":[{"type":"Feature","properties":{"name":"Нарьян-Мар","osm":"relation/1430336","licence":"Data © OpenStreetMap contributors, ODbL 1.0. http://osm.org/copyright"},"geometry":{"type":"Polygon","coordinates":[[[52.90312,67.62404],[52.90327,67.62388],[52.90409,67.62354],[52.90626,67.62318],[52.91002,67.62285],[52.91128,67.62256],[52.91318,67.62188],[52.91452,67.62118],[52.91551,67.62094],[52.91577,67.62078],[52.91561,67.62044],[52.91572,67.62025],[52.91647,67.62019],[52.91658,67.6198],[52.9182,67.61991],[52.91989,67.61981],[52.92054,67.61963],[52.92154,67.61888],[52.92171,67.6186],[52.92185,67.61798],[52.9218,67.6179],[52.92218,67.6178],[52.92265,67.61783],[52.92349,67.61752],[52.92378,67.61752],[52.92444,67.61737],[52.92457,67.61732],[52.92485,67.61697],[52.92586,67.61701],[52.92711,67.61684],[52.92764,67.61726],[52.92815,67.61744],[52.92874,67.61751],[52.93057,67.61824],[52.93263,67.61799],[52.93395,67.61798],[52.93542,67.6174],[52.93663,67.61733],[52.93699,67.61697],[52.93798,67.61707],[52.93889,67.61697],[52.93961,67.61675],[52.93985,67.61664],[52.93994,67.61647],[52.94012,67.61641],[52.9422,67.61664],[52.94231,67.61684],[52.94224,67.61692],[52.94168,67.61698],[52.94136,67.6171],[52.94132,67.61728],[52.94171,67.61754],[52.94233,67.61763],[52.94352,67.61754],[52.94405,67.61741],[52.94486,67.61706],[52.94508,67.61681],[52.94512,67.61645],[52.94621,67.61627],[52.94641,67.61614],[52.94799,67.61623],[52.94901,67.61614],[52.94943,67.616],[52.94987,67.61571],[52.94985,67.61537],[52.94968,67.61511],[52.94976,67.61502],[52.9515,67.61455],[52.95187,67.61432],[52.95274,67.61415],[52.95338,67.61389],[52.95336,67.6137],[52.95314,67.6137],[52.9532,67.6136],[52.95375,67.61347],[52.95446,67.61354],[52.95528,67.61348],[52.95695,67.61388],[52.95777,67.61388],[52.95778,67.61405],[52.95797,67.61418],[52.95849,67.61434],[52.9593,67.61445],[52.96021,67.61442],[52.96084,67.61423],[52.96104,67.61397],[52.96132,67.61384],[52.96221,67.61355],[52.9624,67.61333],[52.9636,67.61325],[52.96413,67.61331],[52.9646,67.6132],[52.96516,67.6132],[52.96594,67.61296],[52.96657,67.61291],[52.96708,67.61256],[52.96778,67.61244],[52.96792,67.61221],[52.96984,67.61193],[52.97068,67.61189],[52.97131,67.61198],[52.97217,67.61177],[52.97213,67.61161],[52.97257,67.61146],[52.97268,67.61117],[52.97294,67.61114],[52.97329,67.61122],[52.97426,67.61111],[52.97453,67.61083],[52.9754,67.61061],[52.9778,67.60954],[52.97827,67.60966],[52.97994,67.60929],[52.98023,67.609],[52.9812,67.60846],[52.98332,67.60857],[52.98548,67.60958],[52.98648,67.61025],[52.98891,67.61069],[52.99027,67.61073],[52.9917,67.61052],[52.99204,67.61025],[52.99194,67.60996],[52.99236,67.60976],[52.99335,67.60967],[52.99416,67.6099],[52.99518,67.60999],[52.99557,67.61018],[52.99532,67.61027],[52.9953,67.6107],[52.99606,67.61078],[52.99665,67.611],[52.99798,67.61114],[52.99947,67.61107],[53.00034,67.61089],[53.00152,67.61086],[53.00131,67.6106],[53.00172,67.61025],[53.00346,67.61],[53.00521,67.61011],[53.0139,67.60911],[53.01483,67.60911],[53.01652,67.60866],[53.01671,67.60842],[53.01648,67.60809],[53.0168,67.60793],[53.01779,67.60813],[53.01819,67.60873],[53.02072,67.60942],[53.02217,67.60953],[53.02525,67.60948],[53.02876,67.60919],[53.0318,67.60867],[53.04462,67.60831],[53.04804,67.60623],[53.05973,67.60614],[53.05978,67.6082],[53.05431,67.61036],[53.06249,67.61161],[53.07418,67.61266],[53.07485,67.61387],[53.07665,67.61461],[53.08943,67.6165],[53.10288,67.61934],[53.11645,67.62116],[53.12103,67.62579],[53.12116,67.62691],[53.15369,67.64088],[53.15107,67.64678],[53.13286,67.64579],[53.14272,67.65407],[53.13242,67.65748],[53.11988,67.65342],[53.11077,67.6517],[53.10772,67.65196],[53.10207,67.6514],[53.09876,67.65245],[53.10058,67.65531],[53.09625,67.65791],[53.09518,67.65993],[53.08803,67.66503],[53.09251,67.66608],[53.09171,67.66671],[53.09872,67.66752],[53.09782,67.66844],[53.09775,67.66873],[53.09726,67.66941],[53.09671,67.66959],[53.09674,67.66946],[53.09658,67.66931],[53.09627,67.66938],[53.09597,67.66914],[53.09482,67.66907],[53.0942,67.66854],[53.09275,67.66831],[53.09253,67.66835],[53.09252,67.66847],[53.09149,67.66858],[53.08999,67.66841],[53.08917,67.66843],[53.08789,67.6688],[53.08715,67.66918],[53.08667,67.66918],[53.08573,67.66893],[53.08416,67.66922],[53.08376,67.66912],[53.08357,67.66895],[53.08325,67.66884],[53.08262,67.66874],[53.08249,67.66876],[53.08275,67.66885],[53.08238,67.66885],[53.08182,67.66861],[53.08144,67.66859],[53.08039,67.66795],[53.07623,67.66784],[53.07515,67.66768],[53.07414,67.66734],[53.07101,67.66734],[53.06788,67.66703],[53.06377,67.66642],[53.06134,67.66591],[53.05758,67.66499],[53.05669,67.66491],[53.05576,67.66511],[53.05412,67.66482],[53.05357,67.66459],[53.05312,67.66451],[53.05117,67.66442],[53.05093,67.66434],[53.05069,67.66412],[53.05003,67.66375],[53.04983,67.66351],[53.04938,67.66333],[53.04844,67.66311],[53.04695,67.66302],[53.04616,67.66283],[53.04576,67.66256],[53.04544,67.66221],[53.04443,67.66163],[53.04323,67.66107],[53.04282,67.66079],[53.04186,67.66057],[53.04184,67.6604],[53.02865,67.66085],[53.02538,67.66074],[53.01706,67.66014],[53.00561,67.65946],[53.00108,67.65896],[52.99734,67.65832],[52.98607,67.65767],[52.97252,67.65726],[52.96438,67.65727],[52.94597,67.65822],[52.93372,67.65926],[52.93171,67.65907],[52.93199,67.6587],[52.93209,67.65564],[52.9305,67.652],[52.9333,67.65013],[52.93966,67.64844],[52.94115,67.64764],[52.94686,67.64592],[52.94126,67.64102],[52.94165,67.63969],[52.94156,67.63956],[52.94081,67.63906],[52.93914,67.63827],[52.9354,67.63691],[52.93219,67.63594],[52.92959,67.63545],[52.9278,67.63523],[52.92518,67.63514],[52.92244,67.63523],[52.91711,67.6357],[52.91459,67.63556],[52.91276,67.63525],[52.91181,67.63476],[52.90472,67.62532],[52.90479,67.62527],[52.90466,67.62499],[52.90444,67.62479],[52.90382,67.62451],[52.90369,67.62435],[52.90312,67.62404]]]}}]}