{"type":"FeatureCollection","features":[{"type":"Feature","properties":{"name":"Приозерск","osm":"relation/1468104","licence":"Data © OpenStreetMap contributors, ODbL 1.0. http://osm.org/copyright"},"geometry":{"type":"Polygon","coordinates":[[[29.98908,61.08108],[29.98985,61.08079],[29.99088,61.08004],[29.99348,61.07911],[29.99671,61.07825],[30.00009,61.07773],[30.00157,61.07674],[30.00301,61.07626],[30.00452,61.07555],[30.00758,61.07502],[30.01068,61.07427],[30.01283,61.07333],[30.01432,61.07293],[30.01575,61.07291],[30.01641,61.07269],[30.01784,61.07184],[30.01882,61.07154],[30.01993,61.07068],[30.02062,61.06997],[30.02088,61.06948],[30.02142,61.06937],[30.02099,61.06928],[30.02036,61.06861],[30.0186,61.06787],[30.01663,61.06764],[30.01567,61.06735],[30.01427,61.06718],[30.01367,61.06696],[30.01107,61.06722],[30.00823,61.06682],[30.00631,61.06607],[30.00393,61.06605],[30.00327,61.06627],[30.00263,61.06625],[30.0015,61.06592],[30.00118,61.06564],[30.00034,61.06529],[29.99955,61.06515],[29.99845,61.06521],[29.9975,61.06474],[29.99597,61.065],[29.99608,61.0652],[29.99642,61.06538],[29.99503,61.06544],[29.99492,61.06535],[29.99515,61.06518],[29.99517,61.06498],[29.99475,61.06458],[29.99521,61.06442],[29.99461,61.06419],[30.00928,61.05927],[30.01196,61.05804],[30.02044,61.05365],[30.02324,61.05277],[30.02492,61.05251],[30.03796,61.05125],[30.05223,61.05125],[30.05492,61.05112],[30.05806,61.05068],[30.07014,61.04848],[30.07344,61.04751],[30.0747,61.047],[30.0806,61.04448],[30.07787,61.03879],[30.097,61.02718],[30.10002,61.02355],[30.09876,61.01688],[30.11406,61.01081],[30.11559,61.01004],[30.11684,61.00984],[30.11865,61.00863],[30.12022,61.00829],[30.12192,61.00734],[30.12233,61.00682],[30.12325,61.00659],[30.12498,61.00663],[30.12527,61.00677],[30.12549,61.00664],[30.12562,61.00669],[30.12535,61.00727],[30.12542,61.00775],[30.12462,61.00802],[30.1243,61.008],[30.1235,61.00855],[30.12359,61.00911],[30.12386,61.00926],[30.12437,61.00928],[30.1251,61.00903],[30.1262,61.00858],[30.126,61.00848],[30.12624,61.00843],[30.1265,61.00812],[30.12731,61.00804],[30.12803,61.00774],[30.12859,61.00813],[30.12898,61.008],[30.12885,61.00826],[30.12928,61.00887],[30.12916,61.00925],[30.12925,61.00942],[30.12948,61.00927],[30.12934,61.00905],[30.12973,61.00906],[30.12984,61.00893],[30.12974,61.00891],[30.13004,61.00875],[30.12997,61.00858],[30.13019,61.00847],[30.13081,61.00726],[30.13202,61.00706],[30.13299,61.00657],[30.13366,61.00658],[30.1338,61.00643],[30.13375,61.00618],[30.13404,61.00604],[30.13455,61.00608],[30.13519,61.00593],[30.13603,61.00532],[30.13679,61.00442],[30.137,61.00352],[30.1374,61.00344],[30.13736,61.00377],[30.13768,61.00393],[30.14004,61.00376],[30.14232,61.00305],[30.14467,61.00168],[30.14536,61.0016],[30.14563,61.00172],[30.14621,61.00149],[30.14685,61.00142],[30.14746,61.00118],[30.14808,60.99986],[30.14777,60.99954],[30.14823,60.99942],[30.14871,60.99974],[30.14877,61.00036],[30.14975,61.00034],[30.15098,61.00005],[30.15167,61.00008],[30.15246,60.99979],[30.15297,60.99975],[30.15331,60.99979],[30.15373,61.00032],[30.15447,61.00053],[30.15448,61.00076],[30.15399,61.00094],[30.15376,61.00141],[30.15379,61.00175],[30.15413,61.00177],[30.15423,61.00192],[30.15398,61.00199],[30.15399,61.00224],[30.15373,61.00242],[30.15386,61.00309],[30.15424,61.00339],[30.1546,61.00344],[30.15471,61.00359],[30.15468,61.00407],[30.15502,61.00438],[30.15487,61.00447],[30.15521,61.00448],[30.15552,61.00464],[30.15551,61.00489],[30.15611,61.00498],[30.15646,61.00519],[30.15699,61.00532],[30.15729,61.00529],[30.15725,61.00516],[30.1575,61.00511],[30.15812,61.00518],[30.1583,61.00497],[30.15987,61.00493],[30.16071,61.00447],[30.16135,61.00485],[30.16169,61.00486],[30.16363,61.0044],[30.16444,61.00506],[30.16456,61.00539],[30.16475,61.00549],[30.16608,61.00557],[30.16686,61.0062],[30.16736,61.00631],[30.16816,61.00671],[30.16958,61.00667],[30.17028,61.00714],[30.17066,61.00726],[30.17292,61.00748],[30.17316,61.00719],[30.17359,61.00724],[30.17432,61.0076],[30.17306,61.00805],[30.17241,61.01103],[30.20886,61.01152],[30.21349,61.01282],[30.21352,61.01244],[30.21454,61.01078],[30.21541,61.00999],[30.21591,61.0099],[30.21739,61.01074],[30.21708,61.01119],[30.21666,61.01154],[30.21714,61.01187],[30.21868,61.01181],[30.21856,61.01044],[30.21947,61.00943],[30.2203,61.00906],[30.22387,61.00821],[30.22829,61.00756],[30.23102,61.00734],[30.23339,61.00767],[30.23415,61.00808],[30.2347,61.00853],[30.23512,61.00937],[30.23503,61.01009],[30.23475,61.0107],[30.23454,61.0109],[30.23337,61.01138],[30.23259,61.01216],[30.23105,61.01315],[30.2405,61.02622],[30.24083,61.0263],[31.38878,60.94767],[30.71848,61.03255],[30.0136,61.12157],[30.00098,61.12004],[30.00064,61.10904],[30.00293,61.10878],[30.00738,61.10133],[30.00866,61.09802],[30.00912,61.09807],[30.01016,61.09789],[30.00978,61.09752],[30.00903,61.09741],[30.00703,61.09637],[30.00646,61.0962],[30.00549,61.09619],[30.00457,61.09636],[30.00442,61.09631],[30.00431,61.09606],[30.00523,61.09558],[30.00518,61.09529],[30.00538,61.09488],[30.00594,61.09454],[30.00644,61.09429],[30.00731,61.09425],[30.00835,61.09345],[30.00909,61.09319],[30.0091,61.09295],[30.0078,61.09256],[30.00682,61.0926],[30.00617,61.09244],[30.00662,61.09203],[30.00833,61.09114],[30.00879,61.09078],[30.00908,61.08995],[30.00934,61.08973],[29.9964,61.08334],[29.98992,61.08298],[29.98908,61.08108]]]}}]}