{"type":"FeatureCollection","features":[{"type":"Feature","properties":{"name":"Уфа","osm":"relation/1549169","licence":"Data © OpenStreetMap contributors, ODbL 1.0. http://osm.org/copyright"},"geometry":{"type":"Polygon","coordinates":[[[55.77861,54.68922],[55.7858,54.67704],[55.80007,54.68023],[55.80645,54.67661],[55.84707,54.6686],[55.84625,54.67316],[55.85215,54.6721],[55.85709,54.6695],[55.85335,54.66703],[55.88988,54.65889],[55.9305,54.64299],[55.92878,54.63504],[55.92455,54.63307],[55.92749,54.6314],[55.92693,54.61866],[55.91056,54.58747],[55.91311,54.57945],[55.91119,54.57478],[55.88783,54.56691],[55.90215,54.56722],[55.90768,54.55728],[55.9017,54.56023],[55.89642,54.5583],[55.90719,54.55124],[55.90291,54.54988],[55.90566,54.54714],[55.91535,54.54412],[55.89772,54.54957],[55.89595,54.54772],[55.90385,54.53968],[55.90031,54.53854],[55.88306,54.55308],[55.87415,54.54966],[55.89136,54.53785],[55.88375,54.5308],[55.88262,54.52142],[55.88494,54.51393],[55.88936,54.51596],[55.89959,54.51102],[55.89257,54.50075],[55.91092,54.50696],[55.91528,54.50407],[55.9244,54.50466],[55.92782,54.51703],[55.94719,54.52294],[55.9444,54.52595],[55.94827,54.53044],[55.94518,54.53159],[55.94112,54.52747],[55.93905,54.5308],[55.94586,54.53229],[55.94775,54.53564],[55.95327,54.53303],[55.95824,54.53485],[55.96627,54.54622],[55.97479,54.54634],[55.97049,54.56029],[55.94987,54.56655],[55.95315,54.57571],[55.93795,54.57425],[55.93284,54.57017],[55.94857,54.55907],[55.9295,54.56211],[55.91261,54.57608],[55.91162,54.58726],[55.91663,54.60095],[55.92591,54.59896],[55.92743,54.59366],[55.953,54.59854],[55.94357,54.60581],[55.93996,54.60273],[55.92637,54.60477],[55.92581,54.59917],[55.91679,54.60115],[55.92811,54.61813],[55.92638,54.62596],[55.93199,54.64179],[56.00175,54.64676],[56.00235,54.6368],[56.03609,54.6375],[56.03444,54.63365],[56.01392,54.62227],[56.01021,54.61294],[56.02406,54.60857],[56.03908,54.58984],[56.05993,54.57974],[56.06364,54.57099],[56.07169,54.56703],[56.07993,54.56809],[56.0841,54.57116],[56.07852,54.58293],[56.08041,54.58848],[56.09096,54.59357],[56.10731,54.59619],[56.07527,54.6017],[56.06233,54.61987],[56.0654,54.62442],[56.06318,54.63545],[56.08792,54.6426],[56.09027,54.63584],[56.09536,54.63382],[56.09899,54.63626],[56.09511,54.63784],[56.10759,54.64809],[56.11146,54.64651],[56.1189,54.6539],[56.15644,54.66337],[56.18815,54.66202],[56.19844,54.66571],[56.2049,54.68208],[56.18036,54.68155],[56.17718,54.68522],[56.18176,54.68903],[56.17976,54.69171],[56.18228,54.69547],[56.17298,54.70377],[56.22453,54.72359],[56.23849,54.73199],[56.24366,54.74019],[56.22506,54.74191],[56.20759,54.74803],[56.20693,54.75145],[56.21197,54.75636],[56.22039,54.75781],[56.23001,54.75157],[56.24778,54.75285],[56.25686,54.75043],[56.25903,54.7537],[56.25389,54.75407],[56.26221,54.76331],[56.25332,54.7796],[56.25154,54.79185],[56.23609,54.78312],[56.22832,54.7849],[56.23608,54.7908],[56.23125,54.79251],[56.23816,54.80159],[56.23338,54.80199],[56.22948,54.80705],[56.24532,54.82371],[56.26298,54.83308],[56.26813,54.83971],[56.25423,54.84742],[56.24981,54.85694],[56.26058,54.85997],[56.27225,54.84949],[56.28204,54.84692],[56.29337,54.84831],[56.29856,54.85422],[56.28273,54.87082],[56.26723,54.87775],[56.27395,54.87809],[56.27003,54.88304],[56.26832,54.89382],[56.25707,54.89659],[56.26154,54.89994],[56.208,54.9005],[56.20844,54.89731],[56.20215,54.89569],[56.19227,54.89866],[56.16332,54.89857],[56.1558,54.89596],[56.14477,54.87706],[56.13833,54.87285],[56.13088,54.87339],[56.13161,54.87942],[56.1475,54.8913],[56.13819,54.8914],[56.14062,54.89795],[56.13759,54.89789],[56.13734,54.90566],[56.14883,54.90518],[56.16188,54.91609],[56.15517,54.92818],[56.16337,54.93231],[56.15211,54.93814],[56.15446,54.94142],[56.15111,54.94649],[56.1407,54.94859],[56.15192,54.9548],[56.1444,54.95327],[56.13764,54.95628],[56.13627,54.96005],[56.11427,54.95535],[56.10047,54.95188],[56.10265,54.94761],[56.09964,54.94023],[56.07572,54.93819],[56.07173,54.95553],[56.06625,54.95308],[56.06648,54.95054],[56.04995,54.94974],[56.05027,54.9446],[56.04442,54.94433],[56.04405,54.93683],[56.03945,54.93073],[56.01429,54.92939],[56.01475,54.92091],[55.99444,54.90805],[56.05388,54.87457],[56.06746,54.85552],[56.05971,54.85616],[56.04513,54.8511],[56.04557,54.84206],[56.05138,54.84282],[56.03885,54.83154],[56.04729,54.82828],[56.02778,54.80109],[56.00673,54.78431],[55.98302,54.77674],[55.97117,54.78192],[55.9796,54.79393],[55.96059,54.79591],[55.96693,54.80918],[55.95637,54.81434],[55.9355,54.80919],[55.92461,54.8165],[55.91173,54.8165],[55.89794,54.80831],[55.89461,54.79826],[55.89095,54.79575],[55.87474,54.79389],[55.8652,54.79868],[55.8434,54.79386],[55.84245,54.78839],[55.84739,54.78511],[55.85574,54.78828],[55.86337,54.78737],[55.86015,54.78057],[55.85205,54.77851],[55.83595,54.76268],[55.83301,54.76543],[55.80949,54.76603],[55.80254,54.75838],[55.79469,54.75943],[55.79025,54.75648],[55.79433,54.75189],[55.80123,54.75292],[55.80309,54.74554],[55.79983,54.74007],[55.8089,54.71741],[55.80221,54.71672],[55.80713,54.71419],[55.80264,54.7098],[55.78094,54.70483],[55.78905,54.69982],[55.77861,54.68922]]]}}]}