{"type":"FeatureCollection","features":[{"type":"Feature","properties":{"name":"Барнаул","osm":"relation/1550512","licence":"Data © OpenStreetMap contributors, ODbL 1.0. http://osm.org/copyright"},"geometry":{"type":"Polygon","coordinates":[[[83.5329,53.34391],[83.5528,53.33974],[83.5527,53.33898],[83.6004,53.32522],[83.60038,53.32312],[83.61115,53.31022],[83.60907,53.30955],[83.61213,53.30482],[83.61782,53.29911],[83.62913,53.30268],[83.6308,53.30284],[83.63101,53.30087],[83.63199,53.30102],[83.63197,53.30191],[83.63321,53.30194],[83.63186,53.30351],[83.64275,53.30755],[83.65023,53.30796],[83.6583,53.31153],[83.66508,53.31296],[83.66722,53.31623],[83.67489,53.31608],[83.69415,53.32244],[83.69983,53.32367],[83.70165,53.32268],[83.70564,53.31745],[83.70073,53.31028],[83.70306,53.30388],[83.70214,53.29829],[83.72559,53.26859],[83.74037,53.27228],[83.74368,53.27387],[83.75286,53.2717],[83.75421,53.27347],[83.75912,53.27209],[83.75304,53.26873],[83.75042,53.26585],[83.74904,53.25731],[83.74994,53.2536],[83.74534,53.24129],[83.75384,53.24291],[83.75968,53.23705],[83.76746,53.23468],[83.77323,53.23122],[83.78387,53.21136],[83.79479,53.20438],[83.79897,53.19921],[83.79908,53.19366],[83.812,53.197],[83.82845,53.1878],[83.83274,53.18687],[83.83985,53.18733],[83.84283,53.18996],[83.8388,53.19721],[83.84301,53.20372],[83.85098,53.20546],[83.85857,53.20439],[83.85806,53.2064],[83.86004,53.20971],[83.85784,53.21362],[83.84871,53.21633],[83.84474,53.21974],[83.8441,53.22397],[83.84915,53.22892],[83.84942,53.23023],[83.8485,53.23182],[83.84185,53.23496],[83.84134,53.23621],[83.87172,53.23591],[83.8683,53.23234],[83.8771,53.23002],[83.88045,53.22479],[83.89067,53.22567],[83.89534,53.22986],[83.9073,53.23637],[83.90803,53.23839],[83.89975,53.23862],[83.89522,53.23732],[83.89109,53.2374],[83.89481,53.24063],[83.89631,53.24537],[83.89827,53.24761],[83.8962,53.25556],[83.8969,53.25758],[83.8891,53.26884],[83.88308,53.27498],[83.87415,53.28031],[83.8683,53.28237],[83.86525,53.28261],[83.86061,53.28142],[83.85655,53.28263],[83.85561,53.28386],[83.85814,53.28508],[83.85807,53.28581],[83.85178,53.28633],[83.84232,53.29177],[83.8411,53.2939],[83.84255,53.29624],[83.84846,53.29761],[83.85093,53.29683],[83.87161,53.29626],[83.87869,53.29711],[83.88423,53.29637],[83.88955,53.29678],[83.89032,53.29947],[83.8889,53.30348],[83.8779,53.31096],[83.87669,53.31513],[83.86884,53.31554],[83.86687,53.31823],[83.86818,53.3207],[83.87046,53.32026],[83.86889,53.31974],[83.86952,53.31851],[83.87362,53.32008],[83.87183,53.3204],[83.87429,53.32301],[83.87589,53.32978],[83.87557,53.33175],[83.87755,53.33177],[83.87703,53.3338],[83.87798,53.33571],[83.88107,53.33869],[83.88362,53.33812],[83.89019,53.34354],[83.88695,53.34444],[83.8854,53.34288],[83.87958,53.34299],[83.8802,53.34457],[83.87319,53.35644],[83.86971,53.3589],[83.86857,53.35831],[83.85857,53.36449],[83.86117,53.36488],[83.85868,53.36658],[83.85904,53.37535],[83.85833,53.38068],[83.85947,53.38235],[83.86731,53.38596],[83.86934,53.3887],[83.86798,53.3923],[83.86911,53.39415],[83.86908,53.40233],[83.86707,53.40434],[83.82593,53.39946],[83.82176,53.40427],[83.81661,53.40752],[83.80971,53.40913],[83.7985,53.41087],[83.78769,53.41028],[83.78186,53.4087],[83.7789,53.41276],[83.78304,53.43341],[83.76681,53.43592],[83.72889,53.44137],[83.71699,53.43835],[83.71377,53.43977],[83.69947,53.43575],[83.69219,53.43916],[83.68591,53.43887],[83.68123,53.43724],[83.67315,53.43158],[83.66248,53.43368],[83.65922,53.43722],[83.65761,53.44653],[83.66684,53.45366],[83.6819,53.4572],[83.68535,53.46038],[83.68321,53.46239],[83.68327,53.46587],[83.69308,53.47146],[83.70003,53.47386],[83.70041,53.4761],[83.68973,53.48117],[83.68528,53.48184],[83.67975,53.48064],[83.67105,53.47692],[83.67333,53.47459],[83.67889,53.47375],[83.67689,53.47061],[83.67245,53.46996],[83.65634,53.46463],[83.66352,53.46386],[83.66335,53.46224],[83.66128,53.46213],[83.66138,53.46107],[83.65307,53.45866],[83.64751,53.45546],[83.64339,53.45255],[83.63886,53.4465],[83.63611,53.43715],[83.64146,53.43659],[83.64164,53.43467],[83.64501,53.43544],[83.64716,53.43469],[83.64793,53.43333],[83.64487,53.4298],[83.6412,53.4273],[83.64228,53.42625],[83.6416,53.42497],[83.64629,53.42565],[83.64749,53.42689],[83.64707,53.42861],[83.6528,53.43049],[83.65386,53.42941],[83.65374,53.42426],[83.65624,53.42172],[83.65815,53.42187],[83.66097,53.42609],[83.66384,53.42805],[83.66946,53.42889],[83.67666,53.42687],[83.68327,53.42333],[83.68595,53.42323],[83.68701,53.42126],[83.68696,53.4202],[83.68315,53.42005],[83.67692,53.42268],[83.67701,53.42404],[83.6761,53.42469],[83.67323,53.42487],[83.6713,53.42345],[83.6717,53.42206],[83.67462,53.4196],[83.67906,53.41909],[83.67864,53.41777],[83.6801,53.41441],[83.67645,53.41398],[83.67436,53.41498],[83.67509,53.41672],[83.6717,53.41765],[83.66716,53.41747],[83.66391,53.41574],[83.66328,53.41374],[83.65958,53.41274],[83.65643,53.40915],[83.64192,53.41277],[83.63021,53.41246],[83.63018,53.40964],[83.63604,53.40523],[83.63717,53.40204],[83.63844,53.40169],[83.63814,53.40008],[83.63635,53.39876],[83.64018,53.3997],[83.64192,53.39872],[83.63327,53.39334],[83.63151,53.39404],[83.62607,53.39176],[83.62574,53.39001],[83.62686,53.38895],[83.62584,53.38469],[83.63213,53.38526],[83.63204,53.38197],[83.64704,53.38495],[83.65625,53.38164],[83.65453,53.37562],[83.62582,53.35129],[83.62035,53.35284],[83.61769,53.3499],[83.6147,53.34997],[83.53472,53.3546],[83.5329,53.34391]]]}}]}