{"type":"FeatureCollection","features":[{"type":"Feature","properties":{"name":"Красногорск","osm":"relation/1599637","licence":"Data © OpenStreetMap contributors, ODbL 1.0. http://osm.org/copyright"},"geometry":{"type":"Polygon","coordinates":[[[37.22241,55.84062],[37.22607,55.84031],[37.22551,55.83825],[37.22462,55.83816],[37.22438,55.83634],[37.22582,55.83465],[37.23079,55.836],[37.23522,55.83315],[37.2324,55.82835],[37.24324,55.8248],[37.24288,55.82432],[37.24263,55.82303],[37.24113,55.82246],[37.2399,55.82073],[37.23797,55.81935],[37.23696,55.81782],[37.23799,55.81739],[37.2375,55.81682],[37.23914,55.81622],[37.23996,55.81721],[37.24086,55.81709],[37.24113,55.81747],[37.24219,55.81737],[37.24111,55.81262],[37.24004,55.81275],[37.24013,55.81196],[37.24086,55.81241],[37.24188,55.81158],[37.24255,55.81147],[37.24566,55.812],[37.2501,55.81188],[37.25166,55.81231],[37.25127,55.81273],[37.2517,55.81288],[37.2524,55.81555],[37.25477,55.81551],[37.25523,55.82072],[37.25736,55.81962],[37.26212,55.81593],[37.26441,55.81685],[37.26479,55.8166],[37.26451,55.81647],[37.26564,55.81575],[37.26706,55.81656],[37.26785,55.81784],[37.26584,55.81956],[37.26435,55.82205],[37.26582,55.82228],[37.26521,55.82262],[37.26965,55.82409],[37.27168,55.82524],[37.26939,55.8268],[37.26744,55.82689],[37.26555,55.82739],[37.26578,55.82766],[37.26552,55.82792],[37.26332,55.82891],[37.25291,55.831],[37.25574,55.834],[37.25863,55.83368],[37.25832,55.83297],[37.26052,55.83268],[37.26071,55.83313],[37.2653,55.83265],[37.26718,55.83399],[37.26764,55.83406],[37.27051,55.8327],[37.27453,55.83288],[37.27586,55.83154],[37.27779,55.83199],[37.27841,55.8314],[37.27815,55.82946],[37.27882,55.82894],[37.29122,55.82766],[37.29112,55.82743],[37.29475,55.82698],[37.29493,55.82666],[37.29597,55.82708],[37.29663,55.82682],[37.29844,55.82794],[37.2995,55.82797],[37.30176,55.82936],[37.30233,55.82925],[37.30281,55.82879],[37.30331,55.82889],[37.30219,55.82586],[37.30641,55.82446],[37.30609,55.82326],[37.30767,55.82213],[37.30897,55.82257],[37.30892,55.8221],[37.30913,55.82208],[37.30892,55.82177],[37.30925,55.82074],[37.30832,55.82013],[37.30819,55.81927],[37.30897,55.81896],[37.31,55.81915],[37.30896,55.81792],[37.30797,55.8177],[37.30794,55.81725],[37.30365,55.81414],[37.3079,55.8116],[37.3109,55.81082],[37.31232,55.80992],[37.31283,55.80898],[37.31335,55.8088],[37.31385,55.80766],[37.31317,55.80617],[37.31332,55.80539],[37.31389,55.80454],[37.31381,55.80359],[37.32575,55.80122],[37.33265,55.80082],[37.33466,55.80228],[37.34354,55.8062],[37.35572,55.80975],[37.36075,55.81003],[37.36411,55.80959],[37.36546,55.80916],[37.36753,55.8091],[37.36887,55.80919],[37.37118,55.81003],[37.37176,55.81091],[37.37032,55.81192],[37.37042,55.81241],[37.37118,55.81219],[37.37107,55.81186],[37.3713,55.8116],[37.37238,55.81193],[37.37266,55.81238],[37.37244,55.81263],[37.37307,55.81292],[37.37577,55.81672],[37.37861,55.81889],[37.3807,55.82112],[37.38084,55.8218],[37.38004,55.82297],[37.37846,55.82419],[37.37705,55.82455],[37.37757,55.82507],[37.37749,55.82582],[37.37684,55.82731],[37.3762,55.82755],[37.37596,55.8282],[37.37673,55.82934],[37.37743,55.8298],[37.3798,55.83041],[37.38009,55.83054],[37.37994,55.83067],[37.36892,55.82802],[37.36728,55.8274],[37.36587,55.82648],[37.36354,55.82436],[37.36261,55.82317],[37.36222,55.8222],[37.35978,55.8225],[37.35892,55.82289],[37.35688,55.82653],[37.35636,55.82666],[37.354,55.82639],[37.35637,55.82266],[37.35415,55.82236],[37.35461,55.82176],[37.35231,55.82128],[37.34916,55.82223],[37.35159,55.82439],[37.35102,55.8246],[37.34971,55.82637],[37.3491,55.82658],[37.34513,55.82596],[37.3447,55.82627],[37.34857,55.82908],[37.34865,55.83072],[37.34814,55.83103],[37.34873,55.83222],[37.34394,55.8331],[37.34187,55.83419],[37.345,55.83647],[37.34037,55.83901],[37.34051,55.83924],[37.33606,55.83872],[37.33436,55.83821],[37.33279,55.83738],[37.3324,55.83764],[37.33173,55.83733],[37.32982,55.83769],[37.32854,55.83672],[37.32587,55.83795],[37.3272,55.83844],[37.32576,55.83972],[37.32468,55.84017],[37.32427,55.8402],[37.32406,55.83976],[37.32369,55.83982],[37.3238,55.84028],[37.3233,55.84041],[37.31913,55.84002],[37.31617,55.84051],[37.31342,55.84001],[37.31109,55.84],[37.31058,55.84007],[37.30996,55.84077],[37.30933,55.84089],[37.30942,55.84112],[37.30474,55.84163],[37.30457,55.84193],[37.30316,55.84243],[37.30041,55.84247],[37.29881,55.84178],[37.29551,55.84162],[37.29351,55.84107],[37.29126,55.84112],[37.29081,55.84089],[37.29066,55.84039],[37.28867,55.8393],[37.28685,55.83959],[37.28403,55.83897],[37.28056,55.83747],[37.27667,55.83792],[37.27628,55.83776],[37.27526,55.83643],[37.27416,55.83573],[37.27368,55.836],[37.27272,55.83581],[37.27159,55.83648],[37.26933,55.83593],[37.26625,55.83738],[37.26394,55.83808],[37.26316,55.83873],[37.26362,55.83886],[37.26221,55.84038],[37.26094,55.84028],[37.25983,55.84074],[37.26025,55.84187],[37.26458,55.84453],[37.26439,55.84476],[37.26636,55.84561],[37.26777,55.84469],[37.26901,55.84508],[37.26793,55.84872],[37.26818,55.84885],[37.26784,55.85122],[37.26426,55.85115],[37.26269,55.85031],[37.2603,55.85006],[37.26041,55.84973],[37.2536,55.84804],[37.25209,55.84847],[37.2504,55.84775],[37.25124,55.84709],[37.2492,55.84677],[37.24823,55.84709],[37.24553,55.84699],[37.24513,55.84663],[37.24231,55.84777],[37.24002,55.84969],[37.23836,55.85035],[37.23804,55.85004],[37.23715,55.85015],[37.2365,55.84982],[37.23656,55.84961],[37.23481,55.84975],[37.23564,55.84896],[37.2361,55.84921],[37.23627,55.84898],[37.23586,55.84867],[37.23608,55.84781],[37.23651,55.84747],[37.23946,55.84701],[37.24384,55.84567],[37.2447,55.84482],[37.24304,55.84427],[37.24174,55.8443],[37.24151,55.84455],[37.23968,55.84237],[37.23606,55.84278],[37.23624,55.84333],[37.23207,55.84354],[37.23193,55.84272],[37.23218,55.84271],[37.23195,55.84194],[37.2288,55.84226],[37.22954,55.84378],[37.22438,55.84425],[37.22241,55.84062]]]}}]}