{"type":"FeatureCollection","features":[{"type":"Feature","properties":{"name":"Калининград","osm":"relation/1674442","licence":"Data © OpenStreetMap contributors, ODbL 1.0. http://osm.org/copyright"},"geometry":{"type":"Polygon","coordinates":[[[20.29328,54.69142],[20.30218,54.64618],[20.30441,54.6464],[20.30587,54.6454],[20.30705,54.64592],[20.31035,54.64331],[20.30389,54.64014],[20.30508,54.63861],[20.30638,54.63091],[20.30676,54.63062],[20.35034,54.64437],[20.35346,54.6442],[20.36268,54.64613],[20.38382,54.65286],[20.38569,54.65312],[20.38497,54.65511],[20.39464,54.65815],[20.39444,54.6598],[20.39262,54.66265],[20.39167,54.66519],[20.39074,54.66566],[20.39179,54.66608],[20.39686,54.66599],[20.39883,54.66777],[20.40172,54.66801],[20.40238,54.66839],[20.4027,54.66967],[20.40014,54.67049],[20.40018,54.67092],[20.40427,54.67034],[20.40625,54.67196],[20.4045,54.67239],[20.40641,54.6728],[20.40655,54.67346],[20.40739,54.67401],[20.41086,54.67461],[20.41177,54.67539],[20.41318,54.67571],[20.41349,54.67887],[20.41221,54.68122],[20.4114,54.68219],[20.41043,54.68261],[20.4118,54.68337],[20.41415,54.68342],[20.41442,54.68407],[20.42071,54.68454],[20.42161,54.68393],[20.42166,54.68283],[20.43148,54.67398],[20.4364,54.67299],[20.43225,54.67073],[20.43238,54.66964],[20.43177,54.6679],[20.43244,54.66711],[20.43646,54.66663],[20.44084,54.66675],[20.4446,54.6646],[20.45026,54.66258],[20.46469,54.66236],[20.47559,54.66154],[20.49584,54.65705],[20.51272,54.65523],[20.53102,54.65455],[20.53401,54.65495],[20.5347,54.65453],[20.53594,54.65457],[20.53733,54.65329],[20.54004,54.65217],[20.54501,54.65316],[20.54957,54.65544],[20.5538,54.65438],[20.55533,54.65269],[20.55602,54.65341],[20.55649,54.65507],[20.5593,54.65666],[20.56229,54.65678],[20.56238,54.65568],[20.56297,54.65597],[20.56398,54.65521],[20.569,54.65472],[20.56988,54.65503],[20.57167,54.6568],[20.57187,54.65751],[20.57101,54.65847],[20.57959,54.66051],[20.58183,54.66171],[20.58033,54.66715],[20.58287,54.66797],[20.60439,54.65944],[20.60468,54.65965],[20.60716,54.65862],[20.61149,54.65872],[20.61267,54.65923],[20.61343,54.66023],[20.61476,54.66337],[20.61483,54.66575],[20.61643,54.66745],[20.61737,54.66728],[20.62025,54.669],[20.62264,54.67135],[20.62518,54.67188],[20.62681,54.67309],[20.62982,54.67155],[20.63112,54.67171],[20.63096,54.67542],[20.63146,54.67552],[20.63149,54.67781],[20.64124,54.67716],[20.65274,54.67857],[20.65349,54.67917],[20.6538,54.68019],[20.64554,54.68534],[20.63471,54.68527],[20.62681,54.68448],[20.6267,54.68408],[20.62629,54.68441],[20.61168,54.68301],[20.60773,54.68347],[20.59985,54.68299],[20.59898,54.69473],[20.59791,54.70091],[20.59819,54.7017],[20.60029,54.70292],[20.60744,54.70424],[20.61182,54.70555],[20.61856,54.70662],[20.61829,54.70733],[20.61426,54.70878],[20.61276,54.70806],[20.61225,54.70636],[20.60938,54.70608],[20.60729,54.70487],[20.60289,54.70439],[20.59967,54.70554],[20.59859,54.70795],[20.59793,54.70784],[20.59643,54.7151],[20.59387,54.71521],[20.59412,54.71714],[20.59638,54.71714],[20.59764,54.72471],[20.58732,54.72561],[20.59196,54.73138],[20.59426,54.73133],[20.59416,54.73161],[20.589,54.73176],[20.58839,54.73034],[20.58423,54.72529],[20.56954,54.73122],[20.57021,54.7317],[20.56988,54.73199],[20.56629,54.73086],[20.56588,54.73145],[20.56534,54.73138],[20.56391,54.73342],[20.56421,54.73362],[20.56162,54.73409],[20.56084,54.73538],[20.56071,54.73662],[20.55756,54.73697],[20.55665,54.74074],[20.55871,54.74525],[20.55952,54.74608],[20.564,54.74487],[20.5656,54.74757],[20.56269,54.7485],[20.56296,54.75081],[20.56652,54.75049],[20.5673,54.7509],[20.56538,54.75304],[20.56376,54.75727],[20.56152,54.75685],[20.55982,54.75856],[20.56046,54.75962],[20.56302,54.75919],[20.56125,54.7635],[20.55898,54.76575],[20.55412,54.76744],[20.55084,54.76773],[20.54907,54.76729],[20.54681,54.76534],[20.54467,54.76453],[20.54474,54.76553],[20.54248,54.7672],[20.54124,54.76726],[20.54011,54.76303],[20.53406,54.7638],[20.52871,54.76527],[20.52134,54.76521],[20.51599,54.77071],[20.5088,54.77151],[20.50313,54.77057],[20.4941,54.76698],[20.48425,54.77493],[20.47971,54.77753],[20.43301,54.77734],[20.43297,54.77614],[20.43218,54.77565],[20.42229,54.77192],[20.41829,54.77596],[20.39682,54.7786],[20.39153,54.77835],[20.38301,54.77588],[20.38079,54.77559],[20.36355,54.77683],[20.36215,54.77446],[20.36603,54.77315],[20.36354,54.76882],[20.35707,54.76872],[20.35767,54.76264],[20.36148,54.76091],[20.36469,54.76096],[20.36544,54.76018],[20.37027,54.75888],[20.36883,54.75585],[20.3758,54.75607],[20.37536,54.75463],[20.36916,54.75101],[20.36768,54.7507],[20.36367,54.7486],[20.35842,54.74709],[20.36497,54.7406],[20.36426,54.74026],[20.36244,54.74034],[20.36265,54.73948],[20.36222,54.73912],[20.35642,54.7394],[20.35428,54.74062],[20.35261,54.73987],[20.34994,54.74093],[20.34929,54.73992],[20.34682,54.73867],[20.34504,54.7394],[20.34429,54.73891],[20.34304,54.73697],[20.32016,54.74374],[20.31,54.74614],[20.30677,54.74837],[20.30377,54.74967],[20.30222,54.74903],[20.29887,54.74958],[20.29674,54.74949],[20.29574,54.74577],[20.29849,54.73614],[20.30433,54.73646],[20.30422,54.73535],[20.30589,54.73534],[20.30718,54.73554],[20.3073,54.7366],[20.32228,54.7373],[20.33074,54.73667],[20.33172,54.73647],[20.33185,54.73591],[20.32894,54.73519],[20.32703,54.7339],[20.32621,54.73225],[20.32679,54.73021],[20.31737,54.73153],[20.31647,54.72822],[20.32159,54.72727],[20.32217,54.70944],[20.31589,54.70708],[20.31318,54.70702],[20.31137,54.70646],[20.31123,54.69487],[20.30599,54.69338],[20.29467,54.69243],[20.29328,54.69142]]]}}]}