{"type":"FeatureCollection","features":[{"type":"Feature","properties":{"name":"Ижевск","osm":"relation/1670935","licence":"Data © OpenStreetMap contributors, ODbL 1.0. http://osm.org/copyright"},"geometry":{"type":"Polygon","coordinates":[[[53.00656,56.93381],[53.00738,56.93294],[53.01364,56.93499],[53.01422,56.93586],[53.03937,56.93984],[53.05474,56.94305],[53.056,56.94314],[53.05796,56.94227],[53.05471,56.92587],[53.06088,56.91783],[53.06441,56.9144],[53.06748,56.90992],[53.06148,56.88185],[53.08775,56.87982],[53.09037,56.87636],[53.08761,56.87451],[53.0797,56.87121],[53.09256,56.86521],[53.09121,56.8649],[53.09086,56.86228],[53.08892,56.85793],[53.0768,56.85858],[53.06253,56.85673],[53.05513,56.85665],[53.05473,56.85516],[53.05205,56.85482],[53.02872,56.85482],[53.02533,56.83196],[53.02141,56.81903],[53.02687,56.81613],[53.02446,56.79649],[53.03748,56.79498],[53.03928,56.79524],[53.04034,56.79706],[53.03924,56.7973],[53.03957,56.79809],[53.04132,56.7987],[53.04756,56.79619],[53.04877,56.79689],[53.05239,56.7969],[53.0534,56.79624],[53.0611,56.79658],[53.05988,56.79547],[53.06174,56.79459],[53.06213,56.79252],[53.06004,56.79019],[53.0617,56.78758],[53.07723,56.79048],[53.08404,56.79295],[53.0852,56.78768],[53.08795,56.78263],[53.094,56.78287],[53.0937,56.78197],[53.09566,56.78053],[53.10721,56.77855],[53.10936,56.77891],[53.11761,56.77647],[53.12326,56.77267],[53.12839,56.77989],[53.1265,56.7803],[53.13277,56.78971],[53.13796,56.79054],[53.13811,56.78943],[53.13905,56.78899],[53.13808,56.78875],[53.13895,56.78796],[53.15084,56.78396],[53.15245,56.78564],[53.15443,56.7851],[53.15968,56.79045],[53.17206,56.78953],[53.1715,56.78682],[53.17454,56.78662],[53.1734,56.78319],[53.17376,56.78108],[53.1747,56.78113],[53.17549,56.77789],[53.17709,56.77919],[53.1813,56.78005],[53.18219,56.77999],[53.18211,56.77893],[53.18273,56.77959],[53.17578,56.75885],[53.17358,56.75557],[53.17593,56.75544],[53.19521,56.74614],[53.19715,56.74207],[53.20274,56.73966],[53.19275,56.73216],[53.19236,56.73041],[53.18498,56.72921],[53.18719,56.72634],[53.18529,56.72535],[53.18775,56.72352],[53.187,56.72271],[53.18784,56.71839],[53.19178,56.7189],[53.19372,56.71641],[53.19554,56.71663],[53.19539,56.71831],[53.19841,56.72122],[53.20625,56.72416],[53.20881,56.73154],[53.21158,56.73214],[53.2118,56.73264],[53.20707,56.73378],[53.21041,56.73465],[53.21228,56.73738],[53.21167,56.7391],[53.22164,56.74248],[53.22047,56.74316],[53.22064,56.74646],[53.22222,56.74748],[53.21914,56.74811],[53.21896,56.74876],[53.2208,56.75073],[53.22391,56.74981],[53.225,56.7502],[53.22439,56.7523],[53.22334,56.75287],[53.22553,56.75601],[53.22456,56.75631],[53.22252,56.75445],[53.22082,56.75409],[53.22001,56.75511],[53.22053,56.75613],[53.22421,56.75791],[53.22896,56.7589],[53.23021,56.75857],[53.23042,56.75716],[53.23213,56.75605],[53.23034,56.75402],[53.23157,56.75326],[53.23302,56.75379],[53.23398,56.75566],[53.23435,56.75838],[53.23262,56.75913],[53.23219,56.76043],[53.23482,56.76189],[53.23417,56.76257],[53.23092,56.76276],[53.23328,56.76333],[53.23516,56.76512],[53.23353,56.76568],[53.2295,56.76462],[53.22821,56.7649],[53.22989,56.76697],[53.22986,56.76909],[53.22913,56.77],[53.23412,56.77025],[53.24023,56.77394],[53.24215,56.77337],[53.24192,56.77397],[53.24316,56.77527],[53.24273,56.77588],[53.2529,56.78395],[53.25594,56.78389],[53.26319,56.78241],[53.26524,56.78367],[53.27169,56.78348],[53.27739,56.78798],[53.28409,56.78691],[53.28849,56.77656],[53.30086,56.77094],[53.31178,56.77133],[53.31382,56.76955],[53.3225,56.76588],[53.33464,56.77731],[53.33765,56.78365],[53.32421,56.79734],[53.32198,56.80307],[53.32237,56.80548],[53.32287,56.80577],[53.3223,56.8077],[53.32565,56.80896],[53.31852,56.81061],[53.30927,56.80975],[53.30153,56.80814],[53.29397,56.80548],[53.28643,56.81611],[53.28747,56.81779],[53.28046,56.82294],[53.28369,56.82554],[53.28119,56.82967],[53.31487,56.83193],[53.31416,56.83383],[53.31861,56.83494],[53.31777,56.83596],[53.31448,56.8367],[53.31316,56.83947],[53.31822,56.84361],[53.31549,56.85006],[53.30736,56.84769],[53.3049,56.84773],[53.30609,56.85254],[53.30545,56.86037],[53.30386,56.86567],[53.30566,56.86541],[53.30699,56.86599],[53.30899,56.86532],[53.30982,56.86631],[53.30848,56.87377],[53.30797,56.88195],[53.31625,56.88351],[53.31905,56.88622],[53.32065,56.88613],[53.32119,56.887],[53.32441,56.88631],[53.32488,56.88703],[53.35012,56.88135],[53.35603,56.88427],[53.36479,56.88423],[53.36756,56.88482],[53.37526,56.88734],[53.37767,56.8874],[53.37994,56.8895],[53.38429,56.89044],[53.38967,56.89574],[53.38881,56.89853],[53.39129,56.90058],[53.39138,56.90321],[53.38839,56.90843],[53.38869,56.90982],[53.38761,56.91065],[53.38626,56.91359],[53.30006,56.89792],[53.30089,56.90234],[53.30382,56.90702],[53.3023,56.9105],[53.30108,56.91172],[53.29977,56.91205],[53.29956,56.91327],[53.2945,56.91874],[53.29408,56.91994],[53.28842,56.9201],[53.28856,56.92096],[53.28941,56.92092],[53.28958,56.92188],[53.28877,56.92192],[53.28951,56.92468],[53.29449,56.92462],[53.29151,56.92631],[53.28839,56.92986],[53.28654,56.9311],[53.28451,56.93177],[53.27706,56.93175],[53.2092,56.95303],[53.20638,56.95339],[53.19244,56.95152],[53.17923,56.95294],[53.17728,56.95495],[53.17145,56.956],[53.16827,56.95801],[53.17069,56.96625],[53.15423,56.96784],[53.15143,56.95779],[53.1337,56.96229],[53.1283,56.94419],[53.12529,56.94414],[53.12433,56.94136],[53.10207,56.94345],[53.10242,56.9449],[53.10029,56.94472],[53.10004,56.94514],[53.09814,56.94512],[53.09806,56.94373],[53.09598,56.943],[53.09479,56.94376],[53.09041,56.94458],[53.07052,56.94652],[53.06417,56.95122],[53.06462,56.9529],[53.06411,56.95971],[53.05868,56.96407],[53.06244,56.97205],[53.05842,56.97436],[53.06105,56.97904],[53.0705,56.97923],[53.07949,56.98626],[53.09891,56.99524],[53.10484,57.00389],[53.10206,57.00476],[53.08101,56.99223],[53.07014,56.98969],[53.06222,56.98474],[53.06252,56.98392],[53.05935,56.98351],[53.05458,56.97685],[53.05499,56.97258],[53.05339,56.97162],[53.0528,56.96628],[53.05133,56.96339],[53.05143,56.9621],[53.0505,56.96104],[53.05143,56.95684],[53.05309,56.95505],[53.05515,56.94765],[53.0075,56.93773],[53.00733,56.93383],[53.00656,56.93381]]]}}]}