{"type":"FeatureCollection","features":[{"type":"Feature","properties":{"name":"Подольск","osm":"relation/1697322","licence":"Data © OpenStreetMap contributors, ODbL 1.0. http://osm.org/copyright"},"geometry":{"type":"Polygon","coordinates":[[[37.47101,55.41872],[37.47129,55.41733],[37.47272,55.4164],[37.47836,55.41312],[37.4795,55.41264],[37.48017,55.41303],[37.4809,55.41242],[37.49075,55.41511],[37.49209,55.41593],[37.49267,55.41552],[37.49217,55.41488],[37.4952,55.4158],[37.49569,55.4153],[37.49674,55.41556],[37.50849,55.41922],[37.50931,55.41833],[37.51031,55.41864],[37.5206,55.41074],[37.52288,55.41098],[37.53124,55.4079],[37.52887,55.40534],[37.53019,55.40492],[37.52908,55.40298],[37.53454,55.40281],[37.53955,55.40117],[37.54555,55.40092],[37.53995,55.39324],[37.54191,55.39271],[37.54038,55.3912],[37.54291,55.39033],[37.54423,55.39165],[37.54841,55.39053],[37.55052,55.39321],[37.55195,55.39276],[37.55262,55.39348],[37.55512,55.39325],[37.55629,55.39214],[37.55474,55.39204],[37.55494,55.39142],[37.55414,55.39039],[37.55124,55.38964],[37.55154,55.38928],[37.5388,55.38568],[37.53718,55.38279],[37.53418,55.38384],[37.53359,55.38345],[37.53183,55.37904],[37.53063,55.37344],[37.52642,55.37373],[37.52484,55.37267],[37.5199,55.37306],[37.51705,55.37548],[37.51555,55.37558],[37.51551,55.37645],[37.51645,55.37706],[37.51567,55.37952],[37.51517,55.37961],[37.51581,55.38135],[37.51514,55.38265],[37.5139,55.38297],[37.51284,55.38268],[37.51257,55.38185],[37.51035,55.38158],[37.50731,55.37922],[37.50615,55.37526],[37.51435,55.37575],[37.51393,55.37408],[37.50934,55.37331],[37.50478,55.3716],[37.50204,55.37374],[37.49714,55.375],[37.49612,55.37288],[37.494,55.37254],[37.4932,55.37181],[37.49228,55.37219],[37.4934,55.37432],[37.49713,55.3759],[37.49836,55.3756],[37.49811,55.3749],[37.50115,55.37406],[37.50148,55.37507],[37.5025,55.37511],[37.50297,55.37796],[37.50012,55.37833],[37.49959,55.37736],[37.4946,55.37573],[37.49005,55.37613],[37.48951,55.37528],[37.48775,55.37526],[37.48729,55.37269],[37.48457,55.37291],[37.48503,55.37142],[37.48714,55.37139],[37.48682,55.37115],[37.48826,55.37044],[37.48945,55.37025],[37.49259,55.37143],[37.49468,55.37021],[37.49281,55.36916],[37.49372,55.36832],[37.49577,55.36961],[37.49683,55.36899],[37.49488,55.36771],[37.497,55.36515],[37.49727,55.36333],[37.49783,55.36325],[37.49769,55.36186],[37.49545,55.36139],[37.49458,55.36248],[37.49072,55.36155],[37.4894,55.36041],[37.49054,55.35823],[37.49451,55.3566],[37.49466,55.35572],[37.50367,55.35522],[37.51082,55.35219],[37.50765,55.34803],[37.50246,55.34901],[37.50028,55.34649],[37.50057,55.34607],[37.50373,55.34477],[37.50646,55.34484],[37.50594,55.34253],[37.50933,55.34239],[37.51022,55.34351],[37.51278,55.34384],[37.51875,55.34366],[37.52306,55.34221],[37.52317,55.34278],[37.52455,55.34261],[37.52515,55.34487],[37.53001,55.3446],[37.53226,55.35382],[37.53136,55.35409],[37.53184,55.35728],[37.5414,55.35189],[37.54401,55.3538],[37.54232,55.35521],[37.54091,55.35821],[37.55028,55.3565],[37.55023,55.35576],[37.54871,55.35493],[37.54865,55.35254],[37.55087,55.35371],[37.56257,55.35381],[37.56959,55.35629],[37.57103,55.35732],[37.57352,55.3615],[37.57792,55.36146],[37.58026,55.36041],[37.58135,55.36108],[37.58155,55.36216],[37.59175,55.36128],[37.59334,55.36535],[37.59371,55.36812],[37.58541,55.36905],[37.57491,55.37615],[37.57377,55.37761],[37.5713,55.37861],[37.57147,55.37914],[37.56236,55.37931],[37.56029,55.37986],[37.55836,55.38323],[37.54866,55.38453],[37.54878,55.38538],[37.55347,55.38894],[37.55253,55.38929],[37.55269,55.38968],[37.5574,55.39108],[37.55884,55.3913],[37.55994,55.39042],[37.56954,55.39231],[37.56804,55.39534],[37.56407,55.4001],[37.56192,55.4039],[37.56663,55.40527],[37.56823,55.40398],[37.57887,55.40319],[37.57797,55.40113],[37.57507,55.40072],[37.57492,55.39981],[37.57784,55.39983],[37.57698,55.39681],[37.57812,55.39714],[37.57993,55.40271],[37.59312,55.40134],[37.59876,55.403],[37.60403,55.40613],[37.60549,55.40832],[37.60434,55.40891],[37.59639,55.4193],[37.59784,55.42274],[37.59332,55.42294],[37.59165,55.42467],[37.5923,55.42563],[37.58956,55.42775],[37.58921,55.4303],[37.58785,55.43225],[37.59711,55.43333],[37.59469,55.43513],[37.59721,55.43547],[37.59678,55.43634],[37.60012,55.43713],[37.59989,55.43846],[37.60612,55.4388],[37.60871,55.44268],[37.60466,55.44292],[37.60443,55.44195],[37.59931,55.44211],[37.59816,55.44419],[37.59491,55.44388],[37.5943,55.44621],[37.595,55.44727],[37.59472,55.44803],[37.5967,55.44848],[37.59665,55.44947],[37.59601,55.44974],[37.60292,55.45332],[37.60559,55.45535],[37.59891,55.45713],[37.59883,55.45765],[37.59463,55.45796],[37.59328,55.45609],[37.59251,55.45613],[37.58858,55.45755],[37.58973,55.45861],[37.58491,55.45913],[37.58487,55.45993],[37.58301,55.4613],[37.58343,55.46176],[37.58266,55.46196],[37.57784,55.47079],[37.57784,55.47279],[37.57477,55.4729],[37.57661,55.48106],[37.57761,55.48217],[37.57867,55.48669],[37.56629,55.48762],[37.56548,55.48742],[37.56411,55.4825],[37.56276,55.47993],[37.56176,55.47479],[37.56081,55.47425],[37.56084,55.47339],[37.54475,55.47265],[37.5456,55.46485],[37.54709,55.46459],[37.54591,55.46157],[37.54706,55.46212],[37.54758,55.46168],[37.54592,55.45972],[37.54786,55.45985],[37.54801,55.4569],[37.54432,55.45786],[37.53975,55.45554],[37.53682,55.45478],[37.53666,55.45335],[37.53276,55.45368],[37.53161,55.45175],[37.53152,55.44691],[37.53477,55.44495],[37.53667,55.43992],[37.5357,55.43981],[37.53581,55.43925],[37.53664,55.43922],[37.53839,55.43749],[37.53527,55.43628],[37.52939,55.43585],[37.51348,55.43592],[37.50854,55.43639],[37.50304,55.43789],[37.49912,55.44046],[37.49377,55.43974],[37.49185,55.43818],[37.48964,55.43422],[37.48744,55.43337],[37.48817,55.43267],[37.4856,55.43152],[37.48632,55.43076],[37.48556,55.43055],[37.48582,55.43012],[37.48643,55.43021],[37.48736,55.42866],[37.48549,55.42792],[37.4872,55.42602],[37.47898,55.42399],[37.47796,55.42312],[37.47656,55.41949],[37.47101,55.41872]]]}}]}