{"type":"FeatureCollection","features":[{"type":"Feature","properties":{"name":"Ярославль","osm":"relation/1701435","licence":"Data © OpenStreetMap contributors, ODbL 1.0. http://osm.org/copyright"},"geometry":{"type":"Polygon","coordinates":[[[39.72916,57.7269],[39.72983,57.7177],[39.73909,57.7226],[39.74258,57.72133],[39.7452,57.72159],[39.74769,57.72104],[39.7451,57.71926],[39.74599,57.71798],[39.75809,57.71278],[39.75942,57.70175],[39.75379,57.69934],[39.74955,57.70009],[39.74635,57.69958],[39.74416,57.697],[39.74826,57.68521],[39.7467,57.68313],[39.76184,57.67182],[39.77438,57.65598],[39.77538,57.65443],[39.77523,57.65271],[39.77999,57.64896],[39.77454,57.64621],[39.77679,57.64491],[39.77607,57.64311],[39.77957,57.64195],[39.7762,57.63979],[39.77842,57.63854],[39.7766,57.63707],[39.76949,57.63795],[39.76706,57.63466],[39.77969,57.63395],[39.78794,57.63214],[39.79481,57.62943],[39.79744,57.62948],[39.79958,57.62562],[39.79712,57.62528],[39.79281,57.62696],[39.78983,57.62698],[39.78805,57.62549],[39.7914,57.62282],[39.79768,57.62027],[39.80113,57.61711],[39.78655,57.61259],[39.78724,57.61168],[39.78638,57.61101],[39.80274,57.59648],[39.79951,57.59545],[39.8016,57.59333],[39.79438,57.59135],[39.79609,57.58923],[39.79224,57.58787],[39.79586,57.58493],[39.79471,57.58432],[39.79604,57.58243],[39.78583,57.57879],[39.77899,57.57465],[39.73617,57.54647],[39.73375,57.54392],[39.73636,57.54285],[39.74171,57.5457],[39.75574,57.54019],[39.76389,57.54613],[39.76733,57.54693],[39.7743,57.54614],[39.77552,57.54572],[39.7654,57.53799],[39.7816,57.53063],[39.83889,57.57202],[39.84349,57.57454],[39.86016,57.56849],[39.86212,57.5688],[39.86149,57.56599],[39.85879,57.5662],[39.85574,57.55925],[39.85835,57.55919],[39.8581,57.55839],[39.87922,57.55382],[39.88464,57.56133],[39.89769,57.55948],[39.89037,57.55074],[39.91139,57.54636],[39.90132,57.54196],[39.90247,57.53934],[39.91832,57.53325],[39.91736,57.53078],[39.91875,57.52975],[39.91542,57.52781],[39.91939,57.52576],[39.92419,57.52766],[39.92556,57.52923],[39.93633,57.53116],[39.93641,57.53316],[39.93029,57.53568],[39.93017,57.53773],[39.93121,57.53841],[39.93584,57.53795],[39.93959,57.53477],[39.94329,57.53465],[39.95002,57.53169],[39.9521,57.53229],[39.9521,57.53389],[39.95554,57.53492],[39.96809,57.53536],[39.97736,57.53762],[39.98584,57.53718],[39.99097,57.547],[40.00322,57.54642],[40.00333,57.5543],[39.98939,57.55732],[39.95693,57.57096],[39.95978,57.57242],[39.96197,57.57121],[39.9634,57.57196],[39.96197,57.57349],[39.95906,57.57346],[39.95459,57.57598],[39.95398,57.58272],[39.95234,57.58345],[39.94838,57.58292],[39.94468,57.58888],[39.93905,57.59504],[39.94337,57.5953],[39.94555,57.59388],[39.94768,57.59379],[39.94908,57.59981],[39.94598,57.60253],[39.95322,57.60183],[39.95741,57.60062],[39.98623,57.58445],[39.98952,57.5863],[39.98405,57.58955],[39.98808,57.59176],[39.97622,57.59905],[39.98026,57.60043],[39.97883,57.60218],[39.98251,57.6037],[39.98601,57.6014],[39.9907,57.60351],[39.98962,57.6042],[39.98971,57.60551],[39.99178,57.6062],[39.99248,57.60792],[39.9855,57.61194],[39.98547,57.62595],[39.96031,57.62596],[39.96037,57.62527],[39.96512,57.6247],[39.96509,57.62371],[39.96253,57.62245],[39.96282,57.62173],[39.96681,57.62057],[39.96399,57.61609],[39.95961,57.61615],[39.9579,57.61567],[39.9581,57.61482],[39.95097,57.61978],[39.94207,57.61925],[39.9415,57.62357],[39.95013,57.62488],[39.9492,57.62638],[39.94357,57.62732],[39.94415,57.62922],[39.9473,57.63004],[39.95602,57.62848],[39.95589,57.63195],[39.95821,57.63281],[39.96886,57.63072],[39.96874,57.63283],[39.96597,57.63703],[39.95724,57.64428],[39.96757,57.64791],[39.9668,57.64854],[39.9681,57.64897],[39.96296,57.65389],[39.96541,57.65564],[39.96823,57.65548],[39.96841,57.65412],[39.97496,57.65421],[39.97522,57.65714],[39.96417,57.65848],[39.96425,57.65942],[39.96653,57.65944],[39.96585,57.66105],[39.96477,57.66188],[39.96067,57.66203],[39.95976,57.66534],[39.9479,57.66354],[39.94283,57.66787],[39.94492,57.66999],[39.94034,57.67134],[39.93826,57.66946],[39.91199,57.67751],[39.9073,57.67967],[39.90225,57.6769],[39.89869,57.67946],[39.8975,57.68266],[39.8921,57.6819],[39.8919,57.6847],[39.88636,57.68364],[39.88813,57.68382],[39.88822,57.68475],[39.88468,57.68476],[39.88943,57.6852],[39.88948,57.68675],[39.88799,57.68834],[39.88865,57.69042],[39.87629,57.69339],[39.87061,57.68669],[39.86631,57.6849],[39.86348,57.68811],[39.86088,57.68726],[39.86091,57.68897],[39.8545,57.69224],[39.85645,57.69272],[39.84994,57.69546],[39.85471,57.69752],[39.85549,57.69925],[39.85407,57.70085],[39.85054,57.70142],[39.84948,57.70308],[39.8302,57.71007],[39.82744,57.712],[39.82648,57.71358],[39.8311,57.71456],[39.8292,57.7167],[39.83758,57.72384],[39.82156,57.73331],[39.81737,57.73912],[39.82122,57.73991],[39.8232,57.73742],[39.83272,57.73822],[39.8319,57.74042],[39.82947,57.7448],[39.81482,57.7428],[39.81329,57.74596],[39.81762,57.74649],[39.81721,57.74712],[39.81486,57.75049],[39.81174,57.7505],[39.80866,57.7592],[39.79851,57.7658],[39.79839,57.76748],[39.79731,57.7693],[39.7962,57.76913],[39.79594,57.77031],[39.79507,57.7703],[39.7941,57.77344],[39.78944,57.77234],[39.78545,57.77461],[39.78228,57.77528],[39.77476,57.77369],[39.7768,57.75366],[39.77971,57.73936],[39.77125,57.73927],[39.76729,57.74231],[39.76806,57.74319],[39.76537,57.74579],[39.76159,57.74696],[39.75778,57.74664],[39.75489,57.74523],[39.75095,57.74554],[39.74392,57.74216],[39.73922,57.74368],[39.73175,57.74346],[39.73172,57.74112],[39.73314,57.73906],[39.73096,57.73762],[39.74051,57.72986],[39.72916,57.7269]]]}}]}