{"type":"FeatureCollection","features":[{"type":"Feature","properties":{"name":"Владивосток","osm":"relation/1704857","licence":"Data © OpenStreetMap contributors, ODbL 1.0. http://osm.org/copyright"},"geometry":{"type":"Polygon","coordinates":[[[131.83972,43.08116],[131.83989,43.07597],[131.84335,43.07248],[131.8417,43.07787],[131.8453,43.07954],[131.85206,43.07837],[131.85944,43.08368],[131.86135,43.08253],[131.87486,43.09512],[131.87387,43.09719],[131.86986,43.09878],[131.88026,43.1051],[131.87954,43.10571],[131.88263,43.10791],[131.88507,43.11275],[131.89313,43.11071],[131.90184,43.11266],[131.91878,43.1081],[131.93091,43.10766],[131.93241,43.10685],[131.93146,43.10591],[131.9279,43.10495],[131.92427,43.10501],[131.9243,43.10598],[131.91225,43.10511],[131.90361,43.10634],[131.90383,43.1074],[131.9025,43.10751],[131.9023,43.10656],[131.89165,43.10645],[131.8825,43.10142],[131.88153,43.09903],[131.88236,43.0967],[131.8781,43.088],[131.88001,43.08556],[131.88239,43.0854],[131.88999,43.08991],[131.89714,43.09221],[131.89851,43.09138],[131.89751,43.09041],[131.89161,43.089],[131.88759,43.08341],[131.8892,43.08176],[131.89452,43.0813],[131.89945,43.07664],[131.90297,43.07791],[131.90373,43.07682],[131.91599,43.07699],[131.91932,43.08126],[131.92294,43.08302],[131.92594,43.07647],[131.93228,43.07458],[131.93232,43.07316],[131.9144,43.07317],[131.91276,43.07128],[131.91404,43.07],[131.91348,43.06812],[131.911,43.06706],[131.91284,43.06548],[131.91514,43.06686],[131.92644,43.06424],[131.93293,43.06555],[131.93426,43.06753],[131.94166,43.0716],[131.94666,43.06976],[131.95086,43.07151],[131.95127,43.07424],[131.95922,43.07305],[131.96207,43.07087],[131.96241,43.06902],[131.96033,43.06818],[131.95588,43.05775],[131.96317,43.05709],[131.96543,43.06957],[131.96313,43.07486],[131.9704,43.08045],[131.97276,43.08592],[131.98857,43.09231],[131.99363,43.09555],[131.99563,43.10006],[132.00636,43.10437],[132.00957,43.10673],[132.01034,43.11306],[132.01277,43.11437],[132.0175,43.11517],[132.01987,43.1127],[132.02864,43.11688],[132.03156,43.11581],[132.03451,43.11922],[132.03289,43.12174],[132.03932,43.12184],[132.04084,43.12379],[132.04022,43.12684],[132.04393,43.12882],[132.04377,43.13063],[132.04699,43.13288],[132.04819,43.13675],[132.05622,43.14504],[132.05813,43.14482],[132.05921,43.14639],[132.05753,43.14748],[132.05787,43.1489],[132.0626,43.15224],[132.06753,43.15019],[132.06622,43.15281],[132.0749,43.16106],[132.07982,43.16369],[132.08275,43.16706],[132.09606,43.17345],[132.09863,43.17574],[132.09747,43.17713],[132.09828,43.17827],[132.10898,43.18211],[132.11039,43.18527],[132.11355,43.18671],[132.11123,43.19074],[132.1131,43.19261],[132.12356,43.1952],[132.13075,43.19576],[132.13282,43.19417],[132.13869,43.1978],[132.14095,43.20119],[132.14993,43.19946],[132.15779,43.20306],[132.16013,43.20662],[132.16555,43.20727],[132.17049,43.20558],[132.17067,43.20768],[132.16812,43.21024],[132.17601,43.21574],[132.21015,43.22004],[132.21542,43.22361],[132.21604,43.22594],[132.22084,43.22696],[132.22101,43.22888],[132.23143,43.22919],[132.22956,43.23407],[132.23013,43.23598],[132.23811,43.23894],[132.23674,43.24083],[132.22902,43.24333],[132.22207,43.24824],[132.22186,43.25203],[132.21324,43.25365],[132.21263,43.25735],[132.21807,43.26146],[132.22002,43.2643],[132.21885,43.26639],[132.21489,43.2661],[132.1812,43.24817],[132.17576,43.24956],[132.16358,43.24871],[132.15091,43.24677],[132.14619,43.24436],[132.1264,43.24244],[132.10869,43.23843],[132.10708,43.23973],[132.09975,43.23751],[132.09188,43.21418],[132.07308,43.21309],[132.0712,43.20951],[132.06675,43.20734],[132.06247,43.1971],[132.05816,43.19524],[132.05658,43.19152],[132.05286,43.19105],[132.04994,43.18063],[132.0331,43.16625],[132.0251,43.16355],[132.01401,43.16657],[132.00836,43.16561],[132.00836,43.1631],[132.01011,43.16107],[132.00538,43.15219],[132.00761,43.14811],[132.00609,43.14584],[132.00825,43.14507],[132.00533,43.1407],[131.99892,43.1433],[132.00219,43.1482],[131.99997,43.15258],[132.00478,43.16051],[132.00344,43.16205],[132.00344,43.16784],[132.00999,43.17022],[132.02502,43.16749],[132.03001,43.16918],[132.04541,43.18233],[132.04868,43.19417],[132.05277,43.19469],[132.05403,43.19764],[132.05832,43.19949],[132.06243,43.20932],[132.06732,43.21216],[132.06878,43.21495],[132.06554,43.21635],[132.06635,43.2192],[132.07091,43.22011],[132.07473,43.217],[132.08805,43.21764],[132.09519,43.23972],[132.10849,43.24395],[132.11029,43.2425],[132.12486,43.24593],[132.14434,43.2478],[132.14891,43.25014],[132.16311,43.25232],[132.17596,43.25332],[132.18032,43.25221],[132.20688,43.2663],[132.20412,43.26846],[132.20456,43.27413],[132.19862,43.27324],[132.19661,43.27418],[132.19527,43.27698],[132.19229,43.2755],[132.18709,43.2754],[132.17997,43.27803],[132.17103,43.27664],[132.1685,43.27816],[132.16095,43.27826],[132.15949,43.27432],[132.14664,43.2692],[132.13867,43.27049],[132.13366,43.26898],[132.13223,43.26941],[132.13125,43.27231],[132.12209,43.27612],[132.09262,43.28002],[132.08137,43.2885],[132.05542,43.28853],[132.05461,43.28797],[132.05574,43.2863],[132.04146,43.27707],[132.0357,43.27544],[132.02899,43.26866],[132.02286,43.26768],[132.01655,43.26798],[132.0153,43.26919],[132.0127,43.26352],[132.00189,43.26246],[132.00531,43.25779],[132.0061,43.25383],[132.00468,43.25006],[132.01289,43.24599],[132.00921,43.23745],[132.00207,43.23484],[132.00029,43.2354],[131.99672,43.23315],[131.98764,43.23496],[131.98494,43.23329],[131.98056,43.23327],[131.97029,43.22744],[131.93847,43.2139],[131.93328,43.2087],[131.9195,43.20377],[131.91712,43.19388],[131.90714,43.18678],[131.90827,43.18255],[131.90744,43.18104],[131.90427,43.17994],[131.90302,43.17608],[131.896,43.17425],[131.89488,43.1702],[131.90492,43.15798],[131.89928,43.14688],[131.89447,43.14551],[131.88733,43.13915],[131.88823,43.13831],[131.88318,43.13487],[131.88184,43.12974],[131.87484,43.1275],[131.8729,43.12067],[131.87454,43.11817],[131.86701,43.1117],[131.86804,43.10665],[131.85913,43.10542],[131.85828,43.1034],[131.85985,43.1008],[131.8568,43.09862],[131.85742,43.09724],[131.84994,43.09242],[131.85274,43.0909],[131.84352,43.08715],[131.83972,43.08116]]]}}]}