{"type":"FeatureCollection","features":[{"type":"Feature","properties":{"name":"Обь","osm":"relation/1701916","licence":"Data © OpenStreetMap contributors, ODbL 1.0. http://osm.org/copyright"},"geometry":{"type":"Polygon","coordinates":[[[82.6057,55.01083],[82.60576,55.00953],[82.60595,55.00844],[82.60609,55.00795],[82.61457,55.00748],[82.61494,55.00407],[82.61516,55.00257],[82.6154,55.00254],[82.61551,55.00187],[82.61526,55.0019],[82.6153,55.00166],[82.61555,55.00163],[82.61574,55.00043],[82.61586,54.99909],[82.61624,54.9973],[82.61613,54.99655],[82.61621,54.99603],[82.61666,54.99488],[82.6223,54.99463],[82.62506,54.99453],[82.63778,54.99414],[82.6428,54.99396],[82.64931,54.99377],[82.66025,54.99341],[82.6598,54.99139],[82.66466,54.99168],[82.66471,54.99143],[82.66468,54.99142],[82.66494,54.9901],[82.66481,54.99009],[82.66481,54.99007],[82.66534,54.98793],[82.66593,54.98521],[82.66597,54.98509],[82.66629,54.98459],[82.66628,54.98447],[82.66183,54.98453],[82.6621,54.98342],[82.65656,54.98335],[82.65812,54.97998],[82.6693,54.97996],[82.66943,54.9798],[82.66968,54.97918],[82.6711,54.97933],[82.67095,54.97996],[82.67299,54.97999],[82.67372,54.97997],[82.67414,54.97985],[82.67421,54.9794],[82.67912,54.97967],[82.67913,54.97961],[82.67919,54.97961],[82.67918,54.97968],[82.68327,54.9799],[82.68431,54.97985],[82.68615,54.97986],[82.68611,54.98013],[82.68753,54.98014],[82.68752,54.98036],[82.69012,54.9804],[82.69176,54.98025],[82.69387,54.98046],[82.69554,54.98067],[82.69554,54.98062],[82.70024,54.98062],[82.70093,54.98065],[82.70094,54.98062],[82.70099,54.98062],[82.70106,54.98043],[82.70198,54.98053],[82.70195,54.98062],[82.7021,54.98062],[82.7021,54.9806],[82.70298,54.98073],[82.70461,54.98115],[82.70487,54.98115],[82.70509,54.98096],[82.70539,54.98089],[82.70587,54.98083],[82.70824,54.98092],[82.70847,54.98085],[82.70884,54.9807],[82.70918,54.98048],[82.70924,54.98053],[82.70973,54.98061],[82.71004,54.98072],[82.71019,54.98083],[82.7103,54.98094],[82.71039,54.98115],[82.71054,54.9812],[82.71067,54.98128],[82.7109,54.98135],[82.71108,54.98147],[82.71115,54.98156],[82.71119,54.98165],[82.71159,54.98174],[82.71253,54.9819],[82.71298,54.98209],[82.71331,54.98211],[82.71356,54.98217],[82.71452,54.98251],[82.71465,54.9827],[82.71482,54.98275],[82.71499,54.98279],[82.71531,54.98273],[82.7155,54.98273],[82.71581,54.98282],[82.71615,54.98283],[82.71727,54.98277],[82.71745,54.9828],[82.71757,54.98287],[82.71767,54.98298],[82.71779,54.98308],[82.71793,54.98314],[82.71812,54.98314],[82.71841,54.98313],[82.71859,54.98314],[82.71883,54.98323],[82.71902,54.98335],[82.71909,54.98346],[82.71927,54.98353],[82.71947,54.98357],[82.71979,54.98358],[82.71997,54.98356],[82.72025,54.98384],[82.72039,54.98391],[82.72052,54.98393],[82.72071,54.98398],[82.7214,54.98405],[82.72299,54.98456],[82.72471,54.98478],[82.72531,54.98489],[82.72594,54.98498],[82.72908,54.98597],[82.73033,54.98634],[82.73094,54.98665],[82.73176,54.98688],[82.73222,54.98708],[82.73305,54.9873],[82.73412,54.98786],[82.73515,54.98867],[82.73598,54.98982],[82.73692,54.99045],[82.73711,54.99048],[82.73776,54.99074],[82.73867,54.99051],[82.73927,54.9903],[82.73987,54.99016],[82.74005,54.99006],[82.74012,54.99004],[82.74015,54.99005],[82.74043,54.98999],[82.7416,54.98981],[82.74184,54.98976],[82.74183,54.98975],[82.74212,54.98968],[82.74224,54.98979],[82.7435,54.98952],[82.74359,54.98959],[82.74387,54.98952],[82.7438,54.98943],[82.74546,54.98905],[82.74569,54.98918],[82.74592,54.98902],[82.74606,54.98894],[82.74768,54.98841],[82.74859,54.98822],[82.74872,54.98829],[82.74886,54.98817],[82.74906,54.9881],[82.74944,54.9879],[82.74944,54.98784],[82.75149,54.98716],[82.75113,54.99103],[82.75147,54.99104],[82.75144,54.99135],[82.7524,54.99139],[82.75249,54.99283],[82.73887,54.99554],[82.73901,54.99555],[82.73727,54.9959],[82.7371,54.9959],[82.7352,54.99631],[82.72867,54.99763],[82.71845,55.00012],[82.71698,55.00139],[82.70364,55.01114],[82.70025,55.0148],[82.69589,55.01628],[82.69009,55.01989],[82.67908,55.02311],[82.67641,55.02181],[82.67138,55.02116],[82.6774,55.01754],[82.66991,55.01685],[82.65325,55.0154],[82.65253,55.01784],[82.65195,55.01775],[82.65073,55.01751],[82.64517,55.01684],[82.63862,55.01594],[82.63869,55.01544],[82.63866,55.01514],[82.63375,55.01447],[82.62926,55.0139],[82.61903,55.01255],[82.61394,55.01196],[82.612,55.01159],[82.60812,55.01108],[82.6057,55.01083]]]}}]}