{"type":"FeatureCollection","features":[{"type":"Feature","properties":{"name":"Петрозаводск","osm":"relation/1701311","licence":"Data © OpenStreetMap contributors, ODbL 1.0. http://osm.org/copyright"},"geometry":{"type":"Polygon","coordinates":[[[34.18621,61.85078],[34.19641,61.84367],[34.21306,61.8272],[34.21235,61.82669],[34.21239,61.82646],[34.21196,61.82627],[34.21211,61.82608],[34.21087,61.82544],[34.21174,61.82404],[34.21137,61.82397],[34.21195,61.82344],[34.21173,61.82221],[34.21129,61.82222],[34.21106,61.82189],[34.21134,61.82113],[34.21018,61.81968],[34.21023,61.81881],[34.21144,61.81797],[34.21508,61.81732],[34.21554,61.81709],[34.21595,61.81717],[34.21617,61.81691],[34.21673,61.81692],[34.217,61.81671],[34.21751,61.81678],[34.21835,61.81583],[34.22088,61.81395],[34.2404,61.80126],[34.24219,61.80027],[34.2464,61.79889],[34.25563,61.79714],[34.26352,61.79605],[34.26613,61.79458],[34.26696,61.79447],[34.26756,61.79318],[34.27482,61.79094],[34.2746,61.78731],[34.27227,61.78098],[34.26277,61.78304],[34.25151,61.77182],[34.24759,61.77274],[34.246,61.75812],[34.26089,61.75663],[34.25962,61.74403],[34.27731,61.74321],[34.27577,61.73479],[34.29414,61.73382],[34.29675,61.74232],[34.34701,61.73989],[34.3468,61.73943],[34.34699,61.73918],[34.35291,61.73473],[34.35363,61.73368],[34.3544,61.73293],[34.35858,61.73091],[34.35948,61.73037],[34.36002,61.72971],[34.3601,61.72901],[34.35799,61.72679],[34.35828,61.72558],[34.3574,61.72459],[34.35782,61.72114],[34.36282,61.72069],[34.38063,61.71365],[34.41688,61.71389],[34.42144,61.71433],[34.42265,61.71276],[34.42805,61.71379],[34.43217,61.71367],[34.4403,61.71388],[34.44513,61.71161],[34.44841,61.7137],[34.45434,61.71402],[34.45932,61.71186],[34.46309,61.72368],[34.4573,61.7273],[34.45837,61.72784],[34.46165,61.72839],[34.46383,61.72991],[34.46486,61.72959],[34.46577,61.73037],[34.46707,61.7301],[34.46799,61.73043],[34.46404,61.73418],[34.48494,61.73924],[34.50066,61.72871],[34.50876,61.73134],[34.65225,61.75207],[34.65275,61.75348],[34.6343,61.77983],[34.5977,61.80874],[34.58407,61.81386],[34.57303,61.81559],[34.56144,61.81789],[34.5613,61.81821],[34.55846,61.8194],[34.55337,61.81795],[34.50554,61.83103],[34.5062,61.83206],[34.50714,61.84043],[34.43118,61.84308],[34.43167,61.84497],[34.41211,61.84879],[34.39808,61.85035],[34.37242,61.85008],[34.3706,61.84949],[34.36843,61.84942],[34.36655,61.84904],[34.36508,61.8491],[34.36512,61.84873],[34.36448,61.84846],[34.3646,61.84799],[34.36388,61.84779],[34.36286,61.84799],[34.36275,61.84771],[34.36176,61.84725],[34.3616,61.84687],[34.36066,61.84654],[34.35935,61.84691],[34.35912,61.84677],[34.35663,61.84705],[34.35867,61.84828],[34.35894,61.84862],[34.35851,61.85117],[34.35789,61.85159],[34.35503,61.85147],[34.35502,61.8516],[34.35527,61.85159],[34.35594,61.8522],[34.35805,61.85213],[34.35853,61.85261],[34.35368,61.85491],[34.35383,61.85502],[34.35373,61.8551],[34.35199,61.85519],[34.35088,61.8548],[34.35089,61.85447],[34.35221,61.85373],[34.35189,61.85345],[34.35114,61.85336],[34.35187,61.8531],[34.3532,61.85301],[34.35262,61.85226],[34.35275,61.85205],[34.3549,61.8516],[34.35492,61.85147],[34.35302,61.85149],[34.35051,61.85194],[34.34946,61.85181],[34.34739,61.85229],[34.34613,61.85223],[34.34348,61.85249],[34.3426,61.85241],[34.3422,61.85221],[34.34199,61.85185],[34.34008,61.85152],[34.33705,61.85135],[34.33556,61.85199],[34.33379,61.85227],[34.33223,61.85308],[34.33197,61.85353],[34.33135,61.85394],[34.33173,61.85436],[34.3318,61.85479],[34.32993,61.85541],[34.33004,61.85572],[34.32953,61.85609],[34.32964,61.85629],[34.32905,61.85663],[34.32913,61.85719],[34.32894,61.85771],[34.32784,61.85859],[34.32707,61.85863],[34.3268,61.8583],[34.32707,61.85812],[34.32697,61.85795],[34.3259,61.85758],[34.32427,61.85738],[34.31834,61.85754],[34.31512,61.85805],[34.31522,61.85834],[34.31483,61.8585],[34.31506,61.85862],[34.31481,61.8587],[34.31407,61.85843],[34.31297,61.85888],[34.31278,61.85906],[34.31289,61.85926],[34.31171,61.85945],[34.31135,61.85968],[34.3112,61.86006],[34.31046,61.86045],[34.30768,61.85998],[34.30477,61.85874],[34.30335,61.85843],[34.30099,61.85821],[34.30099,61.85834],[34.30062,61.85839],[34.30054,61.85824],[34.29835,61.858],[34.29766,61.85813],[34.2976,61.85839],[34.2979,61.85893],[34.29846,61.85898],[34.29848,61.85852],[34.29899,61.85839],[34.29955,61.85845],[34.29983,61.85866],[34.30191,61.85871],[34.30172,61.85983],[34.30333,61.85963],[34.30378,61.85986],[34.30378,61.86013],[34.30157,61.86122],[34.30071,61.8613],[34.29998,61.86044],[34.29848,61.86031],[34.29771,61.85991],[34.2929,61.86029],[34.29228,61.86055],[34.29271,61.86084],[34.29374,61.86074],[34.29406,61.86111],[34.29655,61.86159],[34.297,61.86207],[34.29678,61.86258],[34.2955,61.86267],[34.29427,61.86225],[34.29259,61.86268],[34.29258,61.86148],[34.29285,61.86139],[34.29284,61.86122],[34.29216,61.86109],[34.29142,61.86059],[34.2899,61.86025],[34.28729,61.86001],[34.28674,61.85973],[34.28445,61.85922],[34.2829,61.85918],[34.28117,61.85952],[34.28053,61.85925],[34.27828,61.8594],[34.27802,61.85917],[34.2773,61.85903],[34.27669,61.85848],[34.27506,61.858],[34.27302,61.85789],[34.27119,61.85825],[34.2685,61.85798],[34.26607,61.85819],[34.26354,61.85883],[34.26125,61.85913],[34.25655,61.85791],[34.25456,61.85825],[34.25373,61.85735],[34.2478,61.85673],[34.24737,61.85645],[34.24628,61.85626],[34.24623,61.85595],[34.2456,61.85572],[34.24516,61.85577],[34.24529,61.85559],[34.24478,61.85567],[34.24471,61.85535],[34.2441,61.85531],[34.24396,61.85495],[34.24364,61.8548],[34.24305,61.855],[34.24231,61.85461],[34.24122,61.85452],[34.24024,61.85508],[34.23985,61.85499],[34.23932,61.85435],[34.23909,61.85434],[34.23874,61.85473],[34.23778,61.85451],[34.23753,61.8544],[34.2377,61.8542],[34.23691,61.85403],[34.23693,61.85378],[34.2359,61.85359],[34.2352,61.85324],[34.23489,61.85358],[34.2343,61.85362],[34.23351,61.85322],[34.19453,61.85065],[34.18621,61.85078]]]}}]}