{"type":"FeatureCollection","features":[{"type":"Feature","properties":{"name":"Нижний Новгород","osm":"relation/1752948","licence":"Data © OpenStreetMap contributors, ODbL 1.0. http://osm.org/copyright"},"geometry":{"type":"Polygon","coordinates":[[[43.72068,56.21979],[43.72827,56.21899],[43.73333,56.21973],[43.73751,56.21985],[43.7422,56.21845],[43.74953,56.21352],[43.75151,56.21313],[43.75161,56.21246],[43.75706,56.20587],[43.75938,56.20525],[43.76302,56.20211],[43.76266,56.20193],[43.76776,56.19778],[43.77097,56.19423],[43.77403,56.19201],[43.77461,56.19163],[43.78344,56.19045],[43.78125,56.19065],[43.7832,56.18953],[43.78118,56.19024],[43.77647,56.19096],[43.77691,56.19024],[43.77554,56.18879],[43.77566,56.18832],[43.77875,56.18765],[43.78727,56.18785],[43.78979,56.18822],[43.79013,56.18875],[43.78964,56.18921],[43.78697,56.18919],[43.78613,56.1901],[43.78695,56.18954],[43.78837,56.18997],[43.78889,56.18961],[43.79035,56.19004],[43.80395,56.19094],[43.814,56.19319],[43.81457,56.19302],[43.82015,56.19647],[43.81991,56.19686],[43.81909,56.19689],[43.81655,56.19572],[43.81585,56.19636],[43.81655,56.19705],[43.8194,56.19785],[43.82086,56.19707],[43.82258,56.19761],[43.83129,56.20231],[43.85139,56.21114],[43.85174,56.2116],[43.85422,56.21184],[43.8626,56.21481],[43.86962,56.21662],[43.87455,56.21862],[43.88219,56.22078],[43.88333,56.22125],[43.88294,56.22153],[43.88346,56.22126],[43.88835,56.22322],[43.8893,56.22321],[43.89341,56.22511],[43.89665,56.22603],[43.89799,56.22552],[43.90658,56.22895],[43.90927,56.23045],[43.91099,56.23086],[43.91323,56.23202],[43.91246,56.23258],[43.92305,56.23801],[43.92402,56.23786],[43.92531,56.23839],[43.92533,56.23935],[43.92772,56.24065],[43.92863,56.24074],[43.93304,56.24396],[43.93716,56.24726],[43.93742,56.24772],[43.93675,56.2476],[43.93736,56.24815],[43.93893,56.24845],[43.94409,56.2537],[43.95183,56.25963],[43.95392,56.26216],[43.95651,56.26398],[43.96008,56.26794],[43.9608,56.26928],[43.96136,56.27278],[43.96035,56.28209],[43.95988,56.28212],[43.95858,56.27777],[43.95884,56.2769],[43.9583,56.2738],[43.95879,56.27271],[43.95648,56.27331],[43.95743,56.28167],[43.95805,56.28331],[43.95991,56.28369],[43.96018,56.28422],[43.9587,56.29198],[43.95852,56.29725],[43.95683,56.2972],[43.95652,56.29757],[43.95703,56.29817],[43.95816,56.29818],[43.95854,56.29857],[43.95804,56.29989],[43.95795,56.30931],[43.95719,56.31369],[43.95658,56.3145],[43.95637,56.31567],[43.95677,56.31925],[43.95753,56.32085],[43.95875,56.32142],[43.95821,56.32208],[43.9584,56.32257],[43.96074,56.32516],[43.96625,56.3292],[43.96897,56.33035],[43.97063,56.33157],[43.97712,56.3342],[43.97723,56.33468],[43.95347,56.34341],[43.94714,56.34402],[43.93877,56.34751],[43.93682,56.34759],[43.92823,56.35068],[43.9302,56.35872],[43.93394,56.35854],[43.93489,56.35946],[43.93494,56.3606],[43.93084,56.36374],[43.9276,56.36727],[43.92165,56.36603],[43.92489,56.36123],[43.9156,56.35517],[43.91474,56.3535],[43.90359,56.35521],[43.90095,56.35527],[43.89822,56.35658],[43.89345,56.35777],[43.89074,56.35897],[43.88986,56.35889],[43.88914,56.35957],[43.88831,56.35961],[43.88177,56.36264],[43.87825,56.36377],[43.87155,56.36749],[43.8716,56.3679],[43.87007,56.36875],[43.8692,56.37032],[43.86708,56.37206],[43.8688,56.37227],[43.87109,56.37183],[43.87504,56.36954],[43.87643,56.36812],[43.88213,56.36547],[43.88334,56.3657],[43.87252,56.37205],[43.87044,56.37387],[43.86929,56.3765],[43.86928,56.37844],[43.86872,56.37887],[43.87025,56.38103],[43.86531,56.38724],[43.86303,56.3894],[43.8616,56.39205],[43.85517,56.39737],[43.85111,56.39908],[43.84885,56.39949],[43.84138,56.40219],[43.84021,56.40238],[43.82991,56.40144],[43.82157,56.39967],[43.81306,56.40128],[43.79282,56.39575],[43.76791,56.39689],[43.74808,56.39356],[43.73679,56.39603],[43.73503,56.39516],[43.72705,56.37583],[43.75755,56.31078],[43.74933,56.31008],[43.74943,56.30883],[43.73975,56.30848],[43.73952,56.3067],[43.74027,56.30565],[43.74251,56.30478],[43.7426,56.30358],[43.74338,56.30274],[43.74777,56.30439],[43.75261,56.30531],[43.75528,56.30648],[43.76017,56.30648],[43.76124,56.3047],[43.76306,56.29884],[43.76503,56.29424],[43.76763,56.29093],[43.76743,56.28895],[43.77233,56.27791],[43.75407,56.27647],[43.74592,56.27133],[43.74214,56.26642],[43.74204,56.2642],[43.75964,56.26534],[43.75981,56.26412],[43.76372,56.26428],[43.76468,56.26334],[43.77908,56.26555],[43.78363,56.2655],[43.78506,56.265],[43.78761,56.2627],[43.79071,56.26103],[43.79548,56.25605],[43.79983,56.25061],[43.80367,56.24695],[43.79752,56.24767],[43.78928,56.25091],[43.78789,56.25098],[43.78603,56.25013],[43.78618,56.24656],[43.78249,56.24303],[43.78331,56.24015],[43.78221,56.23799],[43.78283,56.23775],[43.78044,56.23085],[43.77656,56.23021],[43.77188,56.22443],[43.76906,56.21962],[43.76903,56.21893],[43.76945,56.21864],[43.77363,56.21772],[43.77398,56.21731],[43.77453,56.21433],[43.77404,56.21324],[43.77172,56.21058],[43.76551,56.21135],[43.75834,56.21643],[43.75613,56.21861],[43.7566,56.21903],[43.75631,56.22068],[43.75365,56.22347],[43.74951,56.22545],[43.74814,56.22526],[43.74741,56.22657],[43.74302,56.22794],[43.73722,56.22822],[43.73276,56.22751],[43.73233,56.22689],[43.72585,56.22356],[43.72267,56.22055],[43.7211,56.22047],[43.72068,56.21979]]]}}]}