{"type":"FeatureCollection","features":[{"type":"Feature","properties":{"name":"Орёл","osm":"relation/1775054","licence":"Data © OpenStreetMap contributors, ODbL 1.0. http://osm.org/copyright"},"geometry":{"type":"Polygon","coordinates":[[[35.97402,52.93377],[35.97808,52.92497],[35.97767,52.9235],[35.97805,52.92221],[35.98224,52.92053],[35.9822,52.9186],[35.9866,52.91858],[35.98547,52.91544],[35.98603,52.91501],[35.98893,52.91317],[35.99244,52.91545],[35.99442,52.91813],[35.99612,52.91727],[35.99723,52.91753],[35.99703,52.91824],[35.99977,52.91828],[36.00292,52.91648],[36.0053,52.91606],[36.00833,52.91439],[35.99887,52.90874],[36.00061,52.90628],[36.00567,52.90259],[36.02022,52.90295],[36.02079,52.90314],[36.02134,52.90499],[36.0253,52.90526],[36.02708,52.90195],[36.03049,52.90252],[36.03203,52.89848],[36.03024,52.89634],[36.03278,52.8955],[36.0372,52.89653],[36.03683,52.89835],[36.03727,52.8996],[36.03917,52.89968],[36.04456,52.89825],[36.05571,52.8988],[36.0569,52.89972],[36.05872,52.89976],[36.06065,52.8989],[36.06364,52.89926],[36.07158,52.90315],[36.07818,52.90389],[36.07661,52.91242],[36.09677,52.91374],[36.09709,52.91547],[36.09891,52.91615],[36.10583,52.91646],[36.11845,52.91591],[36.12623,52.91641],[36.12807,52.91378],[36.12753,52.91147],[36.12946,52.91121],[36.13488,52.91182],[36.14006,52.91351],[36.14172,52.91448],[36.13713,52.91735],[36.13544,52.91654],[36.11579,52.93405],[36.13096,52.93548],[36.12645,52.94037],[36.1207,52.94516],[36.12221,52.94868],[36.12547,52.94989],[36.1484,52.95024],[36.14572,52.94826],[36.14503,52.94324],[36.14886,52.94153],[36.15481,52.94048],[36.15748,52.93811],[36.16128,52.93739],[36.16575,52.94245],[36.17046,52.93993],[36.17352,52.93906],[36.18045,52.94598],[36.1828,52.94974],[36.18541,52.94969],[36.18744,52.95433],[36.18966,52.95601],[36.19273,52.95719],[36.18147,52.96371],[36.17811,52.96499],[36.18249,52.97151],[36.18413,52.97543],[36.18438,52.98867],[36.17957,52.99143],[36.17534,52.99512],[36.16851,52.99793],[36.16791,52.99922],[36.16796,53.00738],[36.16582,53.00751],[36.15954,53.01391],[36.17044,53.02202],[36.17193,53.02114],[36.17188,53.0189],[36.17068,53.01694],[36.1804,53.015],[36.18077,53.01702],[36.17932,53.01709],[36.18039,53.01772],[36.18037,53.02167],[36.17903,53.02264],[36.18107,53.02379],[36.17877,53.02483],[36.18419,53.02656],[36.18313,53.02743],[36.18568,53.02921],[36.18707,53.0278],[36.1898,53.02747],[36.18962,53.02661],[36.19238,53.02649],[36.19243,53.02589],[36.19667,53.02572],[36.19718,53.02814],[36.19965,53.02838],[36.20111,53.02823],[36.20407,53.02588],[36.20679,53.02528],[36.20746,53.02534],[36.20762,53.02613],[36.21904,53.026],[36.21664,53.03237],[36.19796,53.03517],[36.1988,53.03896],[36.19472,53.03774],[36.18688,53.03249],[36.18543,53.03363],[36.18272,53.03255],[36.17959,53.03629],[36.18286,53.03897],[36.17979,53.04058],[36.17877,53.03983],[36.17638,53.04024],[36.17412,53.03809],[36.17319,53.03811],[36.17226,53.03756],[36.17267,53.03714],[36.16683,53.03399],[36.16245,53.03027],[36.1506,53.0288],[36.1496,53.0279],[36.14943,53.02732],[36.15002,53.02717],[36.14882,53.02681],[36.14762,53.02533],[36.14467,53.02556],[36.14487,53.02599],[36.144,53.02618],[36.14145,53.02112],[36.13889,53.01996],[36.13747,53.01956],[36.13639,53.0202],[36.13314,53.01891],[36.12616,53.02304],[36.12228,53.02066],[36.11855,53.01657],[36.116,53.01703],[36.11503,53.01649],[36.11548,53.01467],[36.11408,53.01396],[36.11409,53.01266],[36.10948,53.01253],[36.11006,53.01129],[36.10885,53.01099],[36.10766,53.01203],[36.1047,53.0111],[36.10288,53.01118],[36.1032,53.01705],[36.10039,53.01714],[36.0988,53.01222],[36.09745,53.01048],[36.09638,53.01041],[36.09461,53.00691],[36.09254,53.00472],[36.08903,53.0057],[36.08344,53.00405],[36.0835,53.00297],[36.07912,53.00245],[36.08008,53.00189],[36.08097,53.00016],[36.07864,52.99981],[36.07874,52.99799],[36.08165,52.99347],[36.07776,52.99211],[36.06992,52.99297],[36.06199,52.99144],[36.0573,52.99325],[36.05391,52.99325],[36.05214,52.99402],[36.05156,52.99472],[36.05204,52.9951],[36.05103,52.99585],[36.04824,52.99673],[36.04234,52.99708],[36.03883,52.99831],[36.03696,52.99988],[36.03618,52.99949],[36.03385,53.00056],[36.03814,53.00371],[36.01991,53.00591],[36.0197,53.00544],[36.02843,53.00424],[36.02848,52.99806],[36.02697,52.99854],[36.02576,52.99767],[36.0185,53.00197],[36.01725,53.00175],[36.00672,52.99479],[36.00911,52.99341],[36.01641,52.99717],[36.01763,52.99615],[36.01716,52.99234],[36.01773,52.99153],[36.01997,52.99257],[36.01984,52.99603],[36.02153,52.99678],[36.02561,52.99692],[36.03008,52.9947],[36.02232,52.99116],[36.02891,52.98811],[36.0235,52.98504],[36.02304,52.98314],[36.02137,52.98064],[36.02044,52.98024],[36.02032,52.97937],[36.02123,52.97878],[36.0178,52.97704],[36.01083,52.97538],[36.01235,52.97386],[36.01115,52.97209],[36.01195,52.9717],[36.01011,52.97098],[36.01233,52.97011],[36.01335,52.97146],[36.0157,52.97222],[36.01839,52.96988],[36.01863,52.96822],[36.01987,52.96711],[36.01903,52.96563],[36.02148,52.96489],[36.02196,52.96267],[36.02476,52.96196],[36.02831,52.96208],[36.03132,52.96023],[36.03143,52.95869],[36.03201,52.95856],[36.0312,52.95847],[36.02774,52.9513],[36.02554,52.95041],[36.02557,52.95342],[36.0231,52.95346],[36.02315,52.95905],[36.01803,52.96072],[36.0148,52.96059],[36.01317,52.95356],[36.00642,52.95359],[36.00575,52.95154],[36.00578,52.94836],[36.00408,52.94815],[35.99995,52.94607],[35.99501,52.94547],[35.99581,52.94352],[35.99288,52.94215],[35.99305,52.94174],[35.98275,52.93909],[35.98349,52.93605],[35.97402,52.93377]]]}}]}