{"type":"FeatureCollection","features":[{"type":"Feature","properties":{"name":"Рязань","osm":"relation/1782722","licence":"Data © OpenStreetMap contributors, ODbL 1.0. http://osm.org/copyright"},"geometry":{"type":"Polygon","coordinates":[[[39.53667,54.6385],[39.54494,54.63416],[39.55192,54.6349],[39.56683,54.63364],[39.56954,54.63144],[39.57607,54.63044],[39.58993,54.63865],[39.59775,54.64055],[39.59927,54.64158],[39.59794,54.64322],[39.61333,54.64275],[39.61747,54.63942],[39.61639,54.63612],[39.63302,54.63313],[39.63411,54.61875],[39.63648,54.61545],[39.63318,54.6155],[39.61856,54.6089],[39.62407,54.60496],[39.62577,54.60089],[39.62417,54.6],[39.63167,54.59469],[39.62961,54.59438],[39.63175,54.59259],[39.63139,54.59135],[39.63549,54.59004],[39.63682,54.59155],[39.65581,54.57464],[39.66835,54.57371],[39.66888,54.57242],[39.6662,54.5703],[39.66665,54.56901],[39.66039,54.56899],[39.66833,54.56697],[39.6628,54.56638],[39.66843,54.56517],[39.67068,54.56092],[39.66698,54.55746],[39.65505,54.55807],[39.65923,54.5562],[39.67022,54.55703],[39.67309,54.55971],[39.68346,54.55828],[39.68471,54.55998],[39.6817,54.56021],[39.68137,54.56372],[39.67941,54.561],[39.6723,54.56175],[39.66919,54.56974],[39.67137,54.57107],[39.67547,54.56906],[39.67677,54.57059],[39.68473,54.57206],[39.70926,54.55917],[39.73007,54.54371],[39.73425,54.53886],[39.73645,54.53062],[39.74048,54.53109],[39.74715,54.52993],[39.74789,54.52866],[39.75003,54.52968],[39.74725,54.53282],[39.74534,54.5386],[39.74609,54.54039],[39.73712,54.54099],[39.73633,54.5427],[39.74845,54.54187],[39.74918,54.54384],[39.75235,54.54351],[39.75283,54.54471],[39.7615,54.54368],[39.76689,54.55358],[39.76989,54.5526],[39.76831,54.54839],[39.76559,54.54625],[39.76431,54.5409],[39.76029,54.54001],[39.7507,54.53409],[39.75004,54.53333],[39.75259,54.53049],[39.75671,54.52912],[39.76127,54.53231],[39.76604,54.53031],[39.78088,54.52861],[39.79075,54.52862],[39.79401,54.52995],[39.80058,54.53505],[39.80117,54.53708],[39.80466,54.53784],[39.8034,54.53957],[39.80498,54.54197],[39.80264,54.54455],[39.81064,54.54568],[39.81105,54.54719],[39.81291,54.54745],[39.81424,54.55239],[39.80928,54.55727],[39.81158,54.56157],[39.81667,54.56304],[39.82765,54.55389],[39.83496,54.5557],[39.83714,54.56816],[39.83679,54.57341],[39.83974,54.57208],[39.84796,54.57878],[39.8478,54.58153],[39.85124,54.58361],[39.85286,54.58853],[39.84963,54.59235],[39.85327,54.60302],[39.85093,54.60752],[39.84768,54.60794],[39.84644,54.60622],[39.8446,54.60727],[39.8462,54.60933],[39.84295,54.61083],[39.83005,54.61138],[39.83007,54.61432],[39.81945,54.61671],[39.81791,54.61494],[39.79731,54.61868],[39.79761,54.62317],[39.79611,54.62494],[39.78356,54.63238],[39.78131,54.63443],[39.78166,54.63689],[39.79228,54.64708],[39.82066,54.65917],[39.8468,54.70917],[39.84846,54.71875],[39.84153,54.73695],[39.83858,54.75324],[39.83998,54.75573],[39.84359,54.7541],[39.86777,54.75882],[39.86992,54.76306],[39.86082,54.7721],[39.86268,54.77318],[39.86809,54.77137],[39.86583,54.77857],[39.86791,54.78043],[39.87131,54.78029],[39.87378,54.78175],[39.87231,54.78581],[39.88752,54.78579],[39.88811,54.78722],[39.89456,54.78576],[39.89451,54.79201],[39.89617,54.79152],[39.89958,54.79586],[39.86534,54.80585],[39.85873,54.80424],[39.8532,54.80677],[39.85159,54.8057],[39.85059,54.80632],[39.85358,54.80753],[39.84631,54.81201],[39.83634,54.80704],[39.83765,54.80846],[39.8358,54.80929],[39.82814,54.79923],[39.82166,54.79925],[39.82522,54.79432],[39.82545,54.79133],[39.82223,54.78723],[39.7965,54.78202],[39.79234,54.78165],[39.78548,54.78341],[39.77741,54.7807],[39.77125,54.77509],[39.78392,54.77184],[39.78522,54.77045],[39.78848,54.7698],[39.79036,54.77093],[39.7929,54.76973],[39.78966,54.76853],[39.78956,54.76668],[39.79161,54.76675],[39.79089,54.76614],[39.79576,54.76402],[39.79823,54.76469],[39.79684,54.76288],[39.80113,54.76148],[39.79928,54.75274],[39.80395,54.75226],[39.80395,54.75092],[39.81006,54.74895],[39.81791,54.74835],[39.81701,54.74545],[39.82077,54.74518],[39.82899,54.74813],[39.83103,54.75117],[39.82626,54.75207],[39.82876,54.75246],[39.8293,54.75408],[39.83391,54.75251],[39.83393,54.75447],[39.83789,54.75322],[39.84114,54.73596],[39.84715,54.72181],[39.84738,54.71248],[39.82312,54.66473],[39.82,54.65937],[39.81686,54.65732],[39.80557,54.65366],[39.79604,54.66308],[39.79172,54.66392],[39.78456,54.66165],[39.78204,54.65737],[39.77691,54.65298],[39.77197,54.65218],[39.76984,54.65531],[39.75409,54.65742],[39.75398,54.65488],[39.7463,54.65448],[39.74302,54.65585],[39.74378,54.65717],[39.76473,54.66321],[39.76882,54.66635],[39.77146,54.67434],[39.7689,54.67845],[39.76502,54.68023],[39.75386,54.68225],[39.73674,54.67512],[39.71154,54.67228],[39.70345,54.67447],[39.70452,54.67802],[39.70131,54.67792],[39.70163,54.67957],[39.69848,54.67802],[39.69733,54.6815],[39.67664,54.68617],[39.67553,54.68907],[39.67909,54.69175],[39.67003,54.6982],[39.66203,54.69582],[39.65822,54.69599],[39.6522,54.69676],[39.65534,54.69939],[39.65323,54.69974],[39.62239,54.69939],[39.61502,54.70152],[39.60754,54.69595],[39.60498,54.69711],[39.60145,54.69579],[39.58744,54.70213],[39.57997,54.69666],[39.58517,54.6926],[39.58944,54.69187],[39.59245,54.68977],[39.59598,54.68561],[39.59322,54.68304],[39.60392,54.67677],[39.60875,54.67217],[39.60212,54.66566],[39.59748,54.66722],[39.59403,54.6625],[39.58161,54.66672],[39.57825,54.66272],[39.56717,54.66429],[39.56301,54.65857],[39.56658,54.65574],[39.56495,54.65497],[39.56864,54.65276],[39.56508,54.64915],[39.55639,54.64552],[39.53879,54.64212],[39.53667,54.6385]]]}}]}