{"type":"FeatureCollection","features":[{"type":"Feature","properties":{"name":"Астрахань","osm":"relation/1853866","licence":"Data © OpenStreetMap contributors, ODbL 1.0. http://osm.org/copyright"},"geometry":{"type":"Polygon","coordinates":[[[47.87112,46.26966],[47.87147,46.26607],[47.89905,46.2664],[47.92034,46.2618],[47.92173,46.263],[47.92791,46.25972],[47.93647,46.26542],[47.93937,46.26529],[47.94414,46.26377],[47.94732,46.26626],[47.94891,46.26898],[47.96379,46.26391],[47.97571,46.26179],[47.97957,46.265],[47.97813,46.26732],[47.97388,46.26883],[47.97606,46.27128],[47.97281,46.27243],[47.97366,46.27416],[47.98963,46.27083],[47.98976,46.27599],[47.99153,46.27797],[47.99211,46.27986],[47.991,46.28197],[47.97824,46.28523],[47.97835,46.28601],[47.98123,46.28626],[47.98534,46.28765],[47.98669,46.29033],[47.98801,46.29065],[47.99352,46.28973],[47.99578,46.28884],[47.99662,46.2875],[48.00121,46.28672],[48.00176,46.28952],[48.00426,46.28967],[48.00626,46.28845],[48.00948,46.28849],[48.0098,46.2871],[48.01855,46.28491],[48.04682,46.28567],[48.04778,46.28676],[48.04553,46.28821],[48.04423,46.29034],[48.04444,46.29204],[48.04624,46.29459],[48.04611,46.29551],[48.04242,46.29936],[48.04037,46.30316],[48.038,46.30457],[48.03904,46.30542],[48.04435,46.30698],[48.05105,46.30488],[48.0567,46.30477],[48.0658,46.30273],[48.06804,46.30382],[48.06901,46.30575],[48.07447,46.30539],[48.07372,46.30885],[48.07894,46.30932],[48.07889,46.31294],[48.07233,46.31294],[48.07141,46.31509],[48.06022,46.31078],[48.05353,46.31906],[48.0535,46.32037],[48.05666,46.32043],[48.05376,46.32181],[48.05465,46.32588],[48.06101,46.32625],[48.06368,46.32986],[48.06491,46.33055],[48.06552,46.32872],[48.06545,46.32925],[48.06606,46.32931],[48.06532,46.33069],[48.07223,46.33342],[48.07678,46.3386],[48.08527,46.34037],[48.09425,46.33949],[48.09599,46.34066],[48.0969,46.34059],[48.09781,46.34248],[48.09972,46.34131],[48.11353,46.33829],[48.11998,46.33556],[48.12465,46.33196],[48.12594,46.33223],[48.12653,46.33303],[48.12665,46.33547],[48.13288,46.34627],[48.13307,46.34746],[48.13194,46.35135],[48.13658,46.35274],[48.13676,46.35384],[48.13872,46.35383],[48.13885,46.35588],[48.14621,46.35653],[48.14683,46.35716],[48.14729,46.3583],[48.1464,46.3584],[48.14603,46.35981],[48.1473,46.36211],[48.14768,46.36493],[48.14725,46.36519],[48.1493,46.36888],[48.14909,46.36938],[48.16559,46.37284],[48.17864,46.37777],[48.17817,46.37892],[48.1758,46.37896],[48.16788,46.37768],[48.16693,46.37847],[48.15689,46.37808],[48.15606,46.37927],[48.148,46.3841],[48.14687,46.38592],[48.14659,46.38854],[48.14348,46.38902],[48.14165,46.39013],[48.14481,46.39422],[48.14531,46.39552],[48.14505,46.39805],[48.14769,46.40027],[48.15067,46.40149],[48.15462,46.40214],[48.164,46.40108],[48.16794,46.3996],[48.17495,46.39522],[48.19135,46.38681],[48.1994,46.38159],[48.20189,46.3815],[48.20148,46.38517],[48.18334,46.40345],[48.18203,46.40203],[48.17959,46.40175],[48.176,46.40325],[48.17002,46.40342],[48.16767,46.40502],[48.16737,46.40697],[48.16579,46.4093],[48.16372,46.41178],[48.16126,46.4132],[48.15965,46.41577],[48.1611,46.42292],[48.1583,46.42978],[48.14809,46.43581],[48.14631,46.43669],[48.14051,46.43711],[48.13095,46.43929],[48.11941,46.44046],[48.11016,46.44461],[48.10329,46.44522],[48.09893,46.44657],[48.09079,46.44718],[48.08265,46.44897],[48.07399,46.45205],[48.07092,46.45254],[48.06954,46.45243],[48.07103,46.43775],[48.06764,46.43745],[48.06761,46.43661],[48.06569,46.43657],[48.06572,46.43602],[48.0575,46.43578],[48.05705,46.43157],[48.05701,46.42859],[48.05795,46.42616],[48.06321,46.42065],[48.06387,46.41392],[48.06342,46.41193],[48.06893,46.40598],[48.06549,46.38947],[48.06113,46.38976],[48.04906,46.38911],[48.04414,46.38981],[48.03723,46.39259],[48.03199,46.39554],[48.01344,46.41084],[48.00468,46.41736],[47.99693,46.42184],[47.98928,46.42799],[47.98338,46.43503],[47.98,46.44414],[47.97801,46.45841],[47.97934,46.46965],[47.96921,46.46968],[47.96118,46.46897],[47.9605,46.47085],[47.94648,46.459],[47.94466,46.45642],[47.94404,46.45391],[47.94449,46.45371],[47.94592,46.44003],[47.94858,46.42902],[47.95593,46.4194],[47.95862,46.41166],[47.96009,46.41167],[47.96466,46.39957],[47.97928,46.40124],[47.97907,46.4028],[47.98032,46.40347],[47.98959,46.40466],[47.9891,46.40529],[47.98666,46.40484],[47.98555,46.40764],[47.98862,46.4084],[47.98847,46.40887],[47.99792,46.39803],[47.99912,46.39572],[48.00254,46.39623],[48.00348,46.3976],[48.00765,46.39798],[48.00923,46.39464],[48.00523,46.39365],[48.00284,46.39371],[48.00459,46.39242],[48.00559,46.38926],[48.01671,46.39444],[48.01737,46.39243],[48.01689,46.3892],[48.02008,46.38818],[48.0207,46.38658],[48.0202,46.38521],[48.01907,46.38513],[48.01192,46.37565],[48.00936,46.37596],[48.00268,46.37517],[47.99957,46.37331],[47.99199,46.37448],[47.98802,46.37431],[47.98413,46.37185],[47.98112,46.37081],[47.97708,46.37092],[47.96018,46.36681],[47.96043,46.36581],[47.96313,46.36619],[47.96313,46.36433],[47.96454,46.36383],[47.96598,46.36067],[47.96759,46.35874],[47.97017,46.35823],[47.97207,46.35659],[47.96126,46.34462],[47.96137,46.33949],[47.96403,46.33988],[47.96401,46.34078],[47.97436,46.34017],[47.97605,46.33934],[47.97658,46.3368],[47.97502,46.3363],[47.97381,46.33445],[47.97389,46.33277],[47.97544,46.33268],[47.96922,46.32726],[47.96852,46.32553],[47.96885,46.32433],[47.96453,46.31793],[47.96016,46.31957],[47.95038,46.31929],[47.95113,46.31514],[47.95178,46.31438],[47.9512,46.31435],[47.95112,46.30878],[47.95198,46.30865],[47.95197,46.30362],[47.9272,46.30057],[47.92152,46.29738],[47.92329,46.29695],[47.92361,46.29611],[47.91781,46.296],[47.91405,46.29439],[47.90541,46.29238],[47.90108,46.29012],[47.8994,46.28869],[47.89961,46.28822],[47.90278,46.28798],[47.90261,46.2872],[47.89497,46.2847],[47.89146,46.28143],[47.88792,46.27946],[47.89137,46.27965],[47.89614,46.27833],[47.89991,46.27845],[47.90183,46.27728],[47.9028,46.27586],[47.90661,46.27523],[47.90825,46.27412],[47.90425,46.27321],[47.89611,46.27272],[47.89058,46.27099],[47.88298,46.2704],[47.88138,46.27117],[47.87561,46.26895],[47.87136,46.27002],[47.87112,46.26966]]]}}]}