{"type":"FeatureCollection","features":[{"type":"Feature","properties":{"name":"Горно-Алтайск","osm":"relation/1875749","licence":"Data © OpenStreetMap contributors, ODbL 1.0. http://osm.org/copyright"},"geometry":{"type":"Polygon","coordinates":[[[85.882,51.97994],[85.88221,51.97612],[85.88217,51.97595],[85.88225,51.97517],[85.88226,51.97496],[85.88246,51.9723],[85.88258,51.97035],[85.88252,51.97],[85.88263,51.96952],[85.894,51.95314],[85.89233,51.94751],[85.89469,51.93384],[85.88869,51.91942],[85.89342,51.91825],[85.90546,51.91529],[85.90139,51.89364],[85.909,51.87993],[85.91486,51.87855],[85.95006,51.87026],[85.97952,51.89289],[85.96984,51.90012],[85.96313,51.89873],[85.95663,51.90411],[85.96766,51.91086],[85.98534,51.91372],[85.98981,51.91311],[85.99123,51.9125],[85.99162,51.91207],[86.0023,51.91559],[86.00085,51.91847],[86.01039,51.92333],[86.04356,51.91155],[86.06538,51.92595],[86.06215,51.94428],[86.04311,51.94783],[86.04068,51.94763],[86.03727,51.94912],[86.03767,51.94971],[86.03697,51.94995],[86.03682,51.95017],[86.03759,51.95029],[86.03758,51.95083],[86.03691,51.9509],[86.03626,51.95073],[86.03638,51.95101],[86.0376,51.95163],[86.03332,51.95557],[86.03284,51.95603],[86.03249,51.95638],[86.0298,51.95873],[86.02561,51.95659],[86.02217,51.95934],[86.01966,51.96555],[86.01389,51.96652],[86.01205,51.9662],[86.01201,51.96683],[86.01184,51.9669],[86.01125,51.96672],[86.01069,51.96669],[86.01049,51.96679],[86.01045,51.96692],[86.01071,51.96724],[86.01106,51.96755],[86.01052,51.96792],[86.00875,51.96813],[86.00788,51.96787],[86.00744,51.96763],[86.00679,51.96779],[86.0065,51.96836],[86.00664,51.96863],[86.00666,51.96881],[86.00594,51.96943],[86.00567,51.96942],[86.00544,51.96936],[86.0053,51.96919],[86.00538,51.96889],[86.00491,51.96871],[86.00428,51.96859],[86.00335,51.96874],[86.00302,51.96862],[86.00255,51.96889],[86.0026,51.96924],[86.00246,51.9694],[86.00201,51.96941],[86.00153,51.96944],[86.00078,51.96966],[86.00039,51.96967],[86.00024,51.96953],[86.00011,51.96934],[85.99988,51.96932],[85.9995,51.96946],[85.99942,51.96967],[85.99948,51.96977],[85.99976,51.96989],[85.99982,51.97006],[85.99961,51.97022],[85.99907,51.97035],[85.99868,51.97045],[85.99834,51.97038],[85.99821,51.97019],[85.99817,51.97002],[85.99803,51.96995],[85.99768,51.96992],[85.9974,51.97007],[85.99741,51.97027],[85.9979,51.97081],[85.99811,51.97108],[85.99802,51.97123],[85.99765,51.97122],[85.99729,51.97115],[85.99703,51.97102],[85.99637,51.97138],[85.99612,51.97143],[85.99578,51.97132],[85.9956,51.9711],[85.99537,51.97089],[85.99504,51.97083],[85.99471,51.97064],[85.99414,51.97052],[85.99395,51.97039],[85.99363,51.97036],[85.99332,51.97045],[85.99319,51.97075],[85.99306,51.97094],[85.99257,51.97105],[85.99187,51.97121],[85.99071,51.98119],[85.99984,51.98401],[86.00141,51.98763],[86.00408,51.99241],[86.00307,51.99334],[85.99744,51.99365],[85.98946,51.9925],[85.98418,51.98882],[85.96951,51.9881],[85.96185,51.98608],[85.95514,51.99253],[85.93473,51.99181],[85.94269,51.98124],[85.94177,51.98063],[85.93502,51.97616],[85.90378,51.97427],[85.90328,51.97879],[85.90288,51.97894],[85.89387,51.98159],[85.89242,51.98202],[85.882,51.97994]]]}}]}