{"type":"FeatureCollection","features":[{"type":"Feature","properties":{"name":"Калуга","osm":"relation/1926754","licence":"Data © OpenStreetMap contributors, ODbL 1.0. http://osm.org/copyright"},"geometry":{"type":"Polygon","coordinates":[[[35.98799,54.52892],[36.01226,54.52767],[36.01724,54.52226],[36.02466,54.52],[36.02082,54.52169],[36.02363,54.5238],[36.02046,54.52527],[36.02039,54.52748],[36.03571,54.52182],[36.0467,54.52386],[36.04874,54.51678],[36.06389,54.51568],[36.06741,54.51174],[36.06996,54.51327],[36.07455,54.51226],[36.07582,54.51607],[36.08532,54.51996],[36.08477,54.51285],[36.09916,54.50851],[36.10316,54.51515],[36.1129,54.52213],[36.13784,54.53111],[36.13712,54.52711],[36.14401,54.52695],[36.19841,54.50723],[36.19538,54.5064],[36.19763,54.50434],[36.17732,54.50446],[36.17146,54.50257],[36.17312,54.49667],[36.17742,54.49542],[36.17802,54.49183],[36.16994,54.49309],[36.17159,54.48363],[36.18814,54.48481],[36.18957,54.48063],[36.20371,54.48721],[36.20578,54.48653],[36.20681,54.48399],[36.19864,54.47874],[36.21634,54.47551],[36.21508,54.47317],[36.22089,54.47111],[36.22122,54.4684],[36.21472,54.46799],[36.21148,54.46466],[36.21948,54.4619],[36.22124,54.46368],[36.22375,54.46158],[36.23151,54.46206],[36.23544,54.45851],[36.23624,54.46179],[36.24285,54.46242],[36.25031,54.4599],[36.25702,54.46309],[36.26412,54.4627],[36.27114,54.46823],[36.27624,54.46635],[36.28106,54.46879],[36.29328,54.46582],[36.3045,54.47112],[36.30876,54.47599],[36.31614,54.47714],[36.331,54.47485],[36.3497,54.46458],[36.35545,54.46787],[36.35996,54.46737],[36.35548,54.4697],[36.34981,54.46686],[36.3411,54.47032],[36.34245,54.47552],[36.33765,54.47703],[36.3402,54.47855],[36.34003,54.48108],[36.33232,54.48749],[36.33681,54.49036],[36.32784,54.4902],[36.32011,54.49233],[36.32005,54.49481],[36.3063,54.49501],[36.30681,54.49183],[36.30316,54.49382],[36.30559,54.4893],[36.30001,54.48936],[36.30142,54.48686],[36.29857,54.48763],[36.29859,54.48345],[36.29707,54.48728],[36.2949,54.48754],[36.2878,54.4803],[36.28683,54.47606],[36.28649,54.4799],[36.28945,54.48521],[36.28546,54.48484],[36.29209,54.48699],[36.29406,54.49132],[36.29055,54.49249],[36.28256,54.48885],[36.28407,54.49188],[36.2825,54.49236],[36.26853,54.49145],[36.26565,54.4891],[36.26682,54.48744],[36.26424,54.48834],[36.2616,54.4837],[36.2607,54.48531],[36.25739,54.48345],[36.26345,54.49065],[36.26022,54.49138],[36.25839,54.48876],[36.25887,54.49178],[36.2557,54.49252],[36.25294,54.48849],[36.25342,54.49126],[36.25057,54.49097],[36.25128,54.49263],[36.24664,54.49372],[36.24651,54.49549],[36.26943,54.49263],[36.31346,54.49541],[36.34104,54.49283],[36.33726,54.49602],[36.33999,54.50151],[36.34299,54.50208],[36.34088,54.50349],[36.35001,54.50904],[36.35986,54.50823],[36.36034,54.51048],[36.3689,54.511],[36.36884,54.50952],[36.37626,54.51262],[36.3799,54.50941],[36.38018,54.51219],[36.38398,54.51255],[36.38471,54.51747],[36.37691,54.51853],[36.37934,54.52406],[36.38401,54.52905],[36.39787,54.53209],[36.39111,54.53523],[36.38287,54.53183],[36.38267,54.53462],[36.39184,54.53643],[36.37528,54.54922],[36.37466,54.55592],[36.37706,54.56006],[36.3842,54.56051],[36.37973,54.56665],[36.36574,54.56045],[36.3641,54.5657],[36.36714,54.57277],[36.36623,54.57469],[36.37326,54.57945],[36.37492,54.57761],[36.37403,54.58217],[36.37783,54.58057],[36.37781,54.57864],[36.38265,54.57943],[36.38557,54.56837],[36.39155,54.55881],[36.40431,54.56315],[36.3999,54.56623],[36.40071,54.56977],[36.40274,54.57009],[36.3995,54.56977],[36.40094,54.57294],[36.39697,54.57799],[36.38927,54.58131],[36.38505,54.58049],[36.3871,54.58416],[36.38382,54.58589],[36.37731,54.58557],[36.37242,54.5817],[36.37168,54.58381],[36.36717,54.58494],[36.37047,54.58252],[36.36678,54.58239],[36.3664,54.58441],[36.36383,54.58452],[36.36424,54.58212],[36.36697,54.58195],[36.36616,54.58072],[36.35922,54.58509],[36.34829,54.58498],[36.34976,54.58713],[36.34298,54.58759],[36.33485,54.58525],[36.34251,54.58092],[36.33852,54.57631],[36.33069,54.5739],[36.329,54.5703],[36.32173,54.57101],[36.31313,54.57492],[36.30825,54.57248],[36.3041,54.57336],[36.28894,54.57992],[36.29402,54.58388],[36.29934,54.58206],[36.30569,54.5839],[36.3099,54.58067],[36.3117,54.57451],[36.321,54.58122],[36.31915,54.5834],[36.31658,54.58205],[36.31531,54.58422],[36.31161,54.58429],[36.31047,54.58762],[36.29845,54.58795],[36.29847,54.59133],[36.3026,54.594],[36.29885,54.59498],[36.29044,54.60691],[36.27999,54.61438],[36.26915,54.60638],[36.27492,54.60535],[36.27785,54.60704],[36.27814,54.6048],[36.28022,54.60659],[36.28449,54.60371],[36.28763,54.60582],[36.28442,54.59812],[36.2772,54.60021],[36.27692,54.60332],[36.27421,54.60288],[36.27397,54.60469],[36.26789,54.60674],[36.2729,54.61101],[36.26914,54.61295],[36.26431,54.60943],[36.26227,54.61019],[36.26561,54.61247],[36.26255,54.61242],[36.26192,54.61033],[36.25742,54.61049],[36.2478,54.60648],[36.25364,54.60199],[36.24797,54.59944],[36.24126,54.60042],[36.24626,54.60228],[36.24454,54.60285],[36.24596,54.60655],[36.22764,54.60979],[36.23285,54.60069],[36.23055,54.59822],[36.23008,54.60093],[36.22817,54.60092],[36.22928,54.59793],[36.22576,54.58859],[36.23222,54.58141],[36.23402,54.57501],[36.21783,54.57433],[36.21432,54.57035],[36.20628,54.57021],[36.21056,54.56799],[36.20838,54.56682],[36.20936,54.56485],[36.19893,54.56505],[36.19991,54.56191],[36.20622,54.56043],[36.20576,54.55897],[36.15856,54.53907],[36.16106,54.53673],[36.15686,54.53869],[36.15403,54.53601],[36.15838,54.53502],[36.15525,54.53453],[36.15753,54.5295],[36.15272,54.52498],[36.15579,54.53078],[36.15322,54.53483],[36.15058,54.53446],[36.1515,54.54326],[36.14073,54.55014],[36.13031,54.54142],[36.12376,54.53897],[36.11567,54.53107],[36.10176,54.53874],[36.10062,54.53773],[36.10511,54.53521],[36.09964,54.5335],[36.09665,54.53465],[36.09414,54.53271],[36.0912,54.52923],[36.09359,54.5265],[36.09185,54.52309],[36.07578,54.51625],[36.07088,54.51586],[36.07114,54.51798],[36.06412,54.51596],[36.0496,54.51837],[36.0472,54.52444],[36.03081,54.52292],[36.02303,54.5271],[36.02878,54.5286],[36.02637,54.53646],[36.01968,54.53768],[36.00953,54.53673],[36.00539,54.53428],[36.00085,54.53661],[35.98799,54.52892]]]}}]}