{"type":"FeatureCollection","features":[{"type":"Feature","properties":{"name":"Анадырь","osm":"relation/1957550","licence":"Data © OpenStreetMap contributors, ODbL 1.0. http://osm.org/copyright"},"geometry":{"type":"Polygon","coordinates":[[[177.33135,64.72155],[177.37581,64.67953],[177.40143,64.67929],[177.41079,64.68716],[177.4168,64.68955],[177.42495,64.69147],[177.44452,64.69426],[177.45774,64.69749],[177.46091,64.69911],[177.46544,64.70068],[177.47223,64.70202],[177.47188,64.70273],[177.47229,64.70281],[177.4727,64.70212],[177.47396,64.70256],[177.47505,64.70435],[177.47598,64.70421],[177.47486,64.70231],[177.47261,64.7015],[177.47269,64.70107],[177.47257,64.70075],[177.47061,64.69944],[177.45988,64.69181],[177.45688,64.68986],[177.44845,64.68458],[177.44782,64.68414],[177.44761,64.6838],[177.448,64.68102],[177.4484,64.68064],[177.44905,64.68021],[177.47758,64.66381],[177.47813,64.66344],[177.47824,64.6632],[177.47802,64.6595],[177.47771,64.65781],[177.47752,64.65712],[177.47692,64.65604],[177.47194,64.64918],[177.46907,64.64552],[177.46606,64.64088],[177.45945,64.63315],[177.46317,64.63307],[177.47988,64.63178],[177.49409,64.63033],[177.49928,64.63042],[177.49895,64.63048],[177.49868,64.63057],[177.49813,64.63055],[177.49794,64.63064],[177.49733,64.63066],[177.49725,64.63071],[177.49743,64.63079],[177.49749,64.63093],[177.49724,64.63112],[177.49692,64.63113],[177.49648,64.63104],[177.49622,64.63086],[177.49596,64.63077],[177.49569,64.63072],[177.4954,64.63073],[177.49501,64.63082],[177.49422,64.63119],[177.49358,64.63144],[177.49329,64.63165],[177.49282,64.63183],[177.49198,64.63205],[177.49166,64.63273],[177.49151,64.63323],[177.49129,64.6334],[177.49041,64.63359],[177.48924,64.63408],[177.48752,64.63461],[177.48662,64.63536],[177.48621,64.63541],[177.48457,64.63646],[177.48443,64.63672],[177.48426,64.63686],[177.48395,64.63697],[177.48376,64.63714],[177.48363,64.63738],[177.48305,64.63909],[177.483,64.63958],[177.48267,64.64009],[177.48176,64.64053],[177.48141,64.64296],[177.48093,64.64444],[177.48082,64.64579],[177.48088,64.64715],[177.48191,64.65262],[177.48359,64.65744],[177.48577,64.66314],[177.48906,64.66928],[177.49626,64.68048],[177.4991,64.68459],[177.50118,64.68731],[177.50457,64.69149],[177.51674,64.70607],[177.51905,64.70917],[177.51925,64.70953],[177.51979,64.71033],[177.52124,64.7123],[177.52159,64.71281],[177.52313,64.71475],[177.52357,64.71527],[177.52499,64.71715],[177.52667,64.71911],[177.52737,64.71989],[177.52895,64.72154],[177.52933,64.72199],[177.53002,64.72267],[177.53089,64.72373],[177.53333,64.72633],[177.53382,64.72683],[177.53511,64.72797],[177.53496,64.72832],[177.53501,64.72835],[177.53492,64.72847],[177.53495,64.72854],[177.53545,64.72884],[177.53543,64.7289],[177.53561,64.72903],[177.53594,64.7292],[177.53639,64.72932],[177.53683,64.72938],[177.53732,64.72935],[177.53722,64.72901],[177.53734,64.72898],[177.53747,64.72906],[177.53774,64.72972],[177.53786,64.72973],[177.53835,64.7313],[177.53826,64.73135],[177.53848,64.73208],[177.53893,64.7322],[177.53919,64.73288],[177.53817,64.73308],[177.53781,64.73397],[177.53778,64.73442],[177.53801,64.7346],[177.53825,64.73473],[177.53824,64.73479],[177.5381,64.73478],[177.53747,64.73464],[177.53729,64.73484],[177.53699,64.73498],[177.53665,64.73507],[177.53592,64.7354],[177.53545,64.73557],[177.53324,64.73605],[177.53313,64.73616],[177.53324,64.73617],[177.53329,64.73639],[177.53323,64.73643],[177.53225,64.73649],[177.53211,64.73646],[177.53203,64.73621],[177.53175,64.73606],[177.53174,64.73596],[177.53187,64.73595],[177.53182,64.7358],[177.53165,64.73574],[177.53135,64.7357],[177.5308,64.73569],[177.52978,64.73582],[177.52949,64.73576],[177.52741,64.73625],[177.52652,64.73613],[177.52604,64.73581],[177.52581,64.73574],[177.52559,64.7356],[177.5252,64.73556],[177.5248,64.73563],[177.52457,64.73569],[177.52417,64.73587],[177.52407,64.73606],[177.52415,64.73627],[177.52399,64.73651],[177.5222,64.73707],[177.52019,64.73727],[177.51866,64.73727],[177.51708,64.73747],[177.51631,64.73767],[177.51562,64.73797],[177.51446,64.73899],[177.51318,64.73924],[177.51215,64.7393],[177.51177,64.73944],[177.51177,64.73961],[177.51166,64.73956],[177.51145,64.7396],[177.51218,64.74044],[177.50748,64.74137],[177.50723,64.74113],[177.50697,64.74116],[177.50595,64.74021],[177.50471,64.74045],[177.50384,64.74039],[177.5024,64.74053],[177.50116,64.74071],[177.50029,64.74077],[177.49943,64.74093],[177.4981,64.74107],[177.49758,64.74123],[177.497,64.74129],[177.49539,64.74133],[177.4953,64.74146],[177.49416,64.74142],[177.48964,64.74137],[177.48674,64.74121],[177.48379,64.74124],[177.48125,64.74113],[177.47878,64.74089],[177.46103,64.73937],[177.45374,64.73906],[177.44715,64.73901],[177.44678,64.73906],[177.44665,64.73902],[177.44657,64.73894],[177.44627,64.73879],[177.44501,64.73862],[177.44099,64.73872],[177.43848,64.73887],[177.43528,64.7392],[177.43437,64.73906],[177.43342,64.73899],[177.43061,64.73914],[177.42774,64.73975],[177.42687,64.73984],[177.42584,64.73983],[177.42523,64.73994],[177.42482,64.73992],[177.42328,64.74014],[177.42263,64.74039],[177.42264,64.74056],[177.42226,64.74073],[177.42226,64.74094],[177.41943,64.74137],[177.41944,64.74155],[177.41807,64.74173],[177.41791,64.74165],[177.41206,64.74245],[177.40027,64.74491],[177.3977,64.74563],[177.39521,64.74617],[177.39194,64.74702],[177.39069,64.74725],[177.38985,64.74729],[177.38792,64.7469],[177.38557,64.74711],[177.3831,64.7475],[177.36656,64.75076],[177.36289,64.75109],[177.35918,64.75132],[177.35605,64.75146],[177.35496,64.75123],[177.35396,64.75085],[177.35223,64.75074],[177.35012,64.75068],[177.34799,64.75025],[177.34317,64.74942],[177.34272,64.74851],[177.34252,64.74823],[177.34144,64.7478],[177.34046,64.74753],[177.33991,64.74729],[177.33971,64.74693],[177.33924,64.74631],[177.33878,64.74595],[177.33811,64.74567],[177.33804,64.74545],[177.33853,64.74494],[177.33852,64.74466],[177.33832,64.74435],[177.3376,64.74382],[177.33631,64.74311],[177.33572,64.74283],[177.33391,64.7421],[177.33151,64.74127],[177.33135,64.72155]]]}}]}