{"type":"FeatureCollection","features":[{"type":"Feature","properties":{"name":"Улан-Удэ","osm":"relation/1979944","licence":"Data © OpenStreetMap contributors, ODbL 1.0. http://osm.org/copyright"},"geometry":{"type":"Polygon","coordinates":[[[107.40837,51.80546],[107.40867,51.80382],[107.41099,51.80321],[107.41695,51.80375],[107.41765,51.8028],[107.42033,51.80355],[107.42455,51.80295],[107.43237,51.79722],[107.43379,51.79475],[107.44165,51.79566],[107.44271,51.79204],[107.44094,51.78722],[107.44425,51.78657],[107.44909,51.78614],[107.44937,51.78722],[107.45143,51.78838],[107.45501,51.78847],[107.46283,51.79222],[107.46545,51.79888],[107.47541,51.79738],[107.48822,51.7987],[107.48411,51.79399],[107.47855,51.79003],[107.48181,51.78896],[107.48705,51.78928],[107.48971,51.79137],[107.49872,51.79198],[107.50372,51.79008],[107.50572,51.7911],[107.508,51.79419],[107.50772,51.79779],[107.51927,51.79808],[107.50653,51.80409],[107.50695,51.80531],[107.50494,51.8066],[107.51044,51.81371],[107.51747,51.81175],[107.51908,51.81898],[107.52257,51.8226],[107.52047,51.82394],[107.5175,51.8203],[107.50633,51.82267],[107.51246,51.83383],[107.51376,51.8343],[107.51597,51.83343],[107.52229,51.8371],[107.52622,51.83646],[107.53429,51.83708],[107.53584,51.83636],[107.53585,51.83553],[107.53392,51.83422],[107.53381,51.83292],[107.53009,51.83204],[107.52863,51.83],[107.52934,51.82873],[107.53278,51.82778],[107.53454,51.82606],[107.54009,51.82566],[107.54083,51.82258],[107.53966,51.82116],[107.54155,51.81951],[107.54446,51.81981],[107.54819,51.82192],[107.55051,51.82192],[107.55141,51.81979],[107.55489,51.81853],[107.55152,51.81517],[107.55508,51.81262],[107.55503,51.81158],[107.55232,51.80751],[107.55247,51.80455],[107.55031,51.79934],[107.54154,51.79622],[107.54065,51.79524],[107.54186,51.79425],[107.53427,51.79168],[107.52066,51.77789],[107.5204,51.77172],[107.52854,51.76041],[107.54015,51.76013],[107.54444,51.76141],[107.54923,51.75948],[107.55151,51.76066],[107.55827,51.76083],[107.55489,51.75569],[107.55622,51.75625],[107.55961,51.7553],[107.55831,51.75394],[107.56177,51.75218],[107.5666,51.75739],[107.59564,51.75719],[107.60887,51.75933],[107.67649,51.75647],[107.67318,51.75356],[107.67214,51.74577],[107.6848,51.74239],[107.6858,51.72938],[107.68445,51.71949],[107.6859,51.71074],[107.72589,51.71024],[107.7252,51.73498],[107.72631,51.76923],[107.80419,51.77137],[107.80374,51.77406],[107.81172,51.77605],[107.81279,51.77873],[107.79934,51.7832],[107.79984,51.82213],[107.80372,51.81977],[107.81772,51.81773],[107.8226,51.81901],[107.8233,51.82365],[107.8228,51.84134],[107.81458,51.84581],[107.81122,51.84996],[107.8381,51.85348],[107.88208,51.87108],[107.88737,51.86721],[107.88938,51.8642],[107.88278,51.86302],[107.87701,51.86028],[107.86693,51.85829],[107.86648,51.84975],[107.91922,51.84809],[107.92573,51.85357],[107.92546,51.85721],[107.91514,51.86416],[107.90219,51.86132],[107.89408,51.86422],[107.8907,51.8642],[107.88302,51.87147],[107.90335,51.87887],[107.9242,51.88214],[107.92672,51.87616],[107.92567,51.87005],[107.93251,51.86405],[107.93967,51.86452],[107.95287,51.8593],[107.95841,51.86527],[107.95701,51.87354],[107.9554,51.87464],[107.93072,51.87445],[107.92774,51.86904],[107.92609,51.87053],[107.92695,51.87617],[107.92443,51.88252],[107.90472,51.87973],[107.8959,51.87696],[107.83728,51.85406],[107.82161,51.85162],[107.81114,51.85132],[107.80246,51.84898],[107.79955,51.85198],[107.79511,51.84971],[107.78697,51.84909],[107.78304,51.85236],[107.77875,51.85278],[107.76721,51.85136],[107.76654,51.85502],[107.76019,51.86694],[107.75998,51.87006],[107.7692,51.8692],[107.76966,51.87084],[107.77334,51.87279],[107.77411,51.87734],[107.7565,51.87681],[107.75508,51.88019],[107.75171,51.88298],[107.75192,51.884],[107.73295,51.88153],[107.73234,51.88929],[107.69255,51.88928],[107.68967,51.91807],[107.64231,51.91769],[107.64154,51.89214],[107.62095,51.89022],[107.59626,51.89041],[107.59516,51.90156],[107.59644,51.93773],[107.51681,51.93658],[107.52085,51.97445],[107.50539,52.00295],[107.49837,52.00757],[107.49778,52.00897],[107.50909,52.01815],[107.50804,52.0203],[107.50967,52.02292],[107.50935,52.02766],[107.50931,52.0237],[107.50686,52.02117],[107.50627,52.02159],[107.49088,52.01311],[107.48749,52.01003],[107.48542,52.00342],[107.48523,51.99953],[107.48897,51.9943],[107.49266,51.99153],[107.49294,51.98926],[107.49492,51.9862],[107.49609,51.9786],[107.49839,51.97245],[107.49596,51.96808],[107.49628,51.96557],[107.49783,51.96412],[107.49891,51.95961],[107.50076,51.9582],[107.50466,51.94792],[107.50417,51.94614],[107.50142,51.94417],[107.50098,51.94255],[107.50464,51.93452],[107.50422,51.92954],[107.50246,51.92734],[107.49916,51.91846],[107.49423,51.9152],[107.49239,51.91185],[107.49206,51.90927],[107.49359,51.90439],[107.49584,51.90291],[107.49815,51.90266],[107.50103,51.8991],[107.51186,51.89359],[107.51444,51.88658],[107.52323,51.87982],[107.52095,51.87896],[107.52461,51.8697],[107.52505,51.86639],[107.52971,51.8613],[107.52588,51.85945],[107.51685,51.8609],[107.51536,51.85713],[107.51133,51.85415],[107.50678,51.8517],[107.5063,51.85215],[107.49218,51.84229],[107.48375,51.83919],[107.48286,51.83645],[107.47858,51.83696],[107.47351,51.83508],[107.4695,51.83531],[107.46604,51.83694],[107.46105,51.83629],[107.46117,51.83216],[107.46807,51.82956],[107.46896,51.82837],[107.46857,51.82756],[107.48014,51.82343],[107.48159,51.82207],[107.47674,51.81842],[107.47067,51.81881],[107.45815,51.81366],[107.4436,51.81747],[107.44347,51.81499],[107.43537,51.82005],[107.43088,51.82021],[107.4431,51.81189],[107.42422,51.80928],[107.41696,51.80763],[107.41711,51.80706],[107.41261,51.80561],[107.40837,51.80546]]]}}]}