{"type":"FeatureCollection","features":[{"type":"Feature","properties":{"name":"Владимир","osm":"relation/1991003","licence":"Data © OpenStreetMap contributors, ODbL 1.0. http://osm.org/copyright"},"geometry":{"type":"Polygon","coordinates":[[[40.16496,56.12132],[40.16739,56.11896],[40.17104,56.12011],[40.17663,56.1141],[40.1835,56.11379],[40.18177,56.11211],[40.18664,56.11163],[40.18545,56.10937],[40.19281,56.11335],[40.19766,56.11344],[40.20486,56.1105],[40.20621,56.10193],[40.19524,56.09988],[40.19014,56.10382],[40.18384,56.10192],[40.18681,56.099],[40.19358,56.10089],[40.19495,56.09979],[40.18786,56.09725],[40.19009,56.091],[40.18199,56.08872],[40.18479,56.0852],[40.19197,56.08753],[40.19672,56.08621],[40.19575,56.08537],[40.19843,56.08443],[40.20599,56.0848],[40.20715,56.08745],[40.20483,56.08848],[40.20542,56.0894],[40.21006,56.08939],[40.21516,56.09281],[40.21558,56.09718],[40.21822,56.09663],[40.22038,56.09868],[40.22249,56.09823],[40.22626,56.09283],[40.22568,56.09108],[40.21383,56.08718],[40.21456,56.08556],[40.2105,56.08436],[40.21611,56.07738],[40.21413,56.07638],[40.21832,56.07433],[40.2214,56.07515],[40.2351,56.07318],[40.2276,56.07515],[40.23544,56.07858],[40.23522,56.07973],[40.23943,56.08364],[40.23388,56.08537],[40.24012,56.08788],[40.25385,56.0902],[40.25429,56.08882],[40.26868,56.09019],[40.2857,56.09397],[40.31141,56.09636],[40.31148,56.09005],[40.30508,56.08827],[40.30519,56.08721],[40.3227,56.0809],[40.334,56.08838],[40.34557,56.08952],[40.34618,56.08827],[40.34382,56.08771],[40.34446,56.08708],[40.35384,56.08896],[40.3528,56.05255],[40.36326,56.05208],[40.37187,56.0551],[40.36947,56.05705],[40.3709,56.05944],[40.36876,56.06011],[40.37186,56.07532],[40.37011,56.08628],[40.37262,56.09419],[40.37702,56.10036],[40.37856,56.09982],[40.38022,56.10213],[40.38169,56.10703],[40.38019,56.10785],[40.38612,56.11169],[40.38937,56.112],[40.38797,56.11288],[40.39168,56.11489],[40.39397,56.11387],[40.39436,56.11229],[40.40187,56.11409],[40.40355,56.11516],[40.40243,56.11581],[40.40481,56.11658],[40.41236,56.11695],[40.41512,56.1151],[40.41859,56.11648],[40.42734,56.11152],[40.42343,56.11116],[40.42293,56.10827],[40.42471,56.1082],[40.42595,56.10596],[40.43315,56.10588],[40.43547,56.10417],[40.43454,56.10214],[40.43148,56.10133],[40.43686,56.09287],[40.44745,56.09611],[40.44597,56.09736],[40.46496,56.10239],[40.46305,56.10449],[40.46647,56.10857],[40.46269,56.10969],[40.45966,56.11193],[40.46034,56.1128],[40.456,56.1153],[40.44961,56.11388],[40.44738,56.11467],[40.45291,56.11974],[40.45696,56.121],[40.45599,56.12514],[40.45328,56.12418],[40.45461,56.12299],[40.44743,56.11549],[40.44109,56.11319],[40.42836,56.11282],[40.4302,56.11189],[40.42899,56.11063],[40.41872,56.11679],[40.42009,56.11695],[40.41829,56.11806],[40.42316,56.11873],[40.42497,56.12092],[40.42181,56.12361],[40.42933,56.12782],[40.42672,56.13037],[40.44125,56.13329],[40.45123,56.13014],[40.45721,56.13486],[40.45986,56.13534],[40.46535,56.13404],[40.46893,56.13136],[40.47192,56.13189],[40.4735,56.13615],[40.47999,56.14135],[40.47315,56.15012],[40.4697,56.15232],[40.46521,56.15124],[40.50131,56.16338],[40.51176,56.1707],[40.5178,56.17765],[40.51538,56.18036],[40.50776,56.18155],[40.50433,56.18462],[40.4958,56.17924],[40.48812,56.17767],[40.48076,56.17756],[40.48377,56.17984],[40.48567,56.17955],[40.48545,56.18222],[40.45284,56.18402],[40.4303,56.18289],[40.43028,56.18674],[40.4244,56.19024],[40.42402,56.19188],[40.41941,56.19198],[40.41569,56.19107],[40.41424,56.1886],[40.4176,56.18829],[40.41891,56.18898],[40.41835,56.19019],[40.42182,56.19018],[40.4223,56.18568],[40.42543,56.18701],[40.4269,56.18579],[40.42405,56.18445],[40.42281,56.18064],[40.41861,56.17933],[40.41971,56.17541],[40.41688,56.17371],[40.4178,56.17233],[40.41574,56.17249],[40.41364,56.1783],[40.41183,56.17804],[40.41141,56.18109],[40.40512,56.18192],[40.37871,56.17847],[40.37509,56.17639],[40.37061,56.16846],[40.36439,56.16779],[40.33778,56.17012],[40.34532,56.16636],[40.33962,56.16439],[40.34407,56.16095],[40.34325,56.15716],[40.34836,56.15398],[40.34406,56.15163],[40.33941,56.1512],[40.33436,56.14767],[40.32319,56.14582],[40.31981,56.14668],[40.3191,56.15129],[40.31887,56.14782],[40.31381,56.14137],[40.30813,56.14022],[40.30827,56.13869],[40.29844,56.13954],[40.29614,56.13521],[40.29251,56.13507],[40.28682,56.13165],[40.27929,56.13092],[40.27941,56.12992],[40.2857,56.12831],[40.28575,56.12729],[40.28004,56.1266],[40.2762,56.12451],[40.27444,56.1222],[40.27531,56.11967],[40.26422,56.1198],[40.26498,56.12891],[40.25772,56.12788],[40.25058,56.12415],[40.24678,56.13057],[40.23985,56.13535],[40.23548,56.13455],[40.23612,56.13226],[40.23249,56.13038],[40.23403,56.12993],[40.23979,56.12114],[40.22959,56.1148],[40.22094,56.11583],[40.21378,56.11831],[40.2138,56.12065],[40.21216,56.121],[40.20769,56.11943],[40.20453,56.11595],[40.20525,56.111],[40.19868,56.11373],[40.19008,56.11381],[40.18844,56.11581],[40.18119,56.11669],[40.18228,56.11728],[40.1791,56.11834],[40.17335,56.12419],[40.16936,56.12555],[40.16809,56.12868],[40.16655,56.12847],[40.16502,56.12537],[40.16894,56.12549],[40.17053,56.12334],[40.16496,56.12132]]]}}]}