{"type":"FeatureCollection","features":[{"type":"Feature","properties":{"name":"Биробиджан","osm":"relation/2048099","licence":"Data © OpenStreetMap contributors, ODbL 1.0. http://osm.org/copyright"},"geometry":{"type":"Polygon","coordinates":[[[132.77821,48.73663],[132.78635,48.72978],[132.78952,48.73016],[132.79141,48.72928],[132.7948,48.73001],[132.79695,48.72977],[132.79683,48.73029],[132.79826,48.73063],[132.80031,48.73027],[132.80441,48.73079],[132.80833,48.72945],[132.80983,48.73022],[132.81408,48.72911],[132.81419,48.72976],[132.81515,48.73003],[132.81974,48.72793],[132.82089,48.72879],[132.82178,48.72807],[132.82455,48.72937],[132.8297,48.72998],[132.83283,48.72973],[132.83555,48.73104],[132.83823,48.73083],[132.83936,48.73111],[132.83974,48.73188],[132.84085,48.7314],[132.84039,48.7341],[132.84187,48.73483],[132.84195,48.73541],[132.84445,48.7349],[132.84561,48.73511],[132.84602,48.73607],[132.84973,48.73668],[132.85109,48.73603],[132.85101,48.73517],[132.85187,48.7347],[132.85375,48.73488],[132.85445,48.73704],[132.8556,48.73653],[132.85577,48.73714],[132.85729,48.73704],[132.8567,48.73743],[132.85745,48.73763],[132.8592,48.73644],[132.85886,48.7354],[132.86155,48.73471],[132.86457,48.73276],[132.86732,48.73207],[132.86847,48.73269],[132.87038,48.73175],[132.87099,48.73218],[132.87177,48.73138],[132.87684,48.72985],[132.87748,48.73099],[132.88139,48.7314],[132.88216,48.72895],[132.88522,48.72709],[132.88737,48.72763],[132.88768,48.72641],[132.88926,48.72591],[132.88951,48.72556],[132.88873,48.72539],[132.88776,48.72389],[132.88966,48.72181],[132.89082,48.72187],[132.89188,48.72119],[132.89193,48.72043],[132.89333,48.72064],[132.89366,48.71982],[132.89586,48.71968],[132.89611,48.71883],[132.89521,48.71786],[132.89533,48.71674],[132.89693,48.71617],[132.8959,48.71489],[132.89439,48.71521],[132.8942,48.71468],[132.90025,48.71171],[132.90053,48.71126],[132.8997,48.71021],[132.90171,48.70937],[132.9004,48.70856],[132.90181,48.70728],[132.90135,48.70615],[132.90209,48.70479],[132.9039,48.70542],[132.9049,48.70684],[132.90638,48.70653],[132.90614,48.70581],[132.90661,48.70565],[132.90509,48.70522],[132.9056,48.70484],[132.90627,48.70527],[132.90873,48.70497],[132.90895,48.70554],[132.90954,48.70509],[132.91478,48.70968],[132.91567,48.7088],[132.91737,48.70859],[132.91621,48.70711],[132.91637,48.70603],[132.91769,48.70331],[132.92023,48.70074],[132.92034,48.69958],[132.92505,48.69811],[132.92762,48.69886],[132.92844,48.70101],[132.92974,48.70133],[132.92954,48.70339],[132.93037,48.70755],[132.92881,48.71114],[132.93098,48.71237],[132.93028,48.71318],[132.92667,48.71447],[132.92664,48.71771],[132.92743,48.71898],[132.93037,48.71941],[132.93226,48.71861],[132.93367,48.71699],[132.93584,48.71657],[132.93796,48.71801],[132.93819,48.72105],[132.93938,48.72225],[132.93803,48.72481],[132.93663,48.72576],[132.93728,48.72685],[132.9365,48.7293],[132.93867,48.73104],[132.93509,48.73227],[132.9359,48.73324],[132.93885,48.73437],[132.93924,48.73657],[132.93588,48.7406],[132.93664,48.74204],[132.93571,48.74371],[132.93583,48.74506],[132.93339,48.74521],[132.9344,48.7467],[132.93368,48.75144],[132.93534,48.75387],[132.93615,48.75656],[132.93556,48.7583],[132.94004,48.75938],[132.9401,48.76026],[132.94479,48.76221],[132.94662,48.76512],[132.95385,48.75471],[132.95666,48.756],[132.95788,48.75444],[132.97194,48.75558],[132.99315,48.74932],[132.99389,48.7478],[132.99608,48.74722],[132.99525,48.74664],[132.99519,48.74566],[132.99622,48.74602],[132.99654,48.745],[132.99603,48.74465],[132.99688,48.74336],[133.00023,48.74365],[133.00046,48.74294],[133.00511,48.74228],[133.0081,48.74077],[133.00901,48.73886],[133.00733,48.73946],[133.00516,48.73873],[133.00619,48.73674],[133.00795,48.73688],[133.00736,48.73785],[133.00843,48.73811],[133.01065,48.73845],[133.01069,48.73775],[133.01148,48.73761],[133.01312,48.73812],[133.01437,48.73621],[133.01617,48.73708],[133.02097,48.73466],[133.0212,48.73419],[133.0206,48.7338],[133.02237,48.7335],[133.02239,48.73267],[133.02154,48.73221],[133.02143,48.7328],[133.02075,48.73215],[133.01937,48.7337],[133.01777,48.7329],[133.01811,48.73372],[133.01678,48.7331],[133.01746,48.73264],[133.0163,48.73211],[133.01708,48.73086],[133.01827,48.73099],[133.0196,48.72948],[133.02265,48.72951],[133.02147,48.72761],[133.01985,48.72841],[133.0194,48.72743],[133.021,48.72531],[133.02268,48.72679],[133.02411,48.7267],[133.02399,48.72615],[133.02702,48.72715],[133.02924,48.72693],[133.02978,48.72629],[133.03583,48.72612],[133.03633,48.72563],[133.03742,48.72617],[133.0382,48.72554],[133.03727,48.72543],[133.03956,48.72552],[133.04022,48.72438],[133.04218,48.72466],[133.04316,48.72289],[133.04267,48.72256],[133.04596,48.72253],[133.04611,48.723],[133.0481,48.7216],[133.04827,48.71989],[133.052,48.7184],[133.05286,48.7185],[133.05342,48.71948],[133.05573,48.71868],[133.05876,48.71923],[133.05853,48.71854],[133.06074,48.71865],[133.06159,48.71777],[133.06047,48.71727],[133.06201,48.71541],[133.06112,48.71511],[133.06128,48.71448],[133.06656,48.71479],[133.07352,48.71832],[133.08131,48.72693],[133.08261,48.73058],[133.07099,48.73139],[133.05039,48.73588],[133.04439,48.73844],[133.01893,48.7519],[133.04661,48.77036],[132.95302,48.81709],[132.93557,48.82213],[132.89003,48.86732],[132.87944,48.86465],[132.86565,48.85852],[132.86347,48.86092],[132.86243,48.8605],[132.86385,48.85851],[132.86149,48.85496],[132.86138,48.85372],[132.86445,48.84997],[132.85692,48.84494],[132.8542,48.84151],[132.84192,48.83658],[132.84351,48.83404],[132.83903,48.82842],[132.83672,48.82023],[132.83706,48.81924],[132.84239,48.8173],[132.8407,48.81444],[132.82379,48.80608],[132.82576,48.78173],[132.79836,48.78129],[132.79915,48.76813],[132.80941,48.76206],[132.80073,48.75535],[132.8053,48.75477],[132.80811,48.74918],[132.8106,48.74086],[132.80852,48.74031],[132.80702,48.73914],[132.80331,48.73856],[132.79112,48.74336],[132.77821,48.73663]]]}}]}