{"type":"FeatureCollection","features":[{"type":"Feature","properties":{"name":"Благовещенск","osm":"relation/2049858","licence":"Data © OpenStreetMap contributors, ODbL 1.0. http://osm.org/copyright"},"geometry":{"type":"Polygon","coordinates":[[[127.40822,50.27826],[127.4557,50.26778],[127.49894,50.25443],[127.53612,50.25046],[127.56613,50.24186],[127.57916,50.24098],[127.60153,50.23746],[127.60563,50.23471],[127.60647,50.2239],[127.60292,50.21136],[127.61389,50.20865],[127.62801,50.20766],[127.62788,50.2093],[127.6267,50.21138],[127.62737,50.21197],[127.62794,50.21393],[127.62768,50.21632],[127.62633,50.21733],[127.62524,50.22141],[127.62581,50.22255],[127.62645,50.22284],[127.63049,50.22294],[127.63063,50.22356],[127.63225,50.22461],[127.63348,50.22687],[127.63188,50.22876],[127.63216,50.22913],[127.63195,50.22973],[127.62927,50.23048],[127.62795,50.2317],[127.62749,50.23155],[127.62628,50.2324],[127.62668,50.23359],[127.62511,50.23625],[127.62436,50.23653],[127.6209,50.23976],[127.61732,50.24195],[127.6165,50.24334],[127.61471,50.24495],[127.61401,50.2469],[127.61705,50.24834],[127.61789,50.24828],[127.6182,50.26366],[127.60832,50.26546],[127.6025,50.27142],[127.61084,50.2794],[127.61104,50.28017],[127.61584,50.28552],[127.61595,50.28599],[127.61534,50.28619],[127.61528,50.28667],[127.61753,50.28756],[127.61828,50.28724],[127.61975,50.28838],[127.61963,50.28919],[127.62283,50.28939],[127.62396,50.29011],[127.62405,50.29129],[127.62541,50.29391],[127.62452,50.29706],[127.62109,50.30162],[127.62026,50.30158],[127.61983,50.30344],[127.61863,50.3034],[127.61856,50.30435],[127.61787,50.30447],[127.61752,50.30643],[127.61831,50.30728],[127.61846,50.30845],[127.61922,50.30855],[127.6212,50.31327],[127.61958,50.31509],[127.61733,50.31933],[127.62166,50.32009],[127.63487,50.32097],[127.65788,50.32108],[127.68414,50.31746],[127.69702,50.31658],[127.70474,50.31746],[127.71367,50.32239],[127.72174,50.32612],[127.72259,50.33105],[127.72809,50.34584],[127.7312,50.36882],[127.73615,50.37508],[127.74045,50.39402],[127.74251,50.41885],[127.74182,50.43077],[127.73633,50.43832],[127.72122,50.444],[127.71993,50.44501],[127.71615,50.44249],[127.71858,50.43923],[127.71779,50.43762],[127.71823,50.43709],[127.71894,50.43178],[127.71587,50.43272],[127.71015,50.43183],[127.70344,50.43235],[127.68359,50.44244],[127.68858,50.44563],[127.68486,50.44908],[127.67893,50.44851],[127.6679,50.45777],[127.66735,50.45763],[127.66681,50.45836],[127.66519,50.45842],[127.66662,50.45886],[127.65679,50.46935],[127.6506,50.47454],[127.64978,50.48262],[127.64797,50.48624],[127.64402,50.48676],[127.64576,50.49034],[127.63843,50.49149],[127.63588,50.49228],[127.63171,50.49461],[127.6313,50.49437],[127.61265,50.41855],[127.59049,50.38464],[127.5704,50.36834],[127.57823,50.36785],[127.58154,50.36328],[127.58653,50.36231],[127.58771,50.36109],[127.59192,50.3605],[127.59643,50.35843],[127.59951,50.35612],[127.59388,50.35143],[127.59266,50.34978],[127.58649,50.34788],[127.58457,50.34552],[127.58395,50.34587],[127.58041,50.34169],[127.58068,50.34158],[127.58021,50.34098],[127.5825,50.33882],[127.58077,50.33587],[127.57288,50.3431],[127.57048,50.34318],[127.57014,50.34508],[127.56804,50.34608],[127.57108,50.34829],[127.57201,50.34844],[127.57222,50.34893],[127.56973,50.34979],[127.57002,50.35003],[127.56901,50.35049],[127.56877,50.35104],[127.56644,50.35101],[127.5663,50.35156],[127.56683,50.35151],[127.56685,50.35236],[127.56589,50.35254],[127.5659,50.35203],[127.56513,50.35217],[127.56531,50.35268],[127.56487,50.3532],[127.56451,50.35298],[127.56496,50.35265],[127.56452,50.35198],[127.56143,50.35214],[127.56235,50.35258],[127.56213,50.35327],[127.56272,50.3541],[127.56144,50.35429],[127.56132,50.35491],[127.56027,50.35537],[127.56157,50.35619],[127.56169,50.35566],[127.56277,50.35598],[127.56254,50.35651],[127.56303,50.35854],[127.56479,50.3585],[127.56555,50.3599],[127.56216,50.36005],[127.56247,50.36212],[127.56048,50.36219],[127.56236,50.36558],[127.5584,50.36564],[127.5532,50.35718],[127.54485,50.35697],[127.54014,50.3482],[127.53983,50.33874],[127.54192,50.33831],[127.54533,50.33676],[127.54506,50.33635],[127.54337,50.3364],[127.54225,50.33599],[127.53873,50.33638],[127.53533,50.31865],[127.53382,50.31296],[127.53344,50.31625],[127.53063,50.31735],[127.52954,50.3162],[127.52698,50.3172],[127.52335,50.31339],[127.52095,50.31435],[127.51909,50.31239],[127.51441,50.31425],[127.51029,50.31008],[127.51605,50.30767],[127.51471,50.30803],[127.5142,50.30741],[127.51004,50.3079],[127.51422,50.30728],[127.5148,50.3079],[127.51783,50.30698],[127.52142,50.3085],[127.52147,50.30746],[127.51857,50.30648],[127.49841,50.30828],[127.49773,50.30557],[127.49706,50.30472],[127.49656,50.30425],[127.4949,50.30414],[127.49279,50.30477],[127.48964,50.30679],[127.4877,50.30679],[127.48739,50.30707],[127.48763,50.30753],[127.48357,50.30809],[127.47706,50.3117],[127.47741,50.31233],[127.47389,50.31007],[127.47364,50.31412],[127.47123,50.31483],[127.46989,50.31423],[127.46891,50.31587],[127.46998,50.31672],[127.47,50.31738],[127.47078,50.31773],[127.47106,50.31881],[127.47029,50.31973],[127.46751,50.31988],[127.46746,50.32064],[127.47019,50.32267],[127.47133,50.32414],[127.47417,50.32459],[127.47448,50.32531],[127.47863,50.32667],[127.47839,50.32697],[127.48157,50.32781],[127.4803,50.32914],[127.48089,50.33074],[127.48348,50.33074],[127.48354,50.33165],[127.48038,50.33421],[127.47677,50.33635],[127.47438,50.33888],[127.47349,50.3388],[127.46908,50.34037],[127.46846,50.34141],[127.46461,50.34041],[127.45662,50.33416],[127.45061,50.32124],[127.44974,50.3167],[127.44405,50.31404],[127.44114,50.31128],[127.41488,50.29254],[127.41191,50.28894],[127.41199,50.28844],[127.41254,50.28842],[127.41239,50.28798],[127.40976,50.2861],[127.40842,50.28567],[127.41179,50.28358],[127.40822,50.27826]]]}}]}