{"type":"FeatureCollection","features":[{"type":"Feature","properties":{"name":"Южно-Сахалинск","osm":"relation/2048160","licence":"Data © OpenStreetMap contributors, ODbL 1.0. http://osm.org/copyright"},"geometry":{"type":"Polygon","coordinates":[[[142.64521,46.95569],[142.64531,46.95412],[142.6469,46.95189],[142.64902,46.95128],[142.64957,46.95217],[142.64917,46.95245],[142.65137,46.95223],[142.65305,46.95254],[142.65323,46.95104],[142.65361,46.95075],[142.67593,46.9444],[142.68186,46.9383],[142.69436,46.91669],[142.69764,46.90775],[142.69889,46.90672],[142.70019,46.90626],[142.704,46.90627],[142.70436,46.90477],[142.70375,46.90292],[142.7046,46.90153],[142.70454,46.90075],[142.70386,46.90016],[142.7027,46.90016],[142.70132,46.9012],[142.70048,46.90089],[142.70046,46.90054],[142.70088,46.89988],[142.70339,46.8988],[142.70609,46.89838],[142.7052,46.89749],[142.7056,46.89715],[142.70315,46.89395],[142.70624,46.89397],[142.70651,46.89351],[142.70353,46.88542],[142.70357,46.88436],[142.70553,46.87468],[142.70586,46.87375],[142.70934,46.87016],[142.70981,46.8701],[142.71013,46.86587],[142.71008,46.86464],[142.70936,46.86344],[142.70735,46.86049],[142.70674,46.86031],[142.70723,46.85958],[142.70791,46.85958],[142.70829,46.8576],[142.70704,46.85627],[142.70405,46.85585],[142.70634,46.85385],[142.70786,46.85352],[142.70956,46.85399],[142.70995,46.85368],[142.70953,46.85282],[142.70812,46.85201],[142.70962,46.85172],[142.70927,46.8511],[142.70832,46.85061],[142.70704,46.85063],[142.70284,46.84879],[142.70305,46.84789],[142.70504,46.84724],[142.70614,46.8463],[142.70786,46.84682],[142.70866,46.84637],[142.70834,46.84567],[142.70683,46.84492],[142.70685,46.84428],[142.70741,46.84405],[142.70694,46.84353],[142.70646,46.84343],[142.70569,46.84427],[142.7052,46.84387],[142.70588,46.84251],[142.70841,46.84269],[142.70961,46.84155],[142.70851,46.84005],[142.70944,46.8393],[142.70949,46.83879],[142.70823,46.83835],[142.70736,46.83863],[142.70715,46.83799],[142.7076,46.83761],[142.71066,46.83797],[142.71208,46.83769],[142.71287,46.83558],[142.71388,46.83479],[142.71375,46.83388],[142.70968,46.83312],[142.71057,46.8318],[142.71237,46.83192],[142.71347,46.83139],[142.71357,46.83058],[142.71149,46.82916],[142.71165,46.82857],[142.71357,46.82852],[142.71407,46.82813],[142.71421,46.82702],[142.71567,46.82739],[142.71529,46.83054],[142.71636,46.83091],[142.71649,46.8318],[142.71892,46.83276],[142.72019,46.83433],[142.72283,46.83406],[142.7236,46.83486],[142.72489,46.83453],[142.72675,46.83536],[142.72712,46.8347],[142.7277,46.83489],[142.72932,46.83811],[142.72821,46.83841],[142.73259,46.84281],[142.73428,46.843],[142.74155,46.84673],[142.74493,46.84686],[142.74914,46.84486],[142.75017,46.84477],[142.75158,46.84503],[142.7546,46.84666],[142.75707,46.84681],[142.76204,46.84593],[142.76511,46.8483],[142.76625,46.84872],[142.76666,46.86341],[142.76739,46.86342],[142.76794,46.86265],[142.77027,46.86258],[142.77295,46.86322],[142.77496,46.86466],[142.7761,46.86423],[142.78173,46.86447],[142.78224,46.86468],[142.78254,46.86557],[142.78453,46.8647],[142.78588,46.86551],[142.78725,46.86517],[142.78912,46.86622],[142.79123,46.86538],[142.79674,46.86452],[142.80483,46.86407],[142.80983,46.86299],[142.81135,46.86369],[142.81649,46.86345],[142.81997,46.8617],[142.82199,46.8617],[142.82387,46.8604],[142.82579,46.85999],[142.82784,46.86034],[142.82888,46.86216],[142.83326,46.86326],[142.83417,46.86431],[142.83517,46.86447],[142.83997,46.86859],[142.8409,46.87049],[142.84294,46.87302],[142.84311,46.87351],[142.84212,46.87551],[142.84203,46.87764],[142.83881,46.87961],[142.83854,46.88059],[142.83893,46.88169],[142.82353,46.88653],[142.81858,46.89156],[142.81857,46.89816],[142.82009,46.90034],[142.80083,46.96882],[142.79774,46.98147],[142.79731,46.99402],[142.79986,46.99499],[142.79917,47.0066],[142.79817,47.00611],[142.7961,47.00658],[142.79324,47.00645],[142.7921,47.00583],[142.78768,47.02215],[142.79951,47.02216],[142.79875,47.02135],[142.79939,47.02088],[142.80314,47.02021],[142.80365,47.02031],[142.80334,47.02124],[142.80369,47.02265],[142.80278,47.02406],[142.80041,47.02508],[142.78918,47.02735],[142.79221,47.02996],[142.79111,47.03413],[142.78718,47.03251],[142.78689,47.03084],[142.7857,47.03074],[142.78474,47.03274],[142.78358,47.03104],[142.78373,47.03015],[142.78677,47.02795],[142.78598,47.02776],[142.7766,47.02929],[142.75936,47.02769],[142.7571,47.02668],[142.75649,47.02792],[142.75471,47.04225],[142.75773,47.06505],[142.75902,47.06771],[142.76125,47.07074],[142.76331,47.0791],[142.75941,47.08562],[142.75238,47.08722],[142.73126,47.06539],[142.72938,47.06612],[142.72507,47.06177],[142.72389,47.05983],[142.72224,47.06027],[142.71947,47.06195],[142.71787,47.05839],[142.71806,47.05743],[142.71489,47.05376],[142.7127,47.05461],[142.71232,47.05421],[142.70994,47.05115],[142.71276,47.0505],[142.7145,47.05132],[142.71625,47.05092],[142.72026,47.05102],[142.72087,47.05078],[142.72129,47.04989],[142.72076,47.04841],[142.72204,47.04662],[142.71996,47.04538],[142.71988,47.04409],[142.72095,47.04227],[142.71925,47.04139],[142.71981,47.04034],[142.71871,47.03842],[142.71499,47.03731],[142.71442,47.03777],[142.71448,47.0385],[142.70244,47.0374],[142.69931,47.05064],[142.69836,47.05074],[142.69782,47.04968],[142.69685,47.0223],[142.69722,47.01569],[142.69296,47.01394],[142.69268,47.01321],[142.69341,47.01013],[142.68921,47.00963],[142.68659,47.01015],[142.67149,47.00681],[142.6722,47.0021],[142.67314,46.99902],[142.67505,46.9968],[142.68435,46.98997],[142.6837,46.98958],[142.68065,46.99082],[142.67962,46.98969],[142.67862,46.99009],[142.67381,46.98537],[142.6728,46.98648],[142.67166,46.98552],[142.67052,46.98547],[142.67059,46.98619],[142.66676,46.98842],[142.66605,46.99395],[142.66553,46.99415],[142.66505,46.99531],[142.66409,46.99539],[142.66319,46.99707],[142.65941,46.99682],[142.65889,46.99635],[142.65809,46.9968],[142.65838,46.9979],[142.65703,46.99776],[142.65669,46.99758],[142.65675,46.99671],[142.65796,46.99609],[142.65711,46.99582],[142.65535,46.99716],[142.65527,46.99761],[142.65574,46.99795],[142.65403,46.99728],[142.65322,46.99641],[142.65255,46.99409],[142.65303,46.98094],[142.654,46.97136],[142.65337,46.97117],[142.65394,46.96953],[142.65463,46.9695],[142.65502,46.96869],[142.65222,46.9688],[142.64985,46.96946],[142.64908,46.96902],[142.64587,46.96473],[142.64521,46.95569]]]}}]}