{"type":"FeatureCollection","features":[{"type":"Feature","properties":{"name":"Хабаровск","osm":"relation/2049848","licence":"Data © OpenStreetMap contributors, ODbL 1.0. http://osm.org/copyright"},"geometry":{"type":"Polygon","coordinates":[[[134.89789,48.4426],[134.9112,48.43343],[134.92582,48.43381],[134.9389,48.43812],[134.95241,48.43592],[134.95544,48.42994],[134.95977,48.42727],[134.96071,48.42426],[134.96591,48.42304],[134.98482,48.40634],[134.99196,48.4037],[135.00766,48.4032],[135.02429,48.40492],[135.02989,48.40674],[135.03956,48.41372],[135.04092,48.41123],[135.04045,48.40769],[135.04298,48.40785],[135.04476,48.40971],[135.04823,48.40735],[135.04192,48.40266],[135.02991,48.39755],[135.01706,48.38737],[135.01688,48.3841],[135.01978,48.38076],[135.01682,48.376],[135.00313,48.37054],[134.99322,48.37001],[135.00303,48.35905],[135.00231,48.35699],[135.02385,48.35178],[135.02641,48.34978],[135.02769,48.35038],[135.03177,48.34257],[135.03405,48.34241],[135.03842,48.34238],[135.04963,48.35319],[135.05971,48.35157],[135.05995,48.35303],[135.06371,48.35121],[135.06378,48.3472],[135.07321,48.34719],[135.07443,48.34606],[135.07277,48.34222],[135.07923,48.34437],[135.0805,48.34086],[135.08287,48.34118],[135.09266,48.33743],[135.11107,48.3268],[135.12443,48.33224],[135.09579,48.34416],[135.09676,48.34507],[135.09344,48.34501],[135.10994,48.36386],[135.10933,48.36528],[135.10304,48.3656],[135.10484,48.36875],[135.10318,48.36959],[135.1073,48.37191],[135.12476,48.37599],[135.13546,48.38669],[135.13743,48.3917],[135.13936,48.39305],[135.14509,48.39324],[135.15211,48.39033],[135.15999,48.39086],[135.16749,48.38934],[135.16835,48.39045],[135.1664,48.39401],[135.16795,48.3944],[135.1665,48.397],[135.17324,48.39759],[135.16675,48.41737],[135.16917,48.41874],[135.16851,48.42339],[135.17174,48.42267],[135.1728,48.42401],[135.17208,48.42886],[135.17138,48.43079],[135.16741,48.4305],[135.1659,48.4438],[135.17362,48.44981],[135.18056,48.45075],[135.19906,48.44692],[135.20158,48.44518],[135.20959,48.44824],[135.21347,48.44665],[135.21444,48.44778],[135.20945,48.45132],[135.21303,48.4529],[135.21482,48.45119],[135.22118,48.45366],[135.21967,48.46228],[135.21569,48.46851],[135.21294,48.47029],[135.20405,48.47027],[135.19668,48.46625],[135.18866,48.46974],[135.18031,48.47663],[135.17994,48.47542],[135.1761,48.47677],[135.17712,48.47836],[135.17384,48.47341],[135.16865,48.47566],[135.1679,48.48185],[135.16036,48.48822],[135.15775,48.49864],[135.15733,48.5063],[135.16275,48.5067],[135.16476,48.51122],[135.16677,48.51074],[135.16479,48.5087],[135.17757,48.51536],[135.2099,48.53895],[135.21455,48.54282],[135.21531,48.54584],[135.21017,48.54737],[135.20007,48.5425],[135.19772,48.5444],[135.1888,48.53909],[135.18621,48.53972],[135.18185,48.53514],[135.17926,48.53478],[135.17859,48.53659],[135.17161,48.53815],[135.16585,48.54435],[135.16574,48.54654],[135.15867,48.54727],[135.1567,48.54877],[135.15442,48.5474],[135.15497,48.54528],[135.15163,48.54342],[135.12783,48.54368],[135.12585,48.54553],[135.12663,48.54607],[135.13316,48.54673],[135.13443,48.54945],[135.13924,48.55144],[135.13938,48.55327],[135.14111,48.55264],[135.14156,48.55387],[135.14511,48.5542],[135.14968,48.55772],[135.15062,48.55628],[135.15157,48.55848],[135.15497,48.55834],[135.15481,48.5612],[135.16073,48.56254],[135.1611,48.56413],[135.16363,48.56232],[135.1684,48.56238],[135.16763,48.56359],[135.16985,48.5638],[135.17073,48.56558],[135.17687,48.56446],[135.18014,48.5664],[135.17874,48.56871],[135.16939,48.56886],[135.15998,48.57394],[135.14467,48.57441],[135.15375,48.5831],[135.15328,48.59515],[135.14767,48.59348],[135.14875,48.59089],[135.14643,48.58851],[135.14257,48.58987],[135.13565,48.58768],[135.12369,48.58686],[135.12375,48.58573],[135.1211,48.58574],[135.12106,48.58322],[135.12441,48.58324],[135.11753,48.57795],[135.11465,48.57975],[135.1029,48.57405],[135.1002,48.57774],[135.08978,48.58326],[135.08403,48.58474],[135.07504,48.58479],[135.07212,48.58617],[135.07257,48.5902],[135.07145,48.59174],[135.07425,48.59438],[135.07423,48.59348],[135.0761,48.59386],[135.07681,48.59664],[135.06794,48.59639],[135.06052,48.5919],[135.05508,48.59476],[135.04569,48.5955],[135.0374,48.60301],[135.03154,48.58896],[134.99133,48.58228],[134.97938,48.57625],[134.97854,48.56709],[134.9866,48.55083],[134.98606,48.54148],[134.99235,48.52742],[134.96609,48.51348],[134.95589,48.51237],[134.95664,48.51898],[134.95523,48.51997],[134.95235,48.51918],[134.95002,48.51636],[134.94004,48.51592],[134.93666,48.51424],[134.93807,48.50492],[134.92193,48.49429],[134.91727,48.48248],[134.91112,48.47684],[134.90948,48.47153],[134.90153,48.46235],[134.9019,48.45308],[134.89789,48.4426]]]}}]}