{"type":"FeatureCollection","features":[{"type":"Feature","properties":{"name":"Ульяновск","osm":"relation/2049867","licence":"Data © OpenStreetMap contributors, ODbL 1.0. http://osm.org/copyright"},"geometry":{"type":"Polygon","coordinates":[[[48.25014,54.29555],[48.25402,54.29174],[48.2553,54.29144],[48.25793,54.29147],[48.25814,54.29114],[48.25621,54.29063],[48.25564,54.2903],[48.25538,54.29008],[48.25533,54.28983],[48.25551,54.28926],[48.2611,54.2758],[48.26357,54.27613],[48.2637,54.27457],[48.26282,54.2724],[48.26148,54.27203],[48.26072,54.26974],[48.25988,54.26831],[48.25837,54.26619],[48.2654,54.26271],[48.25677,54.25953],[48.25263,54.26106],[48.25057,54.25918],[48.25169,54.25864],[48.25755,54.2519],[48.25575,54.25065],[48.25755,54.24945],[48.25921,54.25041],[48.26091,54.2505],[48.26404,54.2522],[48.26538,54.25155],[48.2649,54.25074],[48.26704,54.24946],[48.26735,54.24938],[48.26768,54.24945],[48.26805,54.24971],[48.26959,54.25032],[48.27247,54.25096],[48.276,54.25153],[48.27726,54.25138],[48.27789,54.2512],[48.28366,54.24841],[48.2846,54.24828],[48.28559,54.24826],[48.28595,54.24833],[48.28902,54.24962],[48.28951,54.25153],[48.2946,54.25071],[48.29679,54.25284],[48.29954,54.25295],[48.30083,54.25277],[48.29398,54.24118],[48.28816,54.23818],[48.29072,54.23764],[48.27409,54.22782],[48.27229,54.22819],[48.26829,54.22199],[48.28106,54.21714],[48.29638,54.23624],[48.30107,54.23493],[48.30336,54.23419],[48.30103,54.22673],[48.30436,54.22597],[48.31152,54.23192],[48.33284,54.23293],[48.33349,54.23035],[48.33448,54.23053],[48.33621,54.22772],[48.33826,54.2262],[48.33983,54.22443],[48.34084,54.22436],[48.34062,54.22876],[48.34549,54.22889],[48.34658,54.22511],[48.34883,54.22205],[48.35212,54.22097],[48.35478,54.2142],[48.35393,54.20542],[48.35431,54.20015],[48.35746,54.19911],[48.35959,54.19941],[48.36094,54.19989],[48.36205,54.20012],[48.37819,54.20655],[48.44775,54.24254],[48.51976,54.27738],[48.54074,54.27893],[48.53183,54.2866],[48.55815,54.29909],[48.56123,54.32657],[48.56151,54.32677],[48.57362,54.32637],[48.57379,54.32859],[48.57534,54.32855],[48.5758,54.33369],[48.57427,54.33374],[48.56902,54.33081],[48.56478,54.33094],[48.56426,54.33105],[48.56319,54.33059],[48.56352,54.33268],[48.56446,54.33247],[48.56463,54.33284],[48.56389,54.33292],[48.56503,54.33425],[48.56501,54.33445],[48.56353,54.33431],[48.56325,54.33647],[48.62941,54.34069],[48.64615,54.34191],[48.64946,54.34251],[48.64603,54.34382],[48.66003,54.3501],[48.66248,54.34971],[48.66504,54.35077],[48.66492,54.35223],[48.67508,54.35672],[48.67623,54.35585],[48.67895,54.35704],[48.67779,54.35798],[48.68127,54.35943],[48.6886,54.36128],[48.69105,54.3618],[48.69655,54.36329],[48.71181,54.36684],[48.71075,54.36819],[48.72573,54.37156],[48.72015,54.37861],[48.7164,54.37777],[48.71412,54.38126],[48.71786,54.38212],[48.71189,54.3902],[48.68567,54.38259],[48.68177,54.38543],[48.68756,54.38825],[48.68906,54.3872],[48.69306,54.38882],[48.68999,54.39112],[48.68604,54.38943],[48.68673,54.38882],[48.68083,54.38605],[48.67552,54.39018],[48.68157,54.39321],[48.67795,54.39599],[48.67505,54.39463],[48.67162,54.3932],[48.66818,54.3959],[48.65771,54.39127],[48.65251,54.39532],[48.62414,54.38267],[48.62282,54.3837],[48.62087,54.3829],[48.61333,54.38861],[48.61584,54.3897],[48.61455,54.39058],[48.61221,54.38958],[48.60789,54.39255],[48.60614,54.39645],[48.60685,54.40083],[48.61001,54.40351],[48.61034,54.40593],[48.60966,54.40832],[48.60863,54.40896],[48.60547,54.4074],[48.6037,54.40634],[48.60359,54.4062],[48.60271,54.40579],[48.59959,54.40407],[48.59541,54.40222],[48.59303,54.40143],[48.59198,54.40148],[48.59095,54.40115],[48.59078,54.40117],[48.59025,54.40153],[48.58955,54.40135],[48.58952,54.40127],[48.59022,54.4014],[48.59048,54.40108],[48.59011,54.40087],[48.58928,54.40063],[48.58861,54.40029],[48.58847,54.40015],[48.58761,54.39977],[48.58759,54.39965],[48.58725,54.39943],[48.58706,54.39897],[48.58689,54.39888],[48.58701,54.39878],[48.58702,54.39867],[48.58532,54.39787],[48.58192,54.39664],[48.57597,54.39488],[48.57174,54.39341],[48.56808,54.39202],[48.55904,54.3891],[48.5556,54.38807],[48.55362,54.38732],[48.55216,54.38662],[48.54852,54.38527],[48.54737,54.38502],[48.54733,54.38496],[48.54747,54.38484],[48.54795,54.38495],[48.54845,54.38483],[48.54846,54.38475],[48.54805,54.38422],[48.54778,54.38426],[48.54774,54.38408],[48.54741,54.38402],[48.5469,54.3842],[48.5467,54.38417],[48.54641,54.38394],[48.5453,54.38351],[48.54434,54.3827],[48.54445,54.38267],[48.54505,54.38313],[48.54654,54.38379],[48.54736,54.38339],[48.54687,54.38277],[48.54663,54.3826],[48.54672,54.38217],[48.5466,54.38155],[48.54546,54.38011],[48.54492,54.37958],[48.54202,54.3772],[48.54034,54.37598],[48.53895,54.37517],[48.5374,54.37438],[48.53613,54.37381],[48.53492,54.37337],[48.47908,54.41651],[48.45984,54.40205],[48.39967,54.36321],[48.39075,54.36055],[48.38822,54.36397],[48.38852,54.36521],[48.38707,54.36609],[48.3874,54.36811],[48.38529,54.37005],[48.37797,54.36966],[48.37793,54.37159],[48.37624,54.3726],[48.37141,54.37258],[48.3705,54.37208],[48.3611,54.36974],[48.35861,54.37131],[48.34795,54.37225],[48.34641,54.374],[48.33819,54.37458],[48.33775,54.37388],[48.33953,54.37053],[48.33276,54.36341],[48.33584,54.36259],[48.33229,54.3553],[48.32199,54.34964],[48.30012,54.34272],[48.30193,54.33989],[48.30201,54.33912],[48.29785,54.33597],[48.29667,54.3356],[48.294,54.33501],[48.29747,54.33163],[48.30168,54.33414],[48.30205,54.3337],[48.30248,54.33384],[48.30267,54.33366],[48.30297,54.33374],[48.30316,54.33343],[48.30343,54.33337],[48.30384,54.33309],[48.30573,54.33233],[48.30638,54.33199],[48.30781,54.33119],[48.30968,54.32979],[48.31217,54.32332],[48.30388,54.31902],[48.30336,54.31378],[48.30146,54.3132],[48.29835,54.31584],[48.29559,54.31718],[48.29245,54.31744],[48.283,54.31752],[48.27731,54.31805],[48.27787,54.31445],[48.27865,54.31079],[48.27956,54.30929],[48.27491,54.30788],[48.27536,54.30651],[48.2682,54.30424],[48.26995,54.30197],[48.25991,54.29884],[48.26023,54.29672],[48.25014,54.29555]]]}}]}