{"type":"FeatureCollection","features":[{"type":"Feature","properties":{"name":"Тюмень","osm":"relation/2049854","licence":"Data © OpenStreetMap contributors, ODbL 1.0. http://osm.org/copyright"},"geometry":{"type":"Polygon","coordinates":[[[65.26579,57.16358],[65.26741,57.16232],[65.2675,57.16008],[65.27518,57.16511],[65.28063,57.16641],[65.28174,57.15955],[65.2798,57.15437],[65.28059,57.15288],[65.27941,57.15243],[65.28275,57.15048],[65.29238,57.15699],[65.30796,57.16275],[65.32439,57.16252],[65.32324,57.15746],[65.32854,57.15697],[65.32955,57.15566],[65.3239,57.15246],[65.32954,57.15202],[65.33045,57.14919],[65.32788,57.14806],[65.33043,57.14635],[65.33335,57.14588],[65.33736,57.14971],[65.33917,57.1497],[65.3415,57.14831],[65.34254,57.14537],[65.3583,57.15147],[65.35806,57.1498],[65.3679,57.15264],[65.36761,57.14959],[65.37416,57.14585],[65.36271,57.14225],[65.36316,57.14103],[65.35803,57.13935],[65.34721,57.13907],[65.34937,57.13662],[65.34824,57.13527],[65.34964,57.13351],[65.34781,57.13109],[65.34935,57.12783],[65.34505,57.12671],[65.34143,57.12048],[65.34374,57.11917],[65.34368,57.11311],[65.34964,57.11215],[65.34824,57.11047],[65.35037,57.10582],[65.41021,57.11336],[65.47129,57.12631],[65.47209,57.12172],[65.47701,57.1246],[65.48718,57.12019],[65.48053,57.11469],[65.47262,57.11037],[65.46425,57.11181],[65.46708,57.11042],[65.46443,57.10818],[65.46155,57.10795],[65.45749,57.10411],[65.43812,57.1004],[65.43322,57.09748],[65.4912,57.09712],[65.49181,57.09809],[65.51219,57.09664],[65.52396,57.09258],[65.52488,57.10484],[65.53211,57.10488],[65.52697,57.10275],[65.52601,57.09805],[65.54445,57.09749],[65.55549,57.10086],[65.55049,57.10755],[65.55232,57.10818],[65.56223,57.10463],[65.55784,57.1016],[65.56631,57.09266],[65.56755,57.08638],[65.57167,57.08681],[65.57473,57.08319],[65.58036,57.0831],[65.58257,57.07742],[65.5999,57.08122],[65.60445,57.07949],[65.60993,57.08376],[65.60429,57.08588],[65.60018,57.08319],[65.59285,57.08747],[65.6077,57.08776],[65.64785,57.07192],[65.64931,57.07778],[65.68128,57.07764],[65.68436,57.07671],[65.69075,57.07101],[65.69592,57.06994],[65.70087,57.07048],[65.70385,57.07623],[65.70393,57.07994],[65.73014,57.06143],[65.73552,57.06142],[65.73891,57.06628],[65.73564,57.06584],[65.73363,57.0675],[65.7342,57.0683],[65.74032,57.06941],[65.74132,57.06774],[65.74591,57.068],[65.74471,57.06995],[65.74588,57.07073],[65.74897,57.06833],[65.74982,57.06987],[65.75835,57.06928],[65.76302,57.07085],[65.76333,57.07223],[65.76136,57.07097],[65.76042,57.07201],[65.76281,57.07391],[65.78447,57.07197],[65.79107,57.06963],[65.79487,57.07177],[65.79587,57.07517],[65.79447,57.07743],[65.78797,57.07958],[65.78443,57.08346],[65.78179,57.10408],[65.77734,57.10852],[65.77287,57.11068],[65.75507,57.11122],[65.74866,57.11268],[65.74791,57.11522],[65.75348,57.12309],[65.75322,57.12918],[65.74027,57.14382],[65.73222,57.1447],[65.7269,57.14324],[65.72166,57.13984],[65.71623,57.14022],[65.71432,57.1418],[65.71809,57.15138],[65.71709,57.15676],[65.71138,57.15863],[65.70032,57.15807],[65.68081,57.16393],[65.6735,57.17016],[65.67361,57.17174],[65.81209,57.15971],[65.81064,57.16591],[65.80251,57.16608],[65.80332,57.16981],[65.80465,57.16996],[65.80453,57.17352],[65.80806,57.17427],[65.80763,57.17759],[65.81444,57.18139],[65.81508,57.18299],[65.81009,57.18361],[65.80773,57.18847],[65.80885,57.18976],[65.80826,57.196],[65.81224,57.19925],[65.79782,57.19531],[65.7995,57.19093],[65.78686,57.19419],[65.78722,57.19211],[65.77924,57.19267],[65.78377,57.19783],[65.78684,57.21058],[65.78425,57.21435],[65.7601,57.21355],[65.76686,57.21446],[65.762,57.21533],[65.76226,57.22172],[65.75291,57.2197],[65.75324,57.22204],[65.75044,57.22322],[65.74956,57.22156],[65.74315,57.2206],[65.7416,57.2233],[65.73857,57.22362],[65.73786,57.22478],[65.74023,57.2239],[65.74025,57.22535],[65.73603,57.22835],[65.72884,57.23143],[65.71969,57.23077],[65.7196,57.23285],[65.69691,57.24411],[65.69544,57.25162],[65.69347,57.25457],[65.70225,57.25305],[65.71862,57.2562],[65.72372,57.25941],[65.71458,57.26266],[65.68911,57.26163],[65.69247,57.26594],[65.6848,57.26661],[65.68279,57.26868],[65.67861,57.26946],[65.67656,57.26724],[65.66873,57.26983],[65.66039,57.26857],[65.64004,57.26951],[65.63627,57.26994],[65.63635,57.27247],[65.6159,57.27023],[65.60981,57.27249],[65.60544,57.27581],[65.57489,57.27765],[65.57399,57.26468],[65.56864,57.26522],[65.56872,57.26934],[65.55752,57.2696],[65.55725,57.26829],[65.55452,57.26831],[65.55411,57.26571],[65.54621,57.2659],[65.54636,57.26704],[65.54155,57.26711],[65.54145,57.26925],[65.5435,57.26976],[65.54359,57.27256],[65.53296,57.27289],[65.53215,57.26627],[65.50764,57.26669],[65.50788,57.26955],[65.49955,57.26981],[65.50022,57.27587],[65.48363,57.27632],[65.48382,57.27775],[65.47798,57.27792],[65.4783,57.28189],[65.46863,57.28254],[65.4662,57.26691],[65.43271,57.25718],[65.39992,57.26834],[65.39906,57.26761],[65.40326,57.25811],[65.4017,57.25599],[65.40676,57.25297],[65.40722,57.25016],[65.41731,57.24784],[65.41604,57.24594],[65.42223,57.24466],[65.4306,57.24058],[65.42723,57.23906],[65.42068,57.22903],[65.41861,57.2299],[65.41016,57.22589],[65.39273,57.22695],[65.37844,57.221],[65.37335,57.2209],[65.37353,57.21346],[65.37146,57.21231],[65.37174,57.21082],[65.364,57.2108],[65.36409,57.20855],[65.35512,57.20841],[65.35501,57.21208],[65.34896,57.21182],[65.34508,57.20833],[65.34659,57.20694],[65.34059,57.20211],[65.33691,57.20083],[65.3319,57.20178],[65.33006,57.20047],[65.32369,57.20119],[65.32195,57.19934],[65.31985,57.1998],[65.28823,57.21484],[65.27843,57.20422],[65.27279,57.18933],[65.27431,57.18569],[65.27169,57.17458],[65.2768,57.17424],[65.27541,57.16939],[65.26841,57.16684],[65.26877,57.1652],[65.26579,57.16358]]]}}]}