{"type":"FeatureCollection","features":[{"type":"Feature","properties":{"name":"Грозный","osm":"relation/2131460","licence":"Data © OpenStreetMap contributors, ODbL 1.0. http://osm.org/copyright"},"geometry":{"type":"Polygon","coordinates":[[[45.4324,43.38328],[45.43731,43.38056],[45.4386,43.37773],[45.44076,43.37732],[45.44112,43.37514],[45.44449,43.37294],[45.4564,43.37303],[45.4608,43.37058],[45.4663,43.36955],[45.4777,43.36872],[45.48283,43.37019],[45.49028,43.36825],[45.49818,43.36004],[45.49878,43.35853],[45.50453,43.35489],[45.50639,43.3578],[45.5177,43.35946],[45.52263,43.35823],[45.5244,43.35293],[45.52586,43.35206],[45.53077,43.35157],[45.53474,43.35299],[45.53737,43.35307],[45.54903,43.34712],[45.55821,43.34626],[45.56062,43.34699],[45.56181,43.34596],[45.56383,43.34655],[45.56694,43.34356],[45.57914,43.31816],[45.60612,43.31551],[45.60004,43.30133],[45.5988,43.30011],[45.59263,43.30216],[45.58734,43.29326],[45.5922,43.2845],[45.59395,43.28495],[45.5971,43.28037],[45.59738,43.27903],[45.60185,43.27504],[45.60283,43.27214],[45.60199,43.27139],[45.59804,43.27099],[45.59683,43.26977],[45.5938,43.26855],[45.59186,43.26837],[45.58997,43.26481],[45.58937,43.26229],[45.58979,43.25887],[45.58456,43.25674],[45.58107,43.25608],[45.57926,43.25264],[45.57566,43.25176],[45.57716,43.24871],[45.58329,43.24618],[45.58389,43.24369],[45.58969,43.242],[45.58987,43.24068],[45.58794,43.2402],[45.58879,43.23818],[45.59116,43.23862],[45.59205,43.23807],[45.59732,43.2383],[45.59845,43.23654],[45.60156,43.23711],[45.60171,43.23906],[45.6066,43.23893],[45.60848,43.23319],[45.60581,43.23117],[45.60474,43.22926],[45.6077,43.21536],[45.65181,43.20645],[45.69039,43.20099],[45.70126,43.19882],[45.70192,43.19936],[45.74304,43.1783],[45.74894,43.20361],[45.74464,43.22224],[45.7462,43.22869],[45.74876,43.23514],[45.75129,43.23469],[45.75522,43.23198],[45.75667,43.23187],[45.75708,43.23187],[45.75691,43.23342],[45.76585,43.23518],[45.76545,43.23653],[45.76967,43.24057],[45.77143,43.24588],[45.77311,43.2457],[45.77187,43.25002],[45.77492,43.25127],[45.77243,43.25438],[45.77433,43.25738],[45.77347,43.25847],[45.76339,43.26466],[45.76774,43.27725],[45.77059,43.28296],[45.77474,43.28347],[45.80839,43.29148],[45.80767,43.29226],[45.80955,43.29352],[45.81357,43.29867],[45.81543,43.30226],[45.81381,43.30637],[45.80973,43.30823],[45.80925,43.30985],[45.79954,43.30944],[45.80136,43.32277],[45.79936,43.32304],[45.79894,43.342],[45.76181,43.34194],[45.76404,43.34263],[45.76417,43.34333],[45.75962,43.3443],[45.75847,43.34719],[45.75998,43.34788],[45.76303,43.34678],[45.7651,43.34767],[45.76528,43.3482],[45.76306,43.35057],[45.76088,43.35147],[45.76282,43.35338],[45.76095,43.35394],[45.75886,43.35229],[45.75531,43.35295],[45.7588,43.35548],[45.76172,43.35649],[45.76142,43.35815],[45.76194,43.35901],[45.76529,43.35909],[45.76721,43.36117],[45.76699,43.3627],[45.76621,43.3633],[45.7649,43.3626],[45.76099,43.36324],[45.76027,43.36255],[45.76009,43.36324],[45.75864,43.36118],[45.75811,43.36243],[45.75653,43.36294],[45.756,43.36133],[45.75443,43.36082],[45.75245,43.36197],[45.75048,43.3603],[45.75041,43.36203],[45.74935,43.36227],[45.7483,43.36181],[45.74897,43.36151],[45.74805,43.3607],[45.74713,43.36068],[45.74601,43.3617],[45.74503,43.36119],[45.74511,43.39543],[45.74197,43.39667],[45.74,43.39676],[45.73887,43.39485],[45.73603,43.3943],[45.73293,43.39543],[45.73099,43.398],[45.72726,43.39806],[45.72658,43.39617],[45.72488,43.39454],[45.72231,43.39409],[45.71787,43.39436],[45.71312,43.39541],[45.71147,43.39814],[45.71078,43.39852],[45.70861,43.39791],[45.70639,43.40014],[45.7029,43.39999],[45.7002,43.39724],[45.68835,43.3976],[45.68096,43.39849],[45.67943,43.39926],[45.66531,43.40171],[45.66212,43.40163],[45.65031,43.40359],[45.64347,43.40401],[45.63459,43.40619],[45.63058,43.40565],[45.63058,43.37705],[45.62998,43.37609],[45.62811,43.3765],[45.62671,43.37786],[45.62287,43.37785],[45.62,43.38005],[45.61738,43.3791],[45.6134,43.37975],[45.61032,43.37816],[45.60781,43.37828],[45.60425,43.37991],[45.60285,43.38142],[45.59938,43.38176],[45.59691,43.38083],[45.59581,43.38114],[45.59472,43.38292],[45.59513,43.38381],[45.59374,43.38511],[45.5928,43.38522],[45.59198,43.38427],[45.59079,43.38408],[45.58996,43.38469],[45.59058,43.38555],[45.5897,43.38619],[45.58738,43.38529],[45.58586,43.38577],[45.58466,43.38495],[45.58209,43.38554],[45.58214,43.38624],[45.57986,43.38635],[45.57978,43.40231],[45.57726,43.40164],[45.57613,43.40244],[45.57486,43.40228],[45.57339,43.40455],[45.57131,43.40618],[45.56959,43.40548],[45.56912,43.4032],[45.56778,43.40108],[45.56375,43.39842],[45.56182,43.39847],[45.55935,43.40076],[45.55948,43.40155],[45.55784,43.40311],[45.55388,43.40366],[45.55134,43.40087],[45.54993,43.40039],[45.5471,43.40115],[45.54488,43.40279],[45.54318,43.40277],[45.54221,43.391],[45.53779,43.39252],[45.53651,43.39056],[45.53194,43.39139],[45.53092,43.38935],[45.52647,43.39101],[45.51944,43.39106],[45.51353,43.39023],[45.49868,43.39597],[45.48539,43.39779],[45.4802,43.39009],[45.47878,43.38907],[45.47218,43.39096],[45.47053,43.39052],[45.46587,43.39155],[45.46122,43.39179],[45.45087,43.39192],[45.45055,43.39036],[45.44898,43.38971],[45.44203,43.39204],[45.43736,43.39052],[45.43347,43.38697],[45.4324,43.38328]]]}}]}