{"type":"FeatureCollection","features":[{"type":"Feature","properties":{"name":"Абакан","osm":"relation/2168517","licence":"Data © OpenStreetMap contributors, ODbL 1.0. http://osm.org/copyright"},"geometry":{"type":"Polygon","coordinates":[[[91.28369,53.64895],[91.2838,53.64453],[91.28533,53.64205],[91.294,53.6436],[91.29408,53.64273],[91.2933,53.64168],[91.29189,53.64108],[91.29257,53.63954],[91.29348,53.63977],[91.29403,53.63921],[91.29301,53.63868],[91.2947,53.63736],[91.29841,53.63923],[91.3005,53.6397],[91.30478,53.64151],[91.30616,53.64315],[91.30976,53.64585],[91.30857,53.6462],[91.30814,53.64708],[91.30922,53.64903],[91.30907,53.64981],[91.30627,53.65143],[91.30683,53.6519],[91.3067,53.65223],[91.30724,53.65258],[91.31119,53.65402],[91.31425,53.65479],[91.31796,53.6544],[91.32,53.6537],[91.32232,53.65244],[91.32589,53.6548],[91.32829,53.65571],[91.33036,53.657],[91.33094,53.65905],[91.32665,53.6619],[91.32877,53.66138],[91.35802,53.66058],[91.35947,53.66075],[91.39138,53.67047],[91.39497,53.67139],[91.40415,53.67229],[91.40495,53.67268],[91.42383,53.66577],[91.42975,53.66301],[91.43679,53.66519],[91.44102,53.66543],[91.44483,53.66768],[91.44521,53.67001],[91.44292,53.67113],[91.4426,53.67309],[91.44048,53.67529],[91.44002,53.68173],[91.44434,53.68717],[91.45427,53.69376],[91.45897,53.69471],[91.46219,53.69853],[91.46499,53.70001],[91.46681,53.70257],[91.46937,53.70501],[91.4735,53.70672],[91.48461,53.70815],[91.48444,53.70582],[91.48597,53.70374],[91.48821,53.70174],[91.48784,53.69978],[91.48647,53.6976],[91.48702,53.69641],[91.48695,53.69549],[91.48853,53.69473],[91.48998,53.69442],[91.49235,53.69291],[91.49542,53.69279],[91.49555,53.69183],[91.49227,53.68854],[91.49263,53.68551],[91.49002,53.6809],[91.49479,53.678],[91.49528,53.67597],[91.50628,53.67462],[91.51227,53.67306],[91.51701,53.66803],[91.51818,53.6655],[91.52021,53.65656],[91.52696,53.65821],[91.52961,53.65953],[91.53085,53.66046],[91.53117,53.66091],[91.53026,53.66236],[91.53268,53.66309],[91.53257,53.66596],[91.53408,53.66382],[91.53458,53.66247],[91.5327,53.66238],[91.53123,53.66046],[91.53004,53.65953],[91.52721,53.65799],[91.52569,53.65755],[91.51034,53.65419],[91.48505,53.64945],[91.47899,53.64687],[91.48515,53.63386],[91.48739,53.63068],[91.48938,53.63002],[91.49069,53.62891],[91.49108,53.62816],[91.49327,53.62711],[91.49511,53.62739],[91.5002,53.62936],[91.50207,53.63039],[91.5075,53.63069],[91.50703,53.63687],[91.50903,53.63919],[91.5094,53.64014],[91.51617,53.64057],[91.51854,53.64129],[91.52364,53.64126],[91.52407,53.63729],[91.52431,53.62973],[91.52423,53.62427],[91.52392,53.6233],[91.52413,53.62182],[91.53325,53.62228],[91.54354,53.62494],[91.54809,53.62777],[91.55099,53.63103],[91.54615,53.63269],[91.54028,53.63718],[91.53772,53.63948],[91.53615,53.64142],[91.53462,53.64561],[91.5392,53.64709],[91.54033,53.64782],[91.54397,53.65133],[91.54392,53.65229],[91.54351,53.65269],[91.5431,53.65242],[91.54148,53.65339],[91.5389,53.65547],[91.53509,53.66386],[91.5358,53.66401],[91.53123,53.6699],[91.53083,53.66981],[91.52786,53.67356],[91.52827,53.67369],[91.52735,53.67485],[91.5288,53.67512],[91.5285,53.67545],[91.52793,53.67754],[91.52602,53.68002],[91.52654,53.68017],[91.52285,53.68489],[91.51974,53.68405],[91.51565,53.6895],[91.51533,53.68947],[91.51406,53.6911],[91.51899,53.69188],[91.52265,53.69025],[91.528,53.68905],[91.53276,53.6888],[91.53944,53.68891],[91.54486,53.68939],[91.55138,53.69108],[91.56433,53.69377],[91.56673,53.69539],[91.56885,53.69772],[91.56993,53.69936],[91.57041,53.70097],[91.57018,53.70398],[91.56946,53.70585],[91.56837,53.70746],[91.56537,53.70879],[91.56386,53.7092],[91.55921,53.70949],[91.55432,53.71032],[91.54875,53.70992],[91.54617,53.71029],[91.54781,53.71176],[91.54677,53.71289],[91.54558,53.71259],[91.54371,53.71158],[91.53689,53.71491],[91.53007,53.71682],[91.52821,53.7176],[91.51491,53.72557],[91.51629,53.72683],[91.51371,53.72972],[91.51196,53.73011],[91.48632,53.73049],[91.48089,53.73709],[91.48004,53.73773],[91.47692,53.73979],[91.47214,53.74061],[91.47086,53.74118],[91.46388,53.74598],[91.46131,53.74815],[91.45768,53.74791],[91.4162,53.74891],[91.41331,53.7485],[91.40672,53.75114],[91.40579,53.75062],[91.40161,53.7518],[91.39904,53.75323],[91.39742,53.75297],[91.39752,53.75259],[91.39702,53.75251],[91.39726,53.75187],[91.3989,53.75208],[91.40011,53.7496],[91.39657,53.74889],[91.39582,53.74913],[91.39471,53.74769],[91.39617,53.74729],[91.39411,53.74489],[91.39263,53.74496],[91.39124,53.74328],[91.39203,53.74347],[91.39547,53.74323],[91.39635,53.74449],[91.39892,53.74507],[91.40365,53.74709],[91.40548,53.7483],[91.406,53.74923],[91.41104,53.74705],[91.40946,53.74491],[91.40814,53.74183],[91.40611,53.73933],[91.40557,53.73787],[91.40286,53.73715],[91.40188,53.73662],[91.40149,53.73593],[91.39977,53.7352],[91.39635,53.73425],[91.39533,53.73439],[91.3872,53.73197],[91.38263,53.72977],[91.38072,53.73018],[91.377,53.7276],[91.37689,53.72689],[91.37411,53.72414],[91.37241,53.72322],[91.37083,53.72333],[91.37272,53.72584],[91.37301,53.72667],[91.3729,53.72957],[91.37348,53.73039],[91.37238,53.73058],[91.37262,53.73114],[91.37386,53.73089],[91.37438,53.73161],[91.36565,53.73158],[91.34715,53.73391],[91.34677,53.73414],[91.34263,53.73414],[91.3376,53.7337],[91.33734,53.73264],[91.3383,53.73134],[91.33855,53.73031],[91.33472,53.72879],[91.33101,53.72829],[91.32797,53.72623],[91.3274,53.72537],[91.32598,53.72512],[91.32288,53.72619],[91.31948,53.726],[91.31624,53.72543],[91.31438,53.724],[91.31474,53.72106],[91.31566,53.71829],[91.31848,53.71484],[91.32583,53.71266],[91.32872,53.71279],[91.34256,53.70866],[91.34664,53.70704],[91.35121,53.7058],[91.35859,53.70925],[91.3591,53.70886],[91.36302,53.70122],[91.36517,53.69889],[91.36688,53.69748],[91.35076,53.69301],[91.33495,53.68789],[91.33521,53.68725],[91.33066,53.68527],[91.33605,53.68091],[91.33344,53.67703],[91.34107,53.67043],[91.28369,53.64895]]]}}]}