{"type":"FeatureCollection","features":[{"type":"Feature","properties":{"name":"Саранск","osm":"relation/2307824","licence":"Data © OpenStreetMap contributors, ODbL 1.0. http://osm.org/copyright"},"geometry":{"type":"Polygon","coordinates":[[[45.05548,54.18571],[45.05668,54.18571],[45.0572,54.18104],[45.06251,54.18485],[45.06623,54.18338],[45.075,54.18476],[45.07458,54.1856],[45.07917,54.1862],[45.08009,54.18567],[45.08822,54.18589],[45.09167,54.18477],[45.09009,54.18239],[45.09041,54.18205],[45.09157,54.18288],[45.09491,54.18119],[45.09592,54.1813],[45.09661,54.18219],[45.10222,54.18155],[45.10204,54.17995],[45.10459,54.1797],[45.10763,54.18089],[45.11204,54.17839],[45.11601,54.17769],[45.1195,54.17825],[45.12119,54.17761],[45.12028,54.17764],[45.12023,54.1771],[45.12093,54.17708],[45.12052,54.17659],[45.11912,54.17667],[45.11784,54.17572],[45.11872,54.17491],[45.11951,54.17148],[45.11493,54.17306],[45.11442,54.17273],[45.11481,54.17243],[45.11706,54.17221],[45.11584,54.17178],[45.11656,54.17146],[45.11737,54.17209],[45.11846,54.17167],[45.11793,54.17051],[45.11747,54.17088],[45.11428,54.16954],[45.11392,54.16851],[45.11436,54.16775],[45.11761,54.16775],[45.11793,54.16828],[45.11895,54.16823],[45.11908,54.1676],[45.11351,54.16705],[45.11171,54.16754],[45.11087,54.16684],[45.11045,54.16728],[45.11026,54.16656],[45.1067,54.16485],[45.10459,54.16577],[45.10504,54.16747],[45.10305,54.16664],[45.10186,54.16309],[45.10358,54.16276],[45.10322,54.16009],[45.10825,54.16139],[45.10774,54.16178],[45.1095,54.16272],[45.10934,54.16366],[45.11013,54.1652],[45.11283,54.16701],[45.11909,54.16755],[45.11889,54.16575],[45.11923,54.16752],[45.12093,54.16746],[45.12138,54.16693],[45.12572,54.16654],[45.12461,54.1623],[45.11814,54.16284],[45.12459,54.16225],[45.12355,54.15968],[45.12704,54.15934],[45.12595,54.15796],[45.1281,54.15835],[45.12841,54.15938],[45.12681,54.1595],[45.12884,54.15996],[45.12784,54.15735],[45.1267,54.15771],[45.1278,54.15721],[45.12512,54.15633],[45.13116,54.15658],[45.13528,54.15556],[45.13874,54.1562],[45.14689,54.15349],[45.14998,54.15389],[45.15236,54.15309],[45.15816,54.15412],[45.16104,54.15314],[45.16046,54.15284],[45.16613,54.14981],[45.15632,54.14698],[45.14444,54.13732],[45.14124,54.1333],[45.14002,54.13074],[45.1366,54.12748],[45.13154,54.12057],[45.13241,54.12035],[45.13755,54.12723],[45.14122,54.13043],[45.14073,54.13058],[45.14436,54.13631],[45.15201,54.14298],[45.15796,54.14702],[45.16193,54.14822],[45.16299,54.14762],[45.16262,54.1484],[45.16807,54.14921],[45.18215,54.15648],[45.19031,54.15888],[45.19593,54.16442],[45.20527,54.15978],[45.20682,54.15831],[45.20532,54.15774],[45.20579,54.1575],[45.21217,54.15913],[45.20375,54.16553],[45.21165,54.16899],[45.21383,54.17066],[45.21408,54.17235],[45.21327,54.17283],[45.21518,54.17486],[45.21652,54.1749],[45.21604,54.17525],[45.21666,54.17537],[45.21683,54.17622],[45.22001,54.17434],[45.22351,54.17083],[45.22562,54.17206],[45.22784,54.17079],[45.23027,54.17176],[45.23802,54.17157],[45.23925,54.16999],[45.24241,54.16839],[45.24263,54.16729],[45.2551,54.17248],[45.27166,54.17681],[45.26892,54.17703],[45.26259,54.17555],[45.25784,54.17571],[45.25497,54.17668],[45.25463,54.17783],[45.26054,54.17708],[45.26363,54.17734],[45.26392,54.17981],[45.25617,54.18205],[45.25625,54.1826],[45.27383,54.18204],[45.27904,54.18657],[45.28076,54.18552],[45.28326,54.1856],[45.28136,54.18515],[45.28174,54.18435],[45.28783,54.18283],[45.29115,54.18619],[45.29539,54.194],[45.29586,54.19555],[45.29475,54.19581],[45.29531,54.19614],[45.29332,54.19575],[45.30041,54.1975],[45.3059,54.19791],[45.30008,54.19775],[45.29663,54.19698],[45.29472,54.19881],[45.29462,54.20369],[45.29395,54.20582],[45.27964,54.21495],[45.27787,54.21413],[45.27763,54.21447],[45.28589,54.2185],[45.28623,54.21965],[45.27821,54.22452],[45.27321,54.22974],[45.26725,54.23403],[45.26443,54.23421],[45.26548,54.23509],[45.26101,54.23716],[45.26154,54.23753],[45.26251,54.23712],[45.27586,54.24695],[45.27434,54.24778],[45.28767,54.256],[45.28816,54.25845],[45.29065,54.2588],[45.29408,54.26065],[45.28323,54.26174],[45.28002,54.26273],[45.27787,54.26168],[45.27818,54.25891],[45.27244,54.25976],[45.26905,54.26091],[45.267,54.2601],[45.26476,54.25776],[45.26514,54.25696],[45.26418,54.25352],[45.25954,54.25183],[45.2451,54.25154],[45.23826,54.24611],[45.23539,54.24635],[45.23532,54.24396],[45.23363,54.24272],[45.23075,54.24342],[45.23015,54.24253],[45.21393,54.2426],[45.20786,54.24365],[45.20312,54.24361],[45.20328,54.24673],[45.21376,54.24773],[45.15247,54.24354],[45.15081,54.24378],[45.1501,54.24467],[45.14725,54.2429],[45.1291,54.24208],[45.12901,54.24049],[45.12781,54.23853],[45.12852,54.2363],[45.12722,54.23363],[45.12613,54.23357],[45.11873,54.22949],[45.1158,54.23051],[45.11503,54.2301],[45.11323,54.22789],[45.10714,54.2229],[45.10897,54.22183],[45.10735,54.22078],[45.10781,54.2206],[45.10657,54.21919],[45.10146,54.22093],[45.09861,54.21723],[45.10241,54.21595],[45.09974,54.21322],[45.1011,54.21304],[45.10319,54.21042],[45.10477,54.20982],[45.10444,54.20887],[45.10533,54.20561],[45.10871,54.20559],[45.11255,54.20349],[45.11593,54.20286],[45.11745,54.20668],[45.12303,54.20694],[45.1238,54.20813],[45.1285,54.20781],[45.13534,54.20549],[45.13676,54.20327],[45.13668,54.1987],[45.13718,54.19774],[45.13654,54.19744],[45.14012,54.19603],[45.13775,54.1951],[45.13168,54.19608],[45.12201,54.19589],[45.11282,54.19481],[45.11089,54.1952],[45.10629,54.19435],[45.10463,54.195],[45.10614,54.19702],[45.10778,54.19806],[45.09997,54.19845],[45.09987,54.19789],[45.0974,54.19717],[45.09803,54.19579],[45.0941,54.19442],[45.09297,54.19014],[45.07822,54.18767],[45.07707,54.19056],[45.07548,54.19184],[45.07126,54.19121],[45.07168,54.19182],[45.06984,54.19159],[45.06974,54.19093],[45.06776,54.18991],[45.06707,54.18859],[45.06647,54.19026],[45.06517,54.19112],[45.06649,54.19345],[45.07054,54.19349],[45.07033,54.19791],[45.06836,54.19794],[45.06849,54.20001],[45.06825,54.19795],[45.0643,54.19796],[45.05548,54.18571]]]}}]}