{"type":"FeatureCollection","features":[{"type":"Feature","properties":{"name":"Ханты-Мансийск","osm":"relation/2339614","licence":"Data © OpenStreetMap contributors, ODbL 1.0. http://osm.org/copyright"},"geometry":{"type":"Polygon","coordinates":[[[68.93161,61.05708],[68.93263,61.05159],[68.93394,61.04926],[68.93892,61.0435],[68.95461,61.03445],[68.9646,61.02982],[68.97136,61.0242],[68.97777,61.0165],[68.98362,61.00224],[68.9843,61.00186],[68.98665,60.99396],[68.98661,60.99179],[68.98725,60.98988],[68.96083,60.9875],[68.96104,60.98684],[68.96279,60.98584],[68.96234,60.98432],[68.96777,60.9779],[68.97041,60.97218],[68.97152,60.97101],[68.97132,60.97034],[68.9735,60.96746],[68.97483,60.95988],[68.97491,60.95349],[68.97566,60.95146],[68.97773,60.94932],[68.9817,60.94759],[68.98426,60.94713],[68.99028,60.94761],[68.99461,60.94519],[69.0042,60.94131],[69.01266,60.93988],[69.01201,60.94154],[69.01274,60.9468],[69.01525,60.94975],[69.01918,60.95237],[69.02156,60.95298],[69.03931,60.95313],[69.05063,60.95537],[69.0586,60.95803],[69.06731,60.9618],[69.07062,60.96444],[69.07534,60.96726],[69.07671,60.96766],[69.08235,60.96823],[69.07362,60.96307],[69.0839,60.96128],[69.08725,60.96636],[69.09169,60.9673],[69.08815,60.97214],[69.08178,60.97084],[69.08038,60.97088],[69.08327,60.97433],[69.08858,60.98432],[69.08984,60.98524],[69.09229,60.98551],[69.09534,60.98674],[69.09948,60.98752],[69.10186,60.98733],[69.10609,60.98778],[69.11057,60.98724],[69.11783,60.98552],[69.12318,60.98335],[69.12483,60.98209],[69.12752,60.97903],[69.12859,60.97663],[69.13009,60.97476],[69.13314,60.96921],[69.1331,60.968],[69.13799,60.96573],[69.14529,60.96121],[69.15286,60.95714],[69.16482,60.95284],[69.1778,60.94907],[69.18143,60.94731],[69.19108,60.94461],[69.18878,60.94373],[69.18435,60.94342],[69.18129,60.94381],[69.17838,60.94345],[69.15844,60.94605],[69.15214,60.9444],[69.15559,60.9439],[69.1532,60.94285],[69.15776,60.94142],[69.15452,60.93989],[69.14467,60.94098],[69.13361,60.93718],[69.13348,60.93663],[69.13689,60.93632],[69.13707,60.93592],[69.13453,60.9343],[69.13446,60.93387],[69.13373,60.93364],[69.13125,60.93128],[69.13073,60.9293],[69.13325,60.92614],[69.13368,60.92356],[69.13307,60.92295],[69.13527,60.92086],[69.13796,60.92032],[69.14094,60.92054],[69.15756,60.92505],[69.16466,60.9253],[69.17198,60.925],[69.17604,60.92578],[69.18684,60.92591],[69.18575,60.92794],[69.18572,60.92971],[69.18834,60.93866],[69.19132,60.94091],[69.19444,60.94188],[69.19366,60.94258],[69.19655,60.94306],[69.19746,60.95505],[69.19882,60.95521],[69.20215,60.9568],[69.21365,60.95726],[69.22262,60.95644],[69.24476,60.95821],[69.2488,60.95762],[69.25365,60.95575],[69.27008,60.95449],[69.27855,60.95572],[69.28563,60.95851],[69.28981,60.96125],[69.29231,60.96417],[69.28819,60.9627],[69.28519,60.96239],[69.28242,60.96267],[69.2792,60.96391],[69.27811,60.96481],[69.27781,60.96612],[69.27964,60.96869],[69.27957,60.96944],[69.2789,60.97045],[69.27615,60.9722],[69.27829,60.97347],[69.28129,60.97419],[69.28553,60.97451],[69.2902,60.9764],[69.28662,60.97795],[69.28637,60.97926],[69.28527,60.98059],[69.2789,60.98424],[69.27876,60.98569],[69.28128,60.98939],[69.28086,60.99057],[69.27918,60.99154],[69.27846,60.9925],[69.27776,60.99466],[69.28023,60.99605],[69.28158,60.99632],[69.28171,60.99684],[69.28104,60.99759],[69.28214,60.99823],[69.28713,60.99927],[69.29077,60.99877],[69.29321,60.99929],[69.2934,61.0013],[69.29721,61.00235],[69.29947,61.00414],[69.2958,61.00706],[69.29843,61.00929],[69.29991,61.00999],[69.31339,61.01268],[69.3282,61.01332],[69.34164,61.01746],[69.34381,61.01753],[69.34572,61.01658],[69.34582,61.01564],[69.34485,61.01299],[69.34515,61.01242],[69.34657,61.01168],[69.35053,61.01134],[69.36027,61.01237],[69.36582,61.01186],[69.36869,61.01079],[69.37872,61.00331],[69.3806,61.00284],[69.38299,61.00289],[69.39108,61.0047],[69.39247,61.00419],[69.3949,61.00169],[69.39638,61.00128],[69.40761,61.00397],[69.41049,61.0041],[69.41201,61.00374],[69.41392,61.00557],[69.41357,61.00678],[69.41396,61.00839],[69.41857,61.00968],[69.41835,61.02067],[69.35189,61.03603],[69.3381,61.0379],[69.33647,61.03514],[69.33581,61.0351],[69.33501,61.03408],[69.33295,61.03356],[69.32963,61.03617],[69.33077,61.0375],[69.33067,61.03844],[69.32756,61.04426],[69.32505,61.0458],[69.3261,61.04719],[69.32638,61.04827],[69.32566,61.04831],[69.32573,61.04872],[69.32489,61.04898],[69.31899,61.04684],[69.29831,61.06923],[69.29644,61.07194],[69.29618,61.07322],[69.29424,61.07451],[69.29393,61.08333],[69.29096,61.08703],[69.2785,61.09065],[69.2737,61.09553],[69.26574,61.10111],[69.26399,61.10282],[69.25843,61.11067],[69.25611,61.11232],[69.25329,61.11307],[69.25,61.11289],[69.24865,61.11215],[69.23805,61.09962],[69.2356,61.09747],[69.22747,61.09178],[69.21973,61.08741],[69.21403,61.08459],[69.2038,61.08172],[69.20327,61.08141],[69.20401,61.08116],[69.20279,61.08073],[69.20402,61.08069],[69.20337,61.08036],[69.19816,61.07928],[69.19119,61.0786],[69.16478,61.08014],[69.15459,61.08297],[69.14918,61.08559],[69.12872,61.09961],[69.12453,61.10182],[69.10874,61.10839],[69.0995,61.1087],[69.08464,61.10824],[69.06338,61.10524],[69.05397,61.10255],[69.05137,61.1015],[69.04359,61.09717],[69.03275,61.0938],[69.01954,61.09148],[68.99812,61.08884],[68.98966,61.0867],[68.98538,61.08384],[68.98359,61.08126],[68.98293,61.07968],[68.98211,61.07315],[68.98066,61.0708],[68.97676,61.06805],[68.97113,61.06551],[68.96314,61.06446],[68.95456,61.06486],[68.94668,61.0663],[68.93969,61.06855],[68.93663,61.0668],[68.93187,61.06307],[68.93161,61.05708]]]}}]}