{"type":"FeatureCollection","features":[{"type":"Feature","properties":{"name":"Киров","osm":"relation/2383150","licence":"Data © OpenStreetMap contributors, ODbL 1.0. http://osm.org/copyright"},"geometry":{"type":"Polygon","coordinates":[[[49.52735,58.63867],[49.53698,58.63547],[49.53651,58.63211],[49.53131,58.62906],[49.5376,58.62782],[49.53353,58.62374],[49.5433,58.61343],[49.5629,58.61348],[49.57121,58.61079],[49.5666,58.60358],[49.56915,58.59983],[49.56999,58.59531],[49.56919,58.59528],[49.56911,58.59117],[49.5623,58.59118],[49.56243,58.58294],[49.56032,58.58294],[49.5467,58.5782],[49.54616,58.5768],[49.54414,58.57671],[49.54246,58.57307],[49.54538,58.5732],[49.5477,58.5694],[49.54521,58.56901],[49.54786,58.56727],[49.56053,58.57172],[49.56504,58.56873],[49.56603,58.56775],[49.56508,58.56751],[49.57741,58.56079],[49.58096,58.56146],[49.58217,58.55998],[49.5836,58.56034],[49.58551,58.55814],[49.58846,58.55798],[49.58619,58.55223],[49.5727,58.5538],[49.57196,58.55228],[49.56216,58.55067],[49.56452,58.54656],[49.57462,58.54238],[49.59155,58.5434],[49.59353,58.54264],[49.60364,58.54903],[49.60512,58.54831],[49.61011,58.55028],[49.61064,58.55233],[49.61589,58.55445],[49.62141,58.55878],[49.6338,58.55913],[49.64242,58.56054],[49.64555,58.55973],[49.6513,58.55281],[49.64204,58.54761],[49.65035,58.53984],[49.64941,58.53806],[49.65266,58.53671],[49.64846,58.53606],[49.6498,58.53478],[49.64707,58.53349],[49.64785,58.53155],[49.64581,58.53235],[49.64121,58.52922],[49.63519,58.52756],[49.63418,58.5246],[49.63199,58.52354],[49.63257,58.52265],[49.63116,58.52219],[49.63197,58.52137],[49.6306,58.52094],[49.63124,58.52022],[49.63037,58.52007],[49.63089,58.51964],[49.62966,58.51912],[49.62861,58.51692],[49.62709,58.51653],[49.62005,58.51073],[49.61425,58.50948],[49.6172,58.50156],[49.6236,58.49913],[49.6236,58.4966],[49.63945,58.49511],[49.64645,58.49144],[49.64999,58.48721],[49.66019,58.48884],[49.66497,58.49099],[49.68938,58.4934],[49.68991,58.49251],[49.69484,58.49335],[49.69701,58.49235],[49.70083,58.49305],[49.70108,58.4923],[49.70706,58.4922],[49.7054,58.49015],[49.71544,58.48847],[49.715,58.4873],[49.71619,58.48481],[49.72925,58.48742],[49.72803,58.48938],[49.73122,58.49064],[49.73244,58.48807],[49.73324,58.48828],[49.73707,58.48488],[49.73678,58.48426],[49.74104,58.48204],[49.74777,58.48384],[49.75003,58.48232],[49.75435,58.48389],[49.75712,58.48302],[49.76815,58.48793],[49.76353,58.50034],[49.7558,58.50627],[49.74496,58.5028],[49.73041,58.50111],[49.72526,58.50216],[49.71518,58.5077],[49.71267,58.51021],[49.70928,58.5171],[49.70398,58.52368],[49.70046,58.53122],[49.69858,58.53324],[49.69629,58.53757],[49.69389,58.54572],[49.69524,58.56259],[49.69729,58.56939],[49.69888,58.57176],[49.70803,58.57923],[49.7192,58.58639],[49.72051,58.59053],[49.71936,58.59212],[49.74265,58.59263],[49.74305,58.59512],[49.74172,58.5984],[49.74343,58.60191],[49.7435,58.6064],[49.75032,58.60748],[49.75177,58.60669],[49.75417,58.60718],[49.75586,58.60505],[49.76763,58.60461],[49.75829,58.59875],[49.75998,58.59794],[49.77496,58.59809],[49.77507,58.59927],[49.79605,58.60828],[49.79843,58.61024],[49.80784,58.61178],[49.80707,58.61727],[49.80841,58.61755],[49.80735,58.61936],[49.80791,58.61993],[49.79992,58.62625],[49.79292,58.62446],[49.78421,58.62366],[49.78217,58.62541],[49.77939,58.62489],[49.77876,58.62598],[49.76905,58.6301],[49.76408,58.63503],[49.76424,58.63684],[49.75873,58.64187],[49.77214,58.64732],[49.77222,58.6483],[49.7749,58.65043],[49.77418,58.65175],[49.76755,58.65211],[49.76115,58.6505],[49.75707,58.65514],[49.74595,58.65262],[49.74452,58.65337],[49.74558,58.65431],[49.74432,58.65524],[49.73265,58.65844],[49.70541,58.67705],[49.70149,58.67874],[49.69888,58.67856],[49.68814,58.68694],[49.68089,58.69497],[49.67756,58.69407],[49.66355,58.70226],[49.65837,58.69861],[49.64316,58.6916],[49.63827,58.69066],[49.64079,58.68635],[49.64782,58.67849],[49.65903,58.67616],[49.65907,58.67317],[49.66492,58.67088],[49.66003,58.66832],[49.66251,58.66588],[49.67789,58.65723],[49.68685,58.65468],[49.68777,58.65683],[49.69367,58.65475],[49.69895,58.6513],[49.70372,58.64553],[49.70199,58.64261],[49.70645,58.64188],[49.70531,58.63924],[49.69748,58.63794],[49.69304,58.63908],[49.68975,58.63876],[49.68881,58.63939],[49.69607,58.6421],[49.69658,58.64285],[49.6944,58.64432],[49.68681,58.6428],[49.67188,58.64833],[49.67733,58.65168],[49.67362,58.65307],[49.66756,58.65352],[49.66831,58.65634],[49.66722,58.65904],[49.66158,58.6631],[49.65302,58.66339],[49.6473,58.66183],[49.64664,58.66137],[49.64861,58.65816],[49.65333,58.65496],[49.64742,58.6526],[49.64225,58.6519],[49.6369,58.65385],[49.63604,58.65602],[49.62703,58.6619],[49.62668,58.66347],[49.62344,58.66501],[49.61781,58.66545],[49.60718,58.66474],[49.60501,58.65993],[49.60165,58.65972],[49.59906,58.66316],[49.58962,58.66175],[49.58497,58.6589],[49.57241,58.65516],[49.57126,58.65412],[49.57402,58.65287],[49.57381,58.65192],[49.57762,58.6525],[49.58164,58.65005],[49.58523,58.6496],[49.57259,58.64211],[49.57055,58.63883],[49.56619,58.6397],[49.56537,58.63861],[49.56651,58.63783],[49.56387,58.63405],[49.53034,58.64207],[49.52735,58.63867]]]}}]}