{"type":"FeatureCollection","features":[{"type":"Feature","properties":{"name":"Брянск","osm":"relation/2401506","licence":"Data © OpenStreetMap contributors, ODbL 1.0. http://osm.org/copyright"},"geometry":{"type":"Polygon","coordinates":[[[34.1933,53.32201],[34.2125,53.31233],[34.2142,53.31338],[34.21754,53.31249],[34.21182,53.31132],[34.20473,53.31391],[34.2003,53.31121],[34.20424,53.30002],[34.20441,53.29429],[34.20991,53.29484],[34.21062,53.2986],[34.21445,53.29874],[34.214,53.29347],[34.21518,53.29259],[34.21426,53.2912],[34.21743,53.28947],[34.22304,53.29206],[34.21916,53.29441],[34.22969,53.30199],[34.22688,53.29873],[34.23628,53.29318],[34.23561,53.29191],[34.23721,53.29127],[34.23501,53.28982],[34.22737,53.28913],[34.23084,53.28644],[34.24728,53.29403],[34.25927,53.295],[34.24735,53.29388],[34.24059,53.2901],[34.2416,53.28948],[34.24416,53.29104],[34.25463,53.29036],[34.25802,53.29169],[34.26832,53.28866],[34.27755,53.28325],[34.28507,53.28167],[34.2932,53.28641],[34.30279,53.28534],[34.2986,53.27702],[34.30533,53.27593],[34.30354,53.27403],[34.31036,53.27424],[34.30953,53.27096],[34.3138,53.26623],[34.30745,53.26205],[34.31345,53.25914],[34.32601,53.25656],[34.32534,53.25461],[34.31534,53.2535],[34.31059,53.2512],[34.32016,53.24489],[34.31811,53.24183],[34.31358,53.24169],[34.31242,53.23649],[34.3151,53.23466],[34.306,53.23016],[34.30818,53.2282],[34.30738,53.22748],[34.31826,53.22418],[34.31615,53.22306],[34.31516,53.22014],[34.3198,53.21921],[34.32318,53.21684],[34.32421,53.21805],[34.33064,53.21816],[34.33676,53.22055],[34.3541,53.21856],[34.35725,53.2165],[34.35856,53.2127],[34.36382,53.2115],[34.36669,53.21292],[34.37221,53.20831],[34.37668,53.20784],[34.37233,53.20624],[34.37114,53.20358],[34.37501,53.20376],[34.37748,53.20232],[34.37718,53.20102],[34.38105,53.19982],[34.38391,53.19377],[34.38962,53.19099],[34.39643,53.1914],[34.39848,53.18926],[34.41085,53.18665],[34.41399,53.18451],[34.42122,53.18447],[34.46159,53.19964],[34.45723,53.20211],[34.45984,53.20509],[34.46819,53.20198],[34.47839,53.20543],[34.46393,53.20788],[34.4671,53.20817],[34.46961,53.21086],[34.46733,53.21171],[34.47123,53.21334],[34.4589,53.21691],[34.45684,53.21388],[34.44832,53.21571],[34.44757,53.21791],[34.45037,53.22139],[34.45861,53.2179],[34.45647,53.22134],[34.45302,53.22331],[34.45402,53.2244],[34.44601,53.22825],[34.44197,53.23182],[34.4434,53.23417],[34.44788,53.23479],[34.45514,53.22986],[34.46141,53.22759],[34.46248,53.22553],[34.46633,53.22511],[34.46967,53.22276],[34.48291,53.22258],[34.49675,53.22484],[34.49294,53.22689],[34.48677,53.22626],[34.48187,53.22842],[34.48036,53.23084],[34.47571,53.23062],[34.46973,53.23422],[34.46799,53.237],[34.45847,53.23779],[34.45794,53.23879],[34.46037,53.23951],[34.45785,53.24195],[34.45441,53.23939],[34.4541,53.24113],[34.44826,53.24177],[34.47633,53.26202],[34.46478,53.26718],[34.4623,53.2643],[34.46724,53.26276],[34.46845,53.26126],[34.46751,53.26005],[34.46129,53.25943],[34.46272,53.25912],[34.46237,53.25785],[34.45095,53.25682],[34.45067,53.25893],[34.44681,53.25923],[34.44791,53.26037],[34.4435,53.26436],[34.44851,53.26442],[34.44551,53.27441],[34.45038,53.27589],[34.44986,53.27692],[34.43653,53.27582],[34.42851,53.28316],[34.42429,53.28405],[34.43023,53.28746],[34.42296,53.28601],[34.42237,53.28754],[34.41407,53.28735],[34.40377,53.28965],[34.40134,53.29279],[34.39107,53.29893],[34.3893,53.29797],[34.39874,53.31047],[34.40572,53.31508],[34.39972,53.31228],[34.38888,53.29807],[34.37744,53.2906],[34.37752,53.28833],[34.35755,53.29427],[34.35793,53.30169],[34.34241,53.30654],[34.34179,53.30497],[34.34468,53.30417],[34.34312,53.29937],[34.35002,53.30048],[34.35239,53.29727],[34.34114,53.2898],[34.33489,53.28971],[34.33591,53.28538],[34.32872,53.28623],[34.33053,53.29107],[34.32985,53.29235],[34.3309,53.2933],[34.33515,53.29218],[34.33706,53.29391],[34.33714,53.29513],[34.33328,53.29694],[34.33494,53.29941],[34.33429,53.30047],[34.34195,53.30145],[34.34062,53.30452],[34.34159,53.30844],[34.33985,53.31025],[34.3429,53.31094],[34.34225,53.31303],[34.34534,53.31486],[34.337,53.31595],[34.34026,53.31757],[34.33631,53.31817],[34.33838,53.32042],[34.33703,53.32184],[34.33748,53.32358],[34.33383,53.32525],[34.33556,53.32689],[34.32284,53.32638],[34.31734,53.32976],[34.31657,53.33863],[34.31868,53.34054],[34.31805,53.34383],[34.32484,53.35005],[34.32439,53.35229],[34.32596,53.35581],[34.32483,53.36595],[34.32813,53.37228],[34.32629,53.37379],[34.32191,53.37457],[34.31484,53.36858],[34.30633,53.36648],[34.306,53.36512],[34.29789,53.36391],[34.29244,53.35745],[34.30894,53.35241],[34.3098,53.34782],[34.29864,53.3483],[34.29879,53.35179],[34.2932,53.3509],[34.29309,53.34924],[34.28896,53.34917],[34.28989,53.35377],[34.29595,53.36212],[34.28815,53.36483],[34.28789,53.36641],[34.28284,53.36662],[34.28197,53.36797],[34.26375,53.36814],[34.27472,53.36265],[34.26344,53.35653],[34.25766,53.358],[34.25664,53.3569],[34.26326,53.35066],[34.28228,53.35477],[34.28818,53.34465],[34.28659,53.34508],[34.28667,53.34389],[34.28819,53.34456],[34.28824,53.34267],[34.28282,53.34041],[34.28367,53.3361],[34.27441,53.33663],[34.27204,53.33566],[34.27246,53.33474],[34.26312,53.33215],[34.25831,53.33323],[34.25158,53.33521],[34.25319,53.33718],[34.25139,53.33526],[34.24495,53.33695],[34.24638,53.34043],[34.24499,53.34365],[34.23986,53.34737],[34.22729,53.34697],[34.22596,53.34482],[34.22144,53.34297],[34.21455,53.34288],[34.21201,53.33946],[34.20569,53.34128],[34.21049,53.33941],[34.20809,53.33822],[34.20784,53.33462],[34.21467,53.33221],[34.21276,53.32843],[34.22518,53.32442],[34.22401,53.32131],[34.24051,53.31348],[34.23617,53.30839],[34.21462,53.31467],[34.21258,53.3174],[34.19921,53.32271],[34.19526,53.3233],[34.1933,53.32201]]]}}]}