{"type":"FeatureCollection","features":[{"type":"Feature","properties":{"name":"Тула","osm":"relation/2538203","licence":"Data © OpenStreetMap contributors, ODbL 1.0. http://osm.org/copyright"},"geometry":{"type":"Polygon","coordinates":[[[37.49869,54.15958],[37.50112,54.15735],[37.54763,54.15787],[37.54762,54.16854],[37.54135,54.16683],[37.54658,54.16969],[37.55476,54.16865],[37.55315,54.15784],[37.55607,54.15781],[37.55672,54.15361],[37.53925,54.14057],[37.52011,54.13618],[37.52189,54.13398],[37.5178,54.13335],[37.51151,54.12461],[37.51975,54.12502],[37.53687,54.13433],[37.53352,54.13037],[37.53752,54.12729],[37.52928,54.12412],[37.52408,54.12691],[37.51694,54.12225],[37.52898,54.12236],[37.52924,54.11398],[37.52545,54.11318],[37.52753,54.11098],[37.54324,54.11507],[37.53849,54.10977],[37.55192,54.10723],[37.54978,54.09769],[37.56646,54.09457],[37.56812,54.08773],[37.57009,54.09465],[37.58595,54.09511],[37.59527,54.08937],[37.59918,54.09371],[37.61903,54.08979],[37.63592,54.09442],[37.63002,54.10245],[37.62483,54.10192],[37.62641,54.10665],[37.62038,54.10579],[37.6221,54.10853],[37.62,54.1098],[37.61011,54.10629],[37.61541,54.11209],[37.63415,54.10928],[37.6404,54.11514],[37.63021,54.11509],[37.63659,54.12181],[37.62023,54.11985],[37.63137,54.11729],[37.62959,54.11522],[37.61835,54.1158],[37.61534,54.1126],[37.60728,54.11176],[37.60953,54.11657],[37.60762,54.11898],[37.61249,54.12224],[37.59636,54.1293],[37.60268,54.13355],[37.59796,54.13518],[37.60418,54.14193],[37.61176,54.12857],[37.61081,54.13423],[37.6165,54.13727],[37.61596,54.14336],[37.60466,54.14228],[37.60075,54.1461],[37.60669,54.15082],[37.61461,54.14949],[37.61643,54.15466],[37.62204,54.15383],[37.62453,54.15829],[37.6191,54.16013],[37.62921,54.16101],[37.62961,54.15869],[37.62774,54.15594],[37.63032,54.15082],[37.62081,54.14602],[37.63985,54.14438],[37.65311,54.13751],[37.65927,54.14202],[37.64035,54.14962],[37.63764,54.16095],[37.64658,54.16768],[37.63737,54.17171],[37.658,54.19206],[37.67346,54.19087],[37.68525,54.18585],[37.68965,54.17893],[37.68591,54.17536],[37.68829,54.17288],[37.70345,54.16812],[37.6977,54.16564],[37.70443,54.16236],[37.69478,54.15023],[37.71375,54.13794],[37.72781,54.13724],[37.73686,54.1334],[37.72994,54.13836],[37.73167,54.14166],[37.72707,54.14536],[37.7318,54.15048],[37.74089,54.15323],[37.74157,54.15647],[37.71702,54.17531],[37.72155,54.17792],[37.71708,54.18011],[37.72163,54.18327],[37.72008,54.18761],[37.72598,54.18419],[37.73304,54.18585],[37.73012,54.18892],[37.73098,54.2014],[37.72291,54.1997],[37.72248,54.20238],[37.7178,54.20298],[37.71782,54.19952],[37.70379,54.19924],[37.70759,54.20484],[37.70397,54.20668],[37.70669,54.20943],[37.72078,54.20641],[37.73406,54.20834],[37.7035,54.21203],[37.70161,54.21381],[37.70533,54.21684],[37.69996,54.21947],[37.71717,54.21609],[37.71905,54.22014],[37.71803,54.22291],[37.70891,54.22538],[37.70842,54.21823],[37.70375,54.21933],[37.70109,54.22763],[37.6894,54.22966],[37.69407,54.23379],[37.69795,54.23234],[37.69892,54.23477],[37.69568,54.23609],[37.6847,54.23197],[37.68063,54.23533],[37.67095,54.23209],[37.66789,54.24216],[37.66445,54.24382],[37.68807,54.25157],[37.68359,54.25558],[37.67042,54.25292],[37.6585,54.2577],[37.65242,54.25676],[37.64294,54.26812],[37.63727,54.27296],[37.63276,54.27125],[37.6115,54.29176],[37.62053,54.29609],[37.62194,54.29891],[37.61838,54.29989],[37.6085,54.2979],[37.60377,54.28625],[37.60953,54.28334],[37.612,54.27598],[37.59915,54.27569],[37.59241,54.26287],[37.58236,54.25826],[37.5773,54.26034],[37.58106,54.25205],[37.59138,54.25415],[37.58655,54.2502],[37.5893,54.24865],[37.58505,54.24601],[37.58644,54.24359],[37.57879,54.24328],[37.57968,54.23391],[37.59134,54.23746],[37.59158,54.23251],[37.59578,54.22899],[37.58735,54.22598],[37.57986,54.2336],[37.57065,54.2342],[37.58201,54.22164],[37.56876,54.21705],[37.57528,54.21024],[37.57047,54.21412],[37.56929,54.21035],[37.55891,54.20986],[37.56693,54.21316],[37.56569,54.21707],[37.55987,54.21792],[37.55944,54.22828],[37.55526,54.22883],[37.54585,54.2189],[37.54011,54.21949],[37.53556,54.21489],[37.53751,54.20802],[37.53097,54.20427],[37.51902,54.20729],[37.5227,54.20277],[37.52963,54.20322],[37.52856,54.2011],[37.51933,54.19873],[37.51562,54.20227],[37.51746,54.20308],[37.50658,54.20515],[37.50556,54.19971],[37.50965,54.20068],[37.5143,54.1965],[37.5121,54.19256],[37.50515,54.19875],[37.50303,54.18778],[37.51106,54.19035],[37.51162,54.1867],[37.52049,54.19135],[37.52242,54.18666],[37.52291,54.19046],[37.5304,54.18746],[37.50994,54.18079],[37.51235,54.17605],[37.49941,54.17004],[37.50178,54.16077],[37.49869,54.15958]]]}}]}