{"type":"FeatureCollection","features":[{"type":"Feature","properties":{"name":"Пенза","osm":"relation/2552696","licence":"Data © OpenStreetMap contributors, ODbL 1.0. http://osm.org/copyright"},"geometry":{"type":"Polygon","coordinates":[[[44.82976,53.24571],[44.8396,53.24323],[44.8438,53.24006],[44.85459,53.2379],[44.85878,53.23593],[44.85683,53.23468],[44.86063,53.23206],[44.85881,53.23152],[44.85938,53.22771],[44.86535,53.22902],[44.86966,53.22258],[44.87513,53.21763],[44.87853,53.21646],[44.87545,53.20911],[44.88386,53.20849],[44.89018,53.20181],[44.88845,53.18848],[44.89577,53.18885],[44.89795,53.1871],[44.90059,53.18758],[44.90152,53.18878],[44.90495,53.18817],[44.91777,53.17393],[44.91685,53.16923],[44.92788,53.16187],[44.93053,53.16242],[44.92255,53.17186],[44.93132,53.17469],[44.94198,53.16356],[44.94388,53.16409],[44.9517,53.15842],[44.95277,53.1572],[44.94623,53.15506],[44.94751,53.15403],[44.94644,53.15402],[44.94715,53.14718],[44.95662,53.14775],[44.95666,53.14709],[44.94815,53.14445],[44.94273,53.14981],[44.94236,53.15373],[44.927,53.14762],[44.92852,53.14309],[44.95711,53.14344],[44.96292,53.14539],[44.96877,53.13787],[44.96648,53.1358],[44.96228,53.13735],[44.95914,53.13622],[44.9547,53.13672],[44.95318,53.13373],[44.957,53.13268],[44.95927,53.13082],[44.95657,53.12952],[44.95457,53.12619],[44.95073,53.12554],[44.94851,53.12375],[44.94849,53.12206],[44.94983,53.12086],[44.94937,53.1182],[44.95295,53.12016],[44.95182,53.12098],[44.95442,53.12319],[44.95622,53.12269],[44.95807,53.12369],[44.95439,53.12583],[44.95828,53.13055],[44.96041,53.13048],[44.95903,53.1292],[44.96261,53.12804],[44.96685,53.13293],[44.96829,53.13351],[44.97295,53.13162],[44.97551,53.13154],[44.97596,53.13378],[44.97946,53.1348],[44.98063,53.13632],[44.98601,53.13553],[44.98803,53.13946],[44.9877,53.13588],[44.98905,53.13562],[44.98932,53.13383],[44.98623,53.13244],[44.98899,53.13066],[44.9883,53.12899],[44.98887,53.12785],[44.9869,53.12746],[44.98635,53.12505],[44.9844,53.12504],[44.98441,53.1239],[44.98663,53.12428],[44.98514,53.1225],[44.98977,53.11846],[44.99851,53.11681],[44.99744,53.11466],[45.00036,53.11369],[45.00139,53.10777],[45.00425,53.1066],[45.01082,53.10675],[45.01483,53.1052],[45.02037,53.10749],[45.03943,53.10171],[45.05164,53.09905],[45.06025,53.09902],[45.05563,53.10344],[45.03839,53.10857],[45.03144,53.11336],[45.02816,53.12167],[45.02294,53.12179],[45.02274,53.12358],[45.02532,53.12207],[45.03136,53.12558],[45.02192,53.13152],[45.0216,53.13373],[45.029,53.1335],[45.03469,53.13548],[45.02806,53.14403],[45.02761,53.14579],[45.03088,53.14766],[45.02969,53.14849],[45.04025,53.14969],[45.04095,53.1478],[45.04327,53.14581],[45.05699,53.14228],[45.06238,53.13583],[45.06289,53.13301],[45.06125,53.13052],[45.06236,53.12984],[45.06209,53.12705],[45.06468,53.12462],[45.06324,53.12222],[45.06512,53.11989],[45.07965,53.11683],[45.0828,53.1146],[45.08602,53.11538],[45.08796,53.11966],[45.08587,53.12136],[45.08747,53.12339],[45.0719,53.1251],[45.0739,53.12912],[45.0666,53.13051],[45.06768,53.13205],[45.08365,53.13295],[45.09567,53.13939],[45.09482,53.14183],[45.09617,53.14272],[45.12856,53.15762],[45.13465,53.15731],[45.14264,53.15228],[45.14879,53.15524],[45.1386,53.16278],[45.15746,53.17216],[45.14474,53.18032],[45.13911,53.18121],[45.12485,53.19189],[45.12213,53.20135],[45.11716,53.20812],[45.14467,53.21064],[45.18145,53.20582],[45.18223,53.20535],[45.18207,53.20303],[45.1845,53.20536],[45.2049,53.20275],[45.21101,53.20049],[45.2172,53.19568],[45.22232,53.19761],[45.22697,53.19686],[45.23075,53.19817],[45.23008,53.20053],[45.22731,53.20169],[45.2271,53.20273],[45.22878,53.20517],[45.22955,53.2114],[45.22041,53.22079],[45.23084,53.22095],[45.22693,53.22181],[45.2264,53.22362],[45.22799,53.2234],[45.22167,53.22826],[45.21515,53.25834],[45.21273,53.28044],[45.21064,53.28047],[45.20985,53.27932],[45.20833,53.28],[45.20723,53.27898],[45.20702,53.28009],[45.20587,53.27991],[45.2051,53.28114],[45.19841,53.28061],[45.19935,53.28228],[45.19725,53.28166],[45.19753,53.28287],[45.20077,53.28534],[45.19881,53.28703],[45.19689,53.28732],[45.19595,53.28906],[45.1911,53.28777],[45.19085,53.28569],[45.1899,53.28644],[45.18604,53.28469],[45.18549,53.28575],[45.18338,53.28494],[45.18206,53.28605],[45.17983,53.28623],[45.17507,53.28572],[45.17476,53.28467],[45.1763,53.28378],[45.17068,53.2832],[45.1708,53.28427],[45.16991,53.28463],[45.16879,53.28354],[45.16637,53.28383],[45.16682,53.28146],[45.16571,53.28002],[45.16365,53.28027],[45.16493,53.27905],[45.16373,53.27845],[45.16136,53.27834],[45.16213,53.28014],[45.16113,53.28052],[45.15749,53.28033],[45.15283,53.27865],[45.14566,53.28036],[45.13277,53.27347],[45.13181,53.27123],[45.12884,53.2699],[45.11552,53.27203],[45.11366,53.27086],[45.10948,53.2711],[45.10489,53.26863],[45.0982,53.26062],[45.08779,53.25642],[45.08649,53.25381],[45.09087,53.2517],[45.08972,53.24994],[45.09404,53.24659],[45.09364,53.24562],[45.09066,53.24332],[45.0819,53.24318],[45.07885,53.25359],[45.06857,53.25393],[45.04867,53.25681],[45.04891,53.26492],[45.04585,53.26934],[45.01899,53.26907],[45.01781,53.27212],[45.01463,53.27129],[45.01144,53.27284],[45.00355,53.27289],[44.99642,53.2742],[44.98853,53.27373],[44.97678,53.27899],[44.95627,53.28024],[44.95026,53.282],[44.93474,53.28404],[44.918,53.28427],[44.90962,53.28536],[44.89686,53.28859],[44.89279,53.28633],[44.89202,53.28268],[44.88941,53.28026],[44.87043,53.28219],[44.85078,53.25946],[44.84628,53.25721],[44.84631,53.254],[44.83161,53.24799],[44.82976,53.24571]]]}}]}