{"type":"FeatureCollection","features":[{"type":"Feature","properties":{"name":"Москва","osm":"relation/2555133","licence":"Data © OpenStreetMap contributors, ODbL 1.0. http://osm.org/copyright"},"geometry":{"type":"Polygon","coordinates":[[[37.32623,55.68276],[37.3543,55.67632],[37.3611,55.6821],[37.35507,55.68552],[37.35797,55.69174],[37.36395,55.68777],[37.3679,55.69173],[37.37487,55.68894],[37.40216,55.69884],[37.41748,55.68078],[37.40403,55.67104],[37.41546,55.66476],[37.39413,55.66094],[37.38058,55.66451],[37.378,55.65948],[37.37095,55.65906],[37.36904,55.66892],[37.35289,55.66034],[37.34805,55.66583],[37.34203,55.66013],[37.34713,55.65956],[37.34628,55.65629],[37.3309,55.64731],[37.32982,55.63987],[37.34255,55.63316],[37.35825,55.63476],[37.3764,55.62323],[37.38712,55.63226],[37.39284,55.62741],[37.41007,55.62949],[37.41739,55.64252],[37.4152,55.66016],[37.43421,55.65963],[37.45677,55.64053],[37.45543,55.63722],[37.46078,55.63706],[37.4889,55.61328],[37.48784,55.60839],[37.49118,55.6101],[37.52724,55.58966],[37.54727,55.58666],[37.55118,55.58032],[37.53685,55.57729],[37.53995,55.57604],[37.53724,55.57239],[37.55349,55.56762],[37.55035,55.56293],[37.55426,55.55949],[37.54882,55.55263],[37.52919,55.55525],[37.50777,55.54295],[37.47552,55.5373],[37.47019,55.53405],[37.47098,55.52884],[37.51937,55.5255],[37.53512,55.51796],[37.53797,55.52694],[37.55248,55.52996],[37.57049,55.51682],[37.57713,55.5172],[37.58945,55.55768],[37.60358,55.56459],[37.60032,55.57537],[37.69092,55.57232],[37.69256,55.57712],[37.73217,55.5888],[37.73353,55.59298],[37.78693,55.61665],[37.78385,55.61823],[37.82351,55.63967],[37.84114,55.65519],[37.83252,55.68365],[37.85689,55.6757],[37.86479,55.68735],[37.85818,55.70125],[37.87153,55.6953],[37.88697,55.70522],[37.90701,55.70699],[37.91517,55.69705],[37.93981,55.69801],[37.92825,55.695],[37.91329,55.68332],[37.92047,55.67614],[37.96338,55.67366],[37.96477,55.68617],[37.95788,55.68945],[37.9602,55.69277],[37.94472,55.69712],[37.95974,55.70451],[37.9473,55.7086],[37.94967,55.71134],[37.96408,55.70931],[37.95986,55.71409],[37.96743,55.71625],[37.92359,55.73123],[37.90779,55.72451],[37.88548,55.72419],[37.88692,55.72026],[37.88249,55.719],[37.87245,55.72338],[37.87341,55.72965],[37.86424,55.73472],[37.87801,55.73787],[37.88075,55.7425],[37.89095,55.74219],[37.88825,55.74846],[37.88254,55.74934],[37.84265,55.74673],[37.8434,55.77473],[37.85068,55.77857],[37.84314,55.77924],[37.83976,55.81162],[37.84376,55.81477],[37.83605,55.82422],[37.73038,55.88061],[37.73156,55.88562],[37.72436,55.8838],[37.69872,55.89434],[37.62927,55.89993],[37.59315,55.90895],[37.5912,55.91359],[37.55592,55.90928],[37.56096,55.93227],[37.57021,55.93645],[37.56246,55.95107],[37.57942,55.94947],[37.58071,55.95399],[37.57443,55.95777],[37.55515,55.95153],[37.53744,55.95284],[37.54359,55.94281],[37.51923,55.94194],[37.53632,55.90757],[37.48594,55.8884],[37.46283,55.88322],[37.44242,55.88417],[37.42666,55.87746],[37.40942,55.88069],[37.39929,55.90076],[37.38992,55.90432],[37.39002,55.91284],[37.39871,55.91662],[37.39433,55.92266],[37.39685,55.92617],[37.41062,55.92525],[37.40666,55.93903],[37.42246,55.95131],[37.40972,55.95421],[37.39321,55.94864],[37.39279,55.95227],[37.38158,55.95079],[37.37197,55.95614],[37.35821,55.95564],[37.35349,55.95113],[37.34643,55.95362],[37.34958,55.95729],[37.33503,55.95359],[37.3541,55.93891],[37.33132,55.93387],[37.34371,55.92418],[37.35646,55.92995],[37.37782,55.92111],[37.36603,55.91538],[37.36986,55.9082],[37.36628,55.9067],[37.37068,55.90363],[37.36177,55.90146],[37.36763,55.89804],[37.36564,55.89473],[37.37736,55.89271],[37.37125,55.88335],[37.41143,55.87096],[37.39456,55.8544],[37.37493,55.85517],[37.38003,55.85947],[37.37749,55.86836],[37.34588,55.86294],[37.34044,55.85154],[37.33208,55.8463],[37.349,55.84379],[37.34037,55.83901],[37.34873,55.83222],[37.34482,55.82607],[37.35231,55.82128],[37.35637,55.82266],[37.35401,55.8264],[37.36222,55.8222],[37.36892,55.82802],[37.39392,55.82986],[37.38789,55.80976],[37.37386,55.81259],[37.37175,55.80924],[37.37356,55.80299],[37.37935,55.80917],[37.38679,55.80695],[37.37448,55.79236],[37.36724,55.79038],[37.37062,55.78779],[37.36882,55.77272],[37.36526,55.77173],[37.36864,55.76869],[37.36561,55.76441],[37.36895,55.74598],[37.38431,55.71517],[37.38135,55.71309],[37.39248,55.70592],[37.38794,55.70432],[37.39216,55.69842],[37.37819,55.69684],[37.37674,55.71067],[37.36442,55.7089],[37.37094,55.70369],[37.35577,55.69946],[37.35609,55.70477],[37.34497,55.6984],[37.34386,55.68922],[37.33854,55.68729],[37.33763,55.69352],[37.32943,55.68579],[37.33483,55.68245],[37.32687,55.68296],[37.32929,55.68565],[37.32623,55.68276]]]}}]}