{"type":"FeatureCollection","features":[{"type":"Feature","properties":{"name":"Магадан","osm":"relation/2621518","licence":"Data © OpenStreetMap contributors, ODbL 1.0. http://osm.org/copyright"},"geometry":{"type":"Polygon","coordinates":[[[150.49729,59.48456],[150.50772,59.48075],[150.53565,59.47619],[150.54016,59.47879],[150.53746,59.48539],[150.54398,59.48822],[150.55892,59.48918],[150.58072,59.48493],[150.59114,59.48447],[150.60724,59.4865],[150.63655,59.49315],[150.65608,59.4955],[150.72723,59.48829],[150.74862,59.4877],[150.75811,59.48379],[150.76813,59.47632],[150.77244,59.46595],[150.76929,59.46357],[150.75122,59.46059],[150.74137,59.45732],[150.74028,59.4556],[150.74341,59.45011],[150.73976,59.44432],[150.74729,59.44142],[150.7439,59.43784],[150.7448,59.43502],[150.76178,59.43227],[150.78714,59.43796],[150.81379,59.43849],[150.85061,59.44876],[150.90207,59.44388],[150.91644,59.44368],[150.92717,59.44647],[150.9403,59.45339],[150.94185,59.45668],[150.9364,59.4617],[150.93837,59.46673],[150.94528,59.47273],[150.96228,59.47831],[150.96567,59.48101],[150.9603,59.48384],[150.93558,59.48942],[150.9273,59.49519],[150.92812,59.49981],[150.94296,59.50617],[150.94256,59.51205],[150.95062,59.51851],[150.9482,59.52518],[150.95629,59.52349],[150.95865,59.52606],[150.95221,59.52777],[150.93548,59.52834],[150.93052,59.53311],[150.93112,59.53507],[150.93949,59.54063],[150.94569,59.54982],[150.96075,59.55054],[150.96404,59.5526],[150.96496,59.55622],[150.9665,59.55716],[150.97706,59.55957],[150.98727,59.56473],[150.99747,59.56484],[151.01609,59.57145],[151.03669,59.5745],[151.00299,59.60952],[151.02322,59.63182],[151.01197,59.65893],[151.02804,59.668],[151.03346,59.67183],[151.03612,59.67569],[151.03374,59.69202],[151.04162,59.71388],[151.05082,59.72715],[151.04964,59.73824],[151.04724,59.75131],[151.04431,59.75311],[151.03943,59.76045],[151.02594,59.77044],[151.01004,59.77662],[151.00412,59.78161],[151.00592,59.7852],[151.00416,59.78866],[150.99286,59.79667],[151.00623,59.80737],[151.00611,59.81496],[150.99759,59.8159],[150.99859,59.82274],[151.01905,59.82725],[151.0292,59.83521],[151.05067,59.83608],[151.08409,59.84776],[151.10106,59.84623],[151.11375,59.8539],[151.13686,59.85737],[151.14406,59.85643],[151.14972,59.86294],[151.13745,59.86742],[151.13348,59.88174],[151.119,59.88777],[151.0992,59.89357],[151.12304,59.89991],[151.12993,59.90602],[151.13437,59.91821],[151.13213,59.92164],[151.12188,59.92681],[151.1188,59.93],[151.12001,59.94755],[151.13952,59.94832],[151.14103,59.94995],[151.14208,59.95607],[151.15419,59.95755],[151.15318,59.96835],[151.16814,59.97451],[151.14791,59.97709],[151.14038,59.98611],[151.11531,60.00014],[151.11085,59.99959],[151.10321,59.99521],[151.10115,59.99117],[151.10201,59.98379],[151.09883,59.97786],[151.09601,59.97618],[151.08253,59.97374],[151.07171,59.97439],[151.06175,59.97696],[151.05257,59.9819],[151.04493,59.97928],[151.03311,59.98192],[151.02685,59.9795],[151.01163,59.98164],[150.99918,59.97937],[150.99112,59.98482],[150.98665,59.99036],[150.95979,59.9956],[150.95089,59.99994],[150.94635,60.00053],[150.90636,59.99506],[150.90722,59.98969],[150.90614,59.98647],[150.90743,59.98317],[150.91374,59.97928],[150.91198,59.97711],[150.89898,59.97688],[150.884,59.98018],[150.8749,59.97941],[150.87237,59.97578],[150.86688,59.9734],[150.86765,59.96925],[150.86125,59.96326],[150.85108,59.96163],[150.8434,59.96206],[150.8295,59.95804],[150.82335,59.95761],[150.81774,59.9589],[150.81109,59.96487],[150.80632,59.96655],[150.80551,59.97009],[150.79538,59.97872],[150.79435,59.98523],[150.79117,59.99029],[150.77662,59.99272],[150.75876,59.98267],[150.74427,59.979],[150.74238,59.97926],[150.73929,59.9854],[150.72912,59.99064],[150.72229,59.99197],[150.68856,59.98946],[150.68423,59.98497],[150.68049,59.96517],[150.68088,59.96023],[150.68298,59.9575],[150.68444,59.95091],[150.68172,59.94925],[150.68225,59.94349],[150.68419,59.94115],[150.67049,59.93175],[150.66921,59.92935],[150.67818,59.91271],[150.67758,59.91028],[150.67972,59.90835],[150.67753,59.90485],[150.67492,59.90456],[150.67097,59.89686],[150.67122,59.89404],[150.66732,59.89027],[150.66848,59.8885],[150.66773,59.88284],[150.65063,59.8797],[150.64595,59.87559],[150.64269,59.87518],[150.62479,59.86654],[150.61479,59.86481],[150.6102,59.86145],[150.60385,59.85986],[150.59758,59.85611],[150.59518,59.85257],[150.58711,59.85117],[150.59048,59.84836],[150.58552,59.84169],[150.58604,59.83912],[150.60205,59.83705],[150.61024,59.83378],[150.62355,59.82202],[150.63084,59.81235],[150.64523,59.80416],[150.68125,59.80116],[150.7344,59.80724],[150.74435,59.80758],[150.75173,59.80599],[150.71168,59.78533],[150.6829,59.76387],[150.70101,59.72045],[150.632,59.67546],[150.59097,59.66315],[150.60396,59.62963],[150.60492,59.60303],[150.61076,59.54183],[150.62543,59.5442],[150.63473,59.54778],[150.65176,59.54898],[150.66987,59.55348],[150.67758,59.55821],[150.68676,59.56156],[150.71242,59.56054],[150.75156,59.56357],[150.7636,59.56254],[150.76596,59.56116],[150.77253,59.554],[150.77572,59.54554],[150.77388,59.54176],[150.76251,59.53415],[150.73875,59.52964],[150.73666,59.53061],[150.73589,59.52904],[150.73298,59.52812],[150.69152,59.52276],[150.66994,59.52755],[150.64376,59.52137],[150.63483,59.51725],[150.60522,59.51538],[150.57518,59.50608],[150.56587,59.50547],[150.55544,59.50214],[150.54055,59.50295],[150.53196,59.49979],[150.52939,59.49021],[150.52776,59.48844],[150.52214,59.48681],[150.50325,59.48709],[150.49729,59.48456]]]}}]}