{"type":"FeatureCollection","features":[{"type":"Feature","properties":{"name":"Йошкар-Ола","osm":"relation/2635526","licence":"Data © OpenStreetMap contributors, ODbL 1.0. http://osm.org/copyright"},"geometry":{"type":"Polygon","coordinates":[[[47.8084,56.6526],[47.81034,56.63921],[47.81829,56.63958],[47.8188,56.63549],[47.82743,56.6358],[47.82801,56.635],[47.82694,56.63502],[47.82504,56.63378],[47.81934,56.63338],[47.8198,56.62954],[47.81806,56.62537],[47.81388,56.62608],[47.81214,56.62297],[47.81632,56.6222],[47.8151,56.62022],[47.81996,56.61939],[47.82073,56.62083],[47.82254,56.61976],[47.81854,56.61751],[47.82365,56.61468],[47.8285,56.61293],[47.83042,56.61266],[47.83294,56.61388],[47.8335,56.61353],[47.83511,56.61457],[47.84446,56.6094],[47.84333,56.60846],[47.84953,56.60478],[47.85132,56.60516],[47.85278,56.60476],[47.8547,56.60509],[47.85532,56.60475],[47.85579,56.60546],[47.85694,56.60518],[47.85785,56.60597],[47.85872,56.60536],[47.85922,56.60599],[47.86146,56.60629],[47.86194,56.60581],[47.86053,56.60525],[47.86113,56.60453],[47.86201,56.60486],[47.86271,56.60456],[47.86268,56.60519],[47.86305,56.60533],[47.86376,56.60492],[47.86388,56.60435],[47.86452,56.60423],[47.86545,56.6045],[47.86461,56.60514],[47.86548,56.60524],[47.87086,56.6032],[47.87364,56.60122],[47.8758,56.60065],[47.87756,56.5994],[47.87792,56.59952],[47.87769,56.6001],[47.87885,56.60032],[47.8789,56.59983],[47.88088,56.59906],[47.88056,56.59855],[47.88084,56.59826],[47.88227,56.59815],[47.88173,56.59746],[47.88269,56.59642],[47.88337,56.59616],[47.88368,56.59661],[47.88459,56.59644],[47.88388,56.59592],[47.88369,56.59462],[47.88612,56.59471],[47.88615,56.59357],[47.88721,56.59296],[47.88787,56.59304],[47.88814,56.59361],[47.88891,56.59342],[47.88868,56.59314],[47.88947,56.59269],[47.88868,56.59196],[47.89022,56.59234],[47.89128,56.59207],[47.8902,56.59154],[47.89166,56.59145],[47.89173,56.59058],[47.89342,56.59015],[47.8934,56.58846],[47.89375,56.58813],[47.89701,56.58741],[47.89713,56.58782],[47.89376,56.58912],[47.89346,56.59022],[47.8918,56.59096],[47.89177,56.59196],[47.8897,56.59413],[47.88818,56.59443],[47.88773,56.59574],[47.89281,56.59733],[47.89508,56.59619],[47.89442,56.5955],[47.8955,56.59448],[47.89427,56.59354],[47.89497,56.59316],[47.89519,56.59248],[47.89518,56.59208],[47.89431,56.59205],[47.89468,56.59083],[47.9001,56.58946],[47.90901,56.58838],[47.9099,56.58782],[47.91393,56.58835],[47.91624,56.58952],[47.92302,56.58936],[47.92297,56.58718],[47.92186,56.58529],[47.92054,56.58416],[47.91794,56.58503],[47.91785,56.58465],[47.91684,56.58472],[47.91687,56.58523],[47.91411,56.58579],[47.91243,56.58512],[47.91085,56.5863],[47.90843,56.5872],[47.90655,56.5868],[47.90363,56.58731],[47.90298,56.58627],[47.90397,56.58701],[47.90451,56.58688],[47.90397,56.58616],[47.90481,56.58606],[47.90506,56.58679],[47.90561,56.58685],[47.90619,56.58656],[47.90545,56.58623],[47.90584,56.58582],[47.90646,56.58665],[47.90778,56.58648],[47.90796,56.58722],[47.90917,56.58662],[47.90965,56.58682],[47.91005,56.58617],[47.91087,56.58623],[47.91153,56.58571],[47.91084,56.58515],[47.91235,56.58471],[47.91194,56.58432],[47.91431,56.58442],[47.91471,56.58399],[47.91427,56.58359],[47.91453,56.58343],[47.91503,56.58345],[47.91525,56.58418],[47.91594,56.58425],[47.91664,56.58503],[47.91686,56.58405],[47.91871,56.58456],[47.92026,56.58359],[47.92008,56.583],[47.92151,56.58296],[47.92055,56.58401],[47.92219,56.58541],[47.92386,56.58798],[47.92532,56.58789],[47.92529,56.58936],[47.93142,56.59199],[47.93676,56.58925],[47.94317,56.59203],[47.94141,56.59546],[47.94392,56.59702],[47.94492,56.59708],[47.96505,56.60942],[47.96193,56.6121],[47.96334,56.61276],[47.96571,56.61145],[47.96749,56.61184],[47.96891,56.61067],[47.96713,56.60853],[47.96985,56.60621],[47.97675,56.6087],[47.97684,56.60956],[47.98044,56.61013],[47.98141,56.61121],[47.98066,56.61216],[47.98172,56.62038],[47.98411,56.62581],[47.98546,56.62672],[47.98693,56.62854],[47.98652,56.63375],[47.98583,56.63592],[47.97915,56.63553],[47.9775,56.63833],[47.97633,56.63817],[47.97576,56.63938],[47.97173,56.63951],[47.97256,56.63782],[47.96843,56.63763],[47.96843,56.6384],[47.97006,56.63841],[47.97023,56.64037],[47.97076,56.64077],[47.97086,56.64168],[47.97173,56.64165],[47.97206,56.642],[47.97165,56.64248],[47.97301,56.64275],[47.97245,56.64351],[47.96878,56.64437],[47.96429,56.64277],[47.9643,56.6422],[47.96353,56.64228],[47.96236,56.64259],[47.96249,56.64371],[47.96415,56.64528],[47.95929,56.64577],[47.95461,56.64725],[47.95412,56.64834],[47.95903,56.65089],[47.95803,56.65142],[47.96041,56.65277],[47.96367,56.65528],[47.96412,56.6558],[47.96387,56.65597],[47.96615,56.6571],[47.9659,56.6573],[47.95422,56.65338],[47.94589,56.65956],[47.94331,56.65982],[47.94303,56.66097],[47.94114,56.66301],[47.93976,56.66307],[47.93827,56.66093],[47.93461,56.66228],[47.93362,56.66319],[47.93395,56.66451],[47.93184,56.6653],[47.93335,56.66801],[47.92837,56.66795],[47.92993,56.66544],[47.93004,56.66298],[47.92899,56.66214],[47.92693,56.66288],[47.92435,56.66216],[47.92404,56.66166],[47.92487,56.66074],[47.92266,56.66144],[47.92227,56.66121],[47.9238,56.65976],[47.92309,56.65919],[47.92335,56.6574],[47.92483,56.65651],[47.91684,56.65257],[47.91234,56.65468],[47.91118,56.65385],[47.90244,56.65554],[47.90044,56.65509],[47.889,56.65563],[47.88923,56.6562],[47.88809,56.65634],[47.88722,56.65565],[47.8858,56.65608],[47.88629,56.65721],[47.87996,56.65711],[47.87687,56.65767],[47.87609,56.65662],[47.8739,56.65848],[47.87442,56.65942],[47.86516,56.66797],[47.86439,56.66606],[47.85824,56.66695],[47.85044,56.66661],[47.84978,56.66695],[47.84651,56.66651],[47.84695,56.66478],[47.84347,56.66289],[47.84303,56.66306],[47.83914,56.66],[47.83426,56.65937],[47.83413,56.65783],[47.83641,56.65707],[47.84029,56.65725],[47.84088,56.65683],[47.83939,56.65528],[47.83681,56.6547],[47.82001,56.66049],[47.81533,56.65544],[47.81499,56.65442],[47.81514,56.65286],[47.8084,56.6526]]]}}]}