{"type":"FeatureCollection","features":[{"type":"Feature","properties":{"name":"Чита","osm":"relation/2637037","licence":"Data © OpenStreetMap contributors, ODbL 1.0. http://osm.org/copyright"},"geometry":{"type":"Polygon","coordinates":[[[113.13349,51.99914],[113.13736,51.99628],[113.13866,51.9941],[113.14477,51.99129],[113.14327,51.98993],[113.15934,51.98166],[113.16827,51.97809],[113.17359,51.97541],[113.17491,51.97622],[113.18457,51.97897],[113.20442,51.96641],[113.2076,51.96665],[113.2111,51.96624],[113.21668,51.96416],[113.22414,51.96499],[113.22745,51.96443],[113.22935,51.96463],[113.23015,51.96409],[113.23302,51.96543],[113.23344,51.96599],[113.23235,51.96652],[113.23705,51.97167],[113.24462,51.97868],[113.24868,51.98107],[113.2523,51.982],[113.25698,51.98088],[113.2572,51.98054],[113.25609,51.97875],[113.25384,51.97663],[113.25555,51.97535],[113.25491,51.9746],[113.2548,51.97362],[113.25412,51.97347],[113.25419,51.97263],[113.25485,51.97228],[113.25804,51.97328],[113.25846,51.97356],[113.25857,51.97466],[113.26577,51.97811],[113.26919,51.97637],[113.27086,51.97447],[113.27172,51.97414],[113.27279,51.97482],[113.27383,51.97425],[113.27584,51.97224],[113.27675,51.97354],[113.2792,51.97447],[113.28362,51.97445],[113.28673,51.97372],[113.2882,51.97391],[113.28953,51.97446],[113.28277,51.97868],[113.28289,51.97974],[113.28145,51.98043],[113.28622,51.98364],[113.28765,51.98547],[113.3033,51.98357],[113.30267,51.98472],[113.30222,51.98772],[113.3036,51.98991],[113.30582,51.99092],[113.30851,51.99142],[113.30923,51.99213],[113.30961,51.99331],[113.31128,51.99437],[113.3137,51.99481],[113.31869,51.99658],[113.32239,51.99839],[113.32888,51.99784],[113.33151,51.99856],[113.33356,52.00068],[113.33792,52.00292],[113.34338,52.00391],[113.34782,52.00196],[113.34772,52.00239],[113.34859,52.00316],[113.34859,52.00369],[113.35042,52.00446],[113.35907,52.00429],[113.36156,52.003],[113.36179,52.00317],[113.35886,52.00473],[113.35898,52.00591],[113.35665,52.00672],[113.35514,52.0061],[113.35238,52.00778],[113.34977,52.0088],[113.35707,52.01354],[113.36246,52.01628],[113.36658,52.01762],[113.38404,52.02138],[113.41209,52.02622],[113.41622,52.0239],[113.41712,52.02395],[113.44132,52.01355],[113.4404,52.01202],[113.44206,52.01191],[113.44392,52.01115],[113.45014,52.00981],[113.44476,52.00472],[113.43341,51.99583],[113.42824,51.98894],[113.42954,51.98678],[113.43162,51.98579],[113.43284,51.9859],[113.44592,51.97728],[113.45109,51.97484],[113.45723,51.97127],[113.51525,51.94671],[113.51588,51.9455],[113.51597,51.94144],[113.51848,51.93853],[113.51896,51.93716],[113.51986,51.93635],[113.52033,51.93469],[113.52218,51.9327],[113.52325,51.93076],[113.52495,51.92937],[113.52663,51.92869],[113.52797,51.9274],[113.52746,51.92582],[113.52832,51.92471],[113.52865,51.92279],[113.50775,51.92108],[113.51443,51.88496],[113.55914,51.88793],[113.55203,51.92504],[113.53003,51.92285],[113.52812,51.92577],[113.52865,51.92741],[113.52703,51.929],[113.5242,51.93042],[113.52271,51.93287],[113.52083,51.93492],[113.52042,51.93647],[113.51944,51.93731],[113.51914,51.93841],[113.51656,51.94151],[113.51624,51.94432],[113.51652,51.9454],[113.516,51.94686],[113.52164,51.94998],[113.52417,51.94736],[113.53872,51.94901],[113.54855,51.95186],[113.57097,51.95972],[113.57046,51.96045],[113.57799,51.96442],[113.57745,51.96556],[113.58376,51.96907],[113.58606,51.96953],[113.5877,51.96936],[113.59259,51.96749],[113.59411,51.96768],[113.59885,51.9639],[113.60125,51.96402],[113.60209,51.96626],[113.60193,51.96696],[113.60268,51.9671],[113.60297,51.96942],[113.60709,51.97265],[113.60576,51.97539],[113.60383,51.97616],[113.60458,51.97904],[113.61049,51.97931],[113.61563,51.97859],[113.61728,51.97875],[113.6189,51.97968],[113.62004,51.98165],[113.61961,51.98284],[113.61693,51.98641],[113.61646,51.98779],[113.61675,51.98927],[113.62136,51.99271],[113.6219,51.99345],[113.62187,51.9943],[113.6222,51.99422],[113.62275,51.99713],[113.62311,51.99706],[113.62449,51.99951],[113.63329,52.00539],[113.64707,52.01174],[113.6495,52.01423],[113.65,52.0152],[113.65032,52.01762],[113.65125,52.01926],[113.65824,52.02504],[113.66171,52.02986],[113.66132,52.03002],[113.66185,52.03005],[113.66265,52.03113],[113.66243,52.03175],[113.65794,52.03507],[113.65536,52.03863],[113.65375,52.04852],[113.6522,52.0523],[113.64668,52.06121],[113.64661,52.06293],[113.64773,52.06568],[113.64755,52.06729],[113.64546,52.07035],[113.64382,52.07119],[113.63804,52.07282],[113.6199,52.08061],[113.61523,52.08475],[113.61254,52.0861],[113.59905,52.08788],[113.59489,52.08887],[113.58183,52.09301],[113.55778,52.1028],[113.54337,52.11218],[113.53494,52.11706],[113.51315,52.1272],[113.50826,52.12883],[113.48964,52.13204],[113.4865,52.13332],[113.46455,52.14005],[113.4612,52.13864],[113.44976,52.14007],[113.44281,52.14153],[113.40831,52.14277],[113.40105,52.14526],[113.37314,52.15326],[113.36556,52.16339],[113.37253,52.1716],[113.3708,52.17229],[113.36479,52.16992],[113.36323,52.1689],[113.36,52.16967],[113.35833,52.16945],[113.3555,52.16746],[113.35451,52.16727],[113.35382,52.16728],[113.35089,52.1695],[113.34993,52.16894],[113.35051,52.16826],[113.34171,52.16456],[113.29742,52.1381],[113.26242,52.12408],[113.24242,52.11341],[113.23545,52.10778],[113.22205,52.10217],[113.21471,52.09828],[113.19116,52.07964],[113.16746,52.05988],[113.1671,52.05836],[113.16769,52.05714],[113.16432,52.05732],[113.16663,52.05566],[113.16784,52.05371],[113.16895,52.05131],[113.16957,52.04676],[113.16713,52.04569],[113.16421,52.04536],[113.16461,52.04613],[113.16244,52.04712],[113.1604,52.04712],[113.15756,52.04569],[113.15851,52.04137],[113.16282,52.03853],[113.15603,52.03362],[113.1547,52.03247],[113.15476,52.03163],[113.14774,52.03209],[113.14721,52.03244],[113.14559,52.03133],[113.15102,52.02986],[113.14988,52.02678],[113.14795,52.02591],[113.14437,52.02123],[113.14139,52.02215],[113.13878,52.01888],[113.13836,52.01776],[113.13896,52.01674],[113.13908,52.01507],[113.14033,52.01099],[113.14773,52.01003],[113.14907,52.00933],[113.14508,52.00607],[113.14323,52.00574],[113.14026,52.00418],[113.13608,52.00391],[113.13356,52.00154],[113.13349,51.99914]]]}}]}