{"type":"FeatureCollection","features":[{"type":"Feature","properties":{"name":"Севастополь","osm":"relation/3030976","licence":"Data © OpenStreetMap contributors, ODbL 1.0. http://osm.org/copyright"},"geometry":{"type":"Polygon","coordinates":[[[33.37796,44.58385],[33.37816,44.58296],[33.382,44.58046],[33.38352,44.57806],[33.38871,44.57406],[33.39302,44.5682],[33.39965,44.56434],[33.40166,44.56106],[33.40046,44.55927],[33.40717,44.55659],[33.409,44.55497],[33.42741,44.54579],[33.42827,44.54501],[33.42844,44.54435],[33.42786,44.54402],[33.4284,44.54331],[33.43521,44.54221],[33.43492,44.54099],[33.43821,44.53963],[33.43916,44.53828],[33.44278,44.5369],[33.45226,44.53065],[33.45738,44.52903],[33.46304,44.52509],[33.46338,44.52374],[33.4642,44.52331],[33.46605,44.52321],[33.46656,44.52231],[33.46947,44.52246],[33.47881,44.51926],[33.47886,44.5174],[33.48146,44.51572],[33.48513,44.51477],[33.48977,44.5123],[33.4928,44.51254],[33.49304,44.51742],[33.4889,44.52498],[33.50213,44.52855],[33.50786,44.53115],[33.51669,44.53695],[33.52647,44.54589],[33.52808,44.54555],[33.53957,44.53926],[33.54291,44.53952],[33.5376,44.54701],[33.53724,44.5485],[33.53806,44.54978],[33.54852,44.55441],[33.55007,44.55256],[33.54784,44.55161],[33.54874,44.54974],[33.55398,44.55155],[33.55786,44.5495],[33.55879,44.5502],[33.56117,44.54895],[33.56293,44.54883],[33.56489,44.55014],[33.56741,44.55506],[33.56932,44.55692],[33.5657,44.55641],[33.56086,44.55859],[33.56349,44.56178],[33.56624,44.56067],[33.56875,44.56137],[33.5728,44.56103],[33.57478,44.55927],[33.5793,44.5621],[33.57024,44.57249],[33.57892,44.57308],[33.58238,44.57517],[33.58531,44.57568],[33.58953,44.58054],[33.59258,44.58774],[33.59233,44.59248],[33.59134,44.59248],[33.58428,44.59965],[33.58127,44.60054],[33.57638,44.60331],[33.57685,44.60371],[33.57389,44.6066],[33.57068,44.60766],[33.56895,44.60706],[33.56738,44.60741],[33.56723,44.6089],[33.57069,44.61496],[33.58283,44.61322],[33.58779,44.62132],[33.58668,44.62344],[33.58684,44.62486],[33.59013,44.62857],[33.59102,44.62848],[33.59728,44.63679],[33.60035,44.63572],[33.60459,44.64082],[33.60705,44.64544],[33.60419,44.66253],[33.61062,44.67136],[33.60881,44.67372],[33.60771,44.67383],[33.59663,44.67176],[33.58694,44.66917],[33.58643,44.67029],[33.58475,44.67087],[33.58364,44.67314],[33.58523,44.67354],[33.58574,44.67488],[33.58774,44.67586],[33.58727,44.67692],[33.58093,44.6754],[33.57094,44.67447],[33.57052,44.67523],[33.57351,44.67777],[33.57291,44.67819],[33.57691,44.68158],[33.58233,44.68345],[33.58514,44.68599],[33.60241,44.69198],[33.6042,44.69525],[33.60411,44.69634],[33.60332,44.69737],[33.60018,44.69668],[33.59879,44.69972],[33.58669,44.69652],[33.58422,44.69717],[33.57977,44.69665],[33.57716,44.69718],[33.56002,44.69625],[33.55546,44.69804],[33.55332,44.70053],[33.55,44.7014],[33.5475,44.70119],[33.5475,44.68972],[33.54593,44.67585],[33.54417,44.66233],[33.54246,44.6577],[33.53869,44.65296],[33.53826,44.65207],[33.53867,44.65083],[33.53791,44.65025],[33.53543,44.64469],[33.53135,44.64002],[33.52595,44.63771],[33.52046,44.63769],[33.51689,44.63659],[33.51348,44.63299],[33.5105,44.63091],[33.50759,44.621],[33.50476,44.61656],[33.50131,44.61516],[33.50221,44.61377],[33.50198,44.6119],[33.50017,44.61032],[33.49731,44.60989],[33.49859,44.60806],[33.50014,44.60824],[33.50074,44.60358],[33.49932,44.60749],[33.49783,44.6075],[33.49575,44.61095],[33.4981,44.61215],[33.49528,44.61487],[33.48922,44.61268],[33.48649,44.61293],[33.48411,44.61021],[33.48432,44.60927],[33.48124,44.60854],[33.48154,44.60935],[33.48054,44.61103],[33.47744,44.61094],[33.47558,44.61224],[33.47399,44.612],[33.47359,44.61042],[33.47419,44.60898],[33.47305,44.60576],[33.47068,44.60504],[33.47246,44.60281],[33.47421,44.6029],[33.47464,44.6018],[33.4713,44.60134],[33.47078,44.60059],[33.47011,44.59674],[33.47145,44.5926],[33.46847,44.59461],[33.46777,44.59724],[33.46802,44.60011],[33.46765,44.60079],[33.46624,44.60094],[33.467,44.6033],[33.46626,44.60659],[33.46879,44.60781],[33.46776,44.60878],[33.46818,44.61196],[33.46557,44.61106],[33.46362,44.61175],[33.46026,44.6093],[33.45712,44.61052],[33.45467,44.60926],[33.45156,44.60901],[33.44821,44.60784],[33.44718,44.60687],[33.44754,44.60414],[33.44985,44.60164],[33.44819,44.59871],[33.44682,44.59791],[33.44713,44.5972],[33.44812,44.59735],[33.44845,44.59512],[33.44768,44.59481],[33.44416,44.5988],[33.44043,44.59942],[33.4414,44.60151],[33.44095,44.60445],[33.44006,44.60505],[33.43897,44.60561],[33.43394,44.60386],[33.43337,44.60072],[33.43125,44.59772],[33.43135,44.59693],[33.43065,44.59678],[33.4282,44.59875],[33.4263,44.59897],[33.42446,44.59801],[33.42022,44.59247],[33.42367,44.59487],[33.42687,44.59356],[33.42691,44.59016],[33.42624,44.59002],[33.4273,44.58292],[33.42515,44.58128],[33.42801,44.58134],[33.43048,44.5796],[33.43037,44.57639],[33.43144,44.575],[33.43593,44.57458],[33.43798,44.57292],[33.43539,44.57106],[33.43442,44.57198],[33.43664,44.57306],[33.43565,44.5739],[33.42919,44.57434],[33.42734,44.57339],[33.42645,44.5737],[33.4281,44.5756],[33.4248,44.57969],[33.41962,44.58388],[33.41916,44.58715],[33.41709,44.58788],[33.41639,44.59099],[33.41736,44.59265],[33.41682,44.59282],[33.41561,44.59138],[33.41614,44.588],[33.41362,44.58576],[33.41398,44.58028],[33.41281,44.5783],[33.41439,44.57663],[33.41329,44.57298],[33.41193,44.57217],[33.41255,44.57068],[33.41366,44.56997],[33.41289,44.5683],[33.41298,44.56545],[33.41223,44.5644],[33.41105,44.56504],[33.40984,44.57125],[33.41074,44.57597],[33.40944,44.57799],[33.40783,44.57798],[33.40658,44.57672],[33.40429,44.5733],[33.40323,44.57274],[33.40242,44.57083],[33.40439,44.58252],[33.40242,44.58341],[33.40244,44.58861],[33.4031,44.59114],[33.39848,44.59143],[33.3963,44.58974],[33.395,44.58757],[33.38365,44.58632],[33.38202,44.58473],[33.3788,44.58453],[33.37796,44.58385]]]}}]}