{"type":"FeatureCollection","features":[{"type":"Feature","properties":{"name":"Симферополь","osm":"relation/3030295","licence":"Data © OpenStreetMap contributors, ODbL 1.0. http://osm.org/copyright"},"geometry":{"type":"Polygon","coordinates":[[[34.02892,44.93592],[34.03191,44.93256],[34.03385,44.9295],[34.03484,44.9292],[34.04414,44.9296],[34.04697,44.92896],[34.05548,44.92959],[34.05537,44.93166],[34.06447,44.93195],[34.06488,44.93137],[34.06241,44.92778],[34.07052,44.92517],[34.06762,44.91998],[34.06491,44.91379],[34.06375,44.91194],[34.06332,44.91209],[34.06231,44.91119],[34.06065,44.90793],[34.06135,44.90774],[34.0582,44.9049],[34.06553,44.90071],[34.06626,44.90138],[34.07425,44.8969],[34.07556,44.89863],[34.07831,44.89808],[34.08039,44.89703],[34.07946,44.89542],[34.08068,44.8933],[34.08466,44.89122],[34.08782,44.89084],[34.09645,44.89288],[34.09714,44.8941],[34.09907,44.89596],[34.10045,44.90211],[34.09516,44.90074],[34.0927,44.905],[34.09455,44.90571],[34.09881,44.90639],[34.1003,44.90727],[34.10159,44.90724],[34.10163,44.90686],[34.10383,44.90716],[34.10505,44.9031],[34.10702,44.90332],[34.10758,44.90139],[34.1099,44.89832],[34.11475,44.89754],[34.11689,44.89838],[34.11802,44.89819],[34.12378,44.90224],[34.12368,44.90285],[34.12227,44.90388],[34.12613,44.90668],[34.12718,44.90899],[34.12937,44.91009],[34.13182,44.9137],[34.13221,44.91379],[34.1352,44.91395],[34.13674,44.91362],[34.13628,44.91215],[34.13474,44.91199],[34.13392,44.9113],[34.13205,44.90711],[34.13015,44.90728],[34.12881,44.90532],[34.12928,44.9047],[34.12824,44.90389],[34.12931,44.90299],[34.12782,44.90105],[34.13437,44.89779],[34.13627,44.9036],[34.14218,44.90149],[34.14486,44.90363],[34.14574,44.90568],[34.14995,44.91136],[34.15205,44.91027],[34.15318,44.91095],[34.15376,44.91088],[34.15349,44.90962],[34.15528,44.90743],[34.15599,44.90885],[34.15823,44.91126],[34.16061,44.91214],[34.16159,44.9116],[34.16189,44.91058],[34.16316,44.90953],[34.16421,44.90754],[34.16632,44.90662],[34.16966,44.90654],[34.17227,44.90369],[34.17313,44.90327],[34.17334,44.90293],[34.17292,44.90209],[34.17369,44.9013],[34.17631,44.90047],[34.17749,44.90159],[34.17742,44.90221],[34.17412,44.90575],[34.17303,44.90586],[34.17205,44.90651],[34.17301,44.90816],[34.1757,44.90849],[34.17619,44.90918],[34.17506,44.9119],[34.1783,44.915],[34.18048,44.91605],[34.18118,44.91682],[34.18102,44.91711],[34.18062,44.91754],[34.1774,44.91744],[34.17396,44.91632],[34.17221,44.91565],[34.17017,44.91341],[34.16789,44.91203],[34.16636,44.91382],[34.16463,44.91365],[34.16423,44.91426],[34.16429,44.91598],[34.16501,44.91866],[34.16393,44.91885],[34.163,44.92171],[34.16557,44.9237],[34.16543,44.92498],[34.16303,44.92404],[34.16057,44.92391],[34.16125,44.92538],[34.15912,44.92687],[34.15816,44.9268],[34.157,44.92879],[34.15826,44.93101],[34.15753,44.93247],[34.15431,44.93166],[34.15339,44.93167],[34.15231,44.93275],[34.15097,44.9324],[34.15258,44.9341],[34.15125,44.93466],[34.15015,44.93457],[34.14966,44.93633],[34.14842,44.9362],[34.14755,44.93817],[34.14481,44.93762],[34.14236,44.93795],[34.14084,44.93984],[34.14305,44.9405],[34.14231,44.94142],[34.14439,44.94243],[34.14949,44.94713],[34.15158,44.9462],[34.15199,44.94659],[34.15709,44.94486],[34.16002,44.94466],[34.16044,44.94437],[34.16046,44.94287],[34.16087,44.94267],[34.16131,44.9449],[34.1618,44.94547],[34.16123,44.94592],[34.16259,44.94797],[34.15618,44.95045],[34.15271,44.9527],[34.15464,44.95634],[34.1566,44.95598],[34.15966,44.95635],[34.16043,44.95742],[34.16421,44.957],[34.17108,44.95715],[34.17116,44.95941],[34.16887,44.95947],[34.16609,44.95865],[34.16602,44.96365],[34.16819,44.96358],[34.1704,44.9652],[34.1703,44.9659],[34.1726,44.9659],[34.17459,44.96523],[34.17463,44.96446],[34.18798,44.96532],[34.19136,44.96642],[34.19281,44.96757],[34.19651,44.96873],[34.19892,44.97019],[34.19399,44.97878],[34.18921,44.97946],[34.18921,44.98137],[34.18815,44.98145],[34.18707,44.98237],[34.18574,44.98307],[34.18452,44.98315],[34.18292,44.9843],[34.18277,44.98495],[34.18478,44.98653],[34.18308,44.98678],[34.18272,44.98756],[34.18361,44.98942],[34.18207,44.99074],[34.18825,44.99309],[34.18142,45.00342],[34.17298,44.99906],[34.16943,44.9965],[34.16784,44.9971],[34.16591,44.99869],[34.16504,45.00112],[34.16317,45.00147],[34.16337,44.99922],[34.16303,44.99782],[34.16204,44.99639],[34.1594,44.99474],[34.1578,44.99458],[34.15446,44.99529],[34.15381,44.99449],[34.15376,44.99294],[34.15286,44.99202],[34.14839,44.99301],[34.14165,44.99071],[34.13699,44.98804],[34.13174,44.98699],[34.12931,44.98693],[34.12854,44.98709],[34.12735,44.99866],[34.11389,44.99699],[34.11362,45.0016],[34.10879,45.00107],[34.10748,45.00425],[34.10271,45.00355],[34.10385,45.00087],[34.09894,45.0003],[34.1007,44.99525],[34.09021,44.99447],[34.09016,44.99375],[34.08763,44.99374],[34.08762,44.98902],[34.08411,44.9882],[34.08053,44.98874],[34.07926,44.98942],[34.07874,44.9891],[34.08006,44.98747],[34.07969,44.98665],[34.07674,44.9855],[34.07273,44.9846],[34.07804,44.97211],[34.07238,44.97075],[34.06842,44.97305],[34.0644,44.96806],[34.06377,44.96681],[34.06308,44.96311],[34.0608,44.96366],[34.06037,44.96303],[34.05873,44.96332],[34.05852,44.96287],[34.05973,44.96262],[34.05932,44.96146],[34.06201,44.96099],[34.05737,44.95092],[34.05571,44.94888],[34.0523,44.94736],[34.04347,44.94644],[34.03671,44.94421],[34.03486,44.94273],[34.03388,44.94115],[34.03325,44.93684],[34.02892,44.93592]]]}}]}