{"type":"FeatureCollection","features":[{"type":"Feature","properties":{"name":"Выборг","osm":"relation/312144","licence":"Data © OpenStreetMap contributors, ODbL 1.0. http://osm.org/copyright"},"geometry":{"type":"Polygon","coordinates":[[[28.58005,60.73423],[28.58361,60.73342],[28.58831,60.73108],[28.58975,60.73071],[28.58901,60.73008],[28.58968,60.72946],[28.59196,60.7287],[28.59517,60.72868],[28.59571,60.72859],[28.59652,60.72733],[28.59819,60.72701],[28.59924,60.72656],[28.59952,60.72622],[28.59987,60.72593],[28.60057,60.72566],[28.60231,60.72432],[28.60226,60.72368],[28.60486,60.72386],[28.60729,60.72423],[28.60987,60.72471],[28.61236,60.72532],[28.61537,60.72652],[28.61734,60.72758],[28.61896,60.72869],[28.62145,60.73101],[28.62473,60.73473],[28.62601,60.73436],[28.62665,60.73392],[28.63218,60.73967],[28.6335,60.7397],[28.63412,60.73966],[28.63465,60.73955],[28.63586,60.73956],[28.63708,60.73967],[28.63773,60.73998],[28.63788,60.74052],[28.63824,60.74079],[28.63853,60.74068],[28.63898,60.74041],[28.63913,60.74017],[28.63905,60.73996],[28.63907,60.73975],[28.63956,60.73922],[28.64013,60.73896],[28.64092,60.73866],[28.64192,60.73863],[28.6425,60.73844],[28.64297,60.73816],[28.64395,60.73762],[28.64535,60.73713],[28.64519,60.73693],[28.65088,60.73456],[28.65707,60.73193],[28.66368,60.7303],[28.66843,60.72524],[28.67116,60.72386],[28.6743,60.71885],[28.67193,60.71537],[28.66787,60.71363],[28.65736,60.69999],[28.65433,60.69978],[28.64665,60.70088],[28.64296,60.69956],[28.64317,60.69669],[28.64991,60.69425],[28.65505,60.69559],[28.6757,60.68848],[28.67982,60.67228],[28.71433,60.67467],[28.72653,60.66968],[28.7283,60.6693],[28.74461,60.66275],[28.74668,60.66292],[28.74971,60.66303],[28.75576,60.6627],[28.75906,60.66202],[28.76175,60.66202],[28.76663,60.66085],[28.76699,60.66048],[28.77089,60.66003],[28.78394,60.66827],[28.78944,60.66573],[28.7971,60.66324],[28.80549,60.66154],[28.80545,60.66158],[28.80663,60.66088],[28.81709,60.66044],[28.82125,60.66073],[28.82498,60.66158],[28.82663,60.66151],[28.82788,60.66105],[28.82882,60.66152],[28.83114,60.66066],[28.83189,60.66068],[28.83193,60.65725],[28.83386,60.6567],[28.83373,60.65613],[28.83681,60.65322],[28.84117,60.65377],[28.84126,60.65571],[28.8453,60.65714],[28.84625,60.65887],[28.85089,60.66224],[28.85641,60.66437],[28.85861,60.66507],[28.86122,60.66623],[28.86235,60.66638],[28.87202,60.66177],[28.87245,60.66202],[28.87276,60.66406],[28.87301,60.66438],[28.87316,60.6646],[28.87283,60.66475],[28.87299,60.66625],[28.87302,60.66724],[28.87298,60.66764],[28.87246,60.66894],[28.87218,60.66947],[28.87132,60.67078],[28.87124,60.67104],[28.87144,60.67167],[28.87135,60.67179],[28.86974,60.67297],[28.86945,60.67326],[28.87039,60.67334],[28.87213,60.67343],[28.87312,60.67337],[28.87314,60.67319],[28.87324,60.67319],[28.87322,60.67336],[28.87343,60.67335],[28.87727,60.67198],[28.88724,60.66957],[28.88755,60.66847],[28.88905,60.66906],[28.89533,60.66844],[28.9017,60.6684],[28.90239,60.66757],[28.90521,60.66753],[28.90592,60.66813],[28.91119,60.66773],[28.91112,60.67541],[28.90881,60.67609],[28.90808,60.67767],[28.90832,60.68196],[28.90175,60.68529],[28.89494,60.68273],[28.89299,60.68238],[28.86695,60.68166],[28.86505,60.68618],[28.86246,60.69023],[28.8585,60.69612],[28.8513,60.7026],[28.85444,60.70475],[28.85387,60.71213],[28.84572,60.71215],[28.8451,60.71972],[28.8442,60.72212],[28.84415,60.72317],[28.84536,60.72468],[28.84678,60.72535],[28.84652,60.72561],[28.84219,60.72516],[28.84001,60.72806],[28.82928,60.73639],[28.841,60.73907],[28.84889,60.74086],[28.85288,60.74219],[28.8553,60.74332],[28.85657,60.744],[28.85883,60.74551],[28.86189,60.74764],[28.8714,60.75436],[28.87005,60.75497],[28.86819,60.75507],[28.86715,60.7556],[28.8646,60.75534],[28.85877,60.75517],[28.85758,60.75509],[28.84378,60.75954],[28.83912,60.75978],[28.83757,60.75901],[28.83704,60.75855],[28.83712,60.75794],[28.80445,60.76213],[28.80424,60.76207],[28.80708,60.76405],[28.80752,60.76438],[28.80795,60.76481],[28.80825,60.76535],[28.80841,60.76585],[28.80835,60.76642],[28.80798,60.76721],[28.80746,60.76789],[28.80702,60.7686],[28.80695,60.76901],[28.80698,60.76948],[28.8075,60.7704],[28.80774,60.7729],[28.80773,60.77401],[28.80797,60.77506],[28.80912,60.77636],[28.81068,60.77737],[28.81177,60.7784],[28.81245,60.78034],[28.81408,60.78314],[28.81427,60.78501],[28.81418,60.78628],[28.80934,60.78663],[28.80357,60.78784],[28.79873,60.78924],[28.79143,60.79213],[28.78445,60.79506],[28.78106,60.79639],[28.77221,60.79833],[28.77071,60.79875],[28.76955,60.79923],[28.76497,60.80249],[28.76017,60.8058],[28.75504,60.80836],[28.75176,60.8101],[28.75071,60.81039],[28.7496,60.81061],[28.74834,60.81064],[28.74728,60.81065],[28.74542,60.81045],[28.73786,60.80994],[28.73544,60.80996],[28.7343,60.81014],[28.73086,60.81132],[28.7304,60.81115],[28.72967,60.81093],[28.72353,60.80921],[28.71458,60.80665],[28.71291,60.80645],[28.71142,60.80612],[28.71018,60.80576],[28.7096,60.80535],[28.70907,60.80422],[28.70192,60.80015],[28.69502,60.7973],[28.68722,60.79418],[28.68157,60.79198],[28.67955,60.79116],[28.67699,60.79017],[28.6662,60.78493],[28.65792,60.78088],[28.65727,60.78039],[28.65514,60.77829],[28.65226,60.77665],[28.64834,60.7745],[28.64668,60.77357],[28.6449,60.77254],[28.6427,60.77123],[28.64129,60.77027],[28.63819,60.7678],[28.63367,60.76271],[28.63202,60.76055],[28.62998,60.75808],[28.62817,60.75557],[28.62777,60.7548],[28.62757,60.75406],[28.622,60.755],[28.62157,60.75478],[28.62097,60.75459],[28.62013,60.75445],[28.61947,60.75425],[28.61815,60.75417],[28.61763,60.75436],[28.6163,60.75447],[28.61483,60.75418],[28.61422,60.75401],[28.61389,60.75381],[28.61273,60.75341],[28.61233,60.75343],[28.61267,60.75388],[28.6022,60.75679],[28.58915,60.74853],[28.5919,60.74702],[28.59298,60.74658],[28.59303,60.74644],[28.59259,60.74598],[28.5918,60.74456],[28.59053,60.74366],[28.58981,60.74335],[28.58867,60.74305],[28.58684,60.74285],[28.58515,60.74228],[28.58468,60.74198],[28.58432,60.74134],[28.58398,60.74109],[28.58268,60.74091],[28.58222,60.74038],[28.58691,60.73787],[28.58005,60.73423]]]}}]}