{"type":"FeatureCollection","features":[{"type":"Feature","properties":{"name":"Липецк","osm":"relation/3134925","licence":"Data © OpenStreetMap contributors, ODbL 1.0. http://osm.org/copyright"},"geometry":{"type":"Polygon","coordinates":[[[39.37977,52.62677],[39.42085,52.62309],[39.43337,52.61636],[39.43211,52.61524],[39.42805,52.60436],[39.42451,52.60068],[39.42968,52.5977],[39.42662,52.59528],[39.42798,52.59471],[39.43303,52.59753],[39.43632,52.59589],[39.43487,52.59483],[39.43622,52.59402],[39.4333,52.59253],[39.43671,52.59148],[39.43133,52.58138],[39.42926,52.58178],[39.42883,52.58101],[39.42126,52.58291],[39.41668,52.57418],[39.42445,52.5746],[39.42971,52.57293],[39.43187,52.57318],[39.43263,52.5725],[39.43178,52.57174],[39.43361,52.57136],[39.43419,52.5696],[39.43782,52.56919],[39.44055,52.56653],[39.44441,52.56713],[39.44772,52.5657],[39.45281,52.57509],[39.45975,52.57332],[39.46645,52.56865],[39.46925,52.56445],[39.47182,52.5638],[39.4721,52.56294],[39.47339,52.5641],[39.47525,52.56286],[39.47771,52.56419],[39.47943,52.5632],[39.4818,52.56363],[39.48182,52.56229],[39.48469,52.56167],[39.48921,52.55813],[39.49042,52.5609],[39.50013,52.56372],[39.50183,52.56553],[39.50826,52.56399],[39.51016,52.56825],[39.51486,52.57037],[39.52801,52.57363],[39.53322,52.57701],[39.53537,52.57735],[39.55231,52.5623],[39.54989,52.56058],[39.54901,52.55811],[39.54956,52.5534],[39.54571,52.55594],[39.54164,52.55618],[39.53975,52.55748],[39.53666,52.55489],[39.53064,52.55477],[39.52866,52.5562],[39.52932,52.55714],[39.52778,52.55743],[39.52724,52.55827],[39.5281,52.55886],[39.52622,52.56016],[39.52691,52.56048],[39.52553,52.56064],[39.52367,52.56227],[39.52423,52.56278],[39.52266,52.5633],[39.51752,52.5622],[39.51542,52.5608],[39.51114,52.55404],[39.51197,52.55348],[39.5122,52.55116],[39.51091,52.55006],[39.51507,52.54964],[39.51557,52.54745],[39.51845,52.54675],[39.5203,52.54491],[39.5245,52.54497],[39.52491,52.54671],[39.52633,52.54694],[39.52955,52.5452],[39.53136,52.54894],[39.53505,52.55341],[39.54898,52.55072],[39.54343,52.54572],[39.54307,52.54419],[39.53993,52.54386],[39.53964,52.54321],[39.54278,52.5422],[39.54281,52.54148],[39.54225,52.53982],[39.54052,52.539],[39.54027,52.53345],[39.53477,52.5315],[39.53319,52.52539],[39.53383,52.52093],[39.53984,52.51932],[39.54185,52.51776],[39.54236,52.51401],[39.54601,52.51057],[39.55351,52.50754],[39.6217,52.51154],[39.62773,52.51031],[39.63492,52.50716],[39.63865,52.50687],[39.64536,52.50965],[39.65107,52.51373],[39.66188,52.51519],[39.66701,52.51676],[39.679,52.52547],[39.68426,52.52719],[39.69278,52.53316],[39.6988,52.53611],[39.70578,52.53752],[39.74116,52.54016],[39.74377,52.54194],[39.74335,52.53838],[39.7466,52.53566],[39.74138,52.53388],[39.73981,52.53481],[39.73613,52.53175],[39.73146,52.52951],[39.73451,52.52652],[39.7272,52.52343],[39.7495,52.50616],[39.77014,52.51587],[39.78978,52.49923],[39.7862,52.49603],[39.78867,52.49522],[39.78842,52.49138],[39.78946,52.49145],[39.78991,52.49377],[39.79539,52.49823],[39.7993,52.49782],[39.80219,52.50704],[39.77679,52.52574],[39.75942,52.53638],[39.7652,52.54007],[39.8039,52.52456],[39.80433,52.53043],[39.8105,52.53004],[39.81161,52.53173],[39.80813,52.53282],[39.8108,52.53435],[39.80699,52.54071],[39.80915,52.54171],[39.80496,52.5441],[39.80184,52.54209],[39.79762,52.54474],[39.78708,52.53897],[39.77978,52.54137],[39.77453,52.53777],[39.77109,52.53979],[39.76631,52.54027],[39.74878,52.54733],[39.73538,52.55663],[39.73463,52.5561],[39.73344,52.55683],[39.73546,52.55741],[39.73199,52.5576],[39.73275,52.55824],[39.73134,52.55889],[39.73555,52.56208],[39.73442,52.56274],[39.73439,52.56405],[39.73254,52.56417],[39.73103,52.56606],[39.72577,52.57557],[39.71511,52.5809],[39.7101,52.57659],[39.70914,52.57451],[39.69531,52.58469],[39.69283,52.58756],[39.69008,52.5932],[39.69002,52.60481],[39.69283,52.61005],[39.68944,52.62028],[39.68379,52.62542],[39.67594,52.6285],[39.67861,52.63034],[39.68833,52.63334],[39.69121,52.63594],[39.69195,52.63936],[39.70078,52.65238],[39.70161,52.65513],[39.70009,52.66406],[39.69549,52.66361],[39.69542,52.66493],[39.68794,52.66528],[39.69037,52.67037],[39.68897,52.67225],[39.68442,52.67223],[39.68634,52.66605],[39.67996,52.66358],[39.68246,52.66251],[39.67438,52.65531],[39.67764,52.65375],[39.6751,52.65277],[39.67274,52.65506],[39.67143,52.65399],[39.66356,52.65382],[39.64336,52.66245],[39.64798,52.66664],[39.63806,52.67227],[39.62139,52.6703],[39.60624,52.67601],[39.58707,52.659],[39.54968,52.64903],[39.54041,52.6576],[39.53433,52.65782],[39.52887,52.66071],[39.52409,52.66104],[39.51318,52.65459],[39.48338,52.64725],[39.48105,52.64839],[39.44264,52.64874],[39.43714,52.66301],[39.4405,52.66494],[39.44221,52.66877],[39.44713,52.67392],[39.44446,52.6768],[39.43923,52.6797],[39.43192,52.67888],[39.42508,52.67977],[39.42364,52.68098],[39.42375,52.68196],[39.42817,52.68402],[39.42848,52.68566],[39.43055,52.68742],[39.43073,52.68937],[39.43226,52.69074],[39.44106,52.69302],[39.44252,52.69436],[39.43106,52.6999],[39.4299,52.69976],[39.41933,52.7076],[39.4136,52.70609],[39.41033,52.70419],[39.42259,52.6954],[39.41971,52.69164],[39.41917,52.68589],[39.41234,52.68045],[39.40569,52.67796],[39.41294,52.67227],[39.41142,52.66757],[39.41339,52.66359],[39.41787,52.6644],[39.43738,52.63156],[39.40836,52.63632],[39.38948,52.64573],[39.39117,52.63777],[39.39649,52.63249],[39.3965,52.63064],[39.39562,52.62943],[39.38874,52.62781],[39.38788,52.6283],[39.37977,52.62677]]]}}]}