{"type":"FeatureCollection","features":[{"type":"Feature","properties":{"name":"Смоленск","osm":"relation/3339993","licence":"Data © OpenStreetMap contributors, ODbL 1.0. http://osm.org/copyright"},"geometry":{"type":"Polygon","coordinates":[[[31.78833,54.78801],[31.7939,54.78661],[31.79314,54.78425],[31.80115,54.78297],[31.80211,54.77867],[31.82694,54.77159],[31.84245,54.78096],[31.85636,54.77955],[31.85453,54.783],[31.8611,54.785],[31.87614,54.78569],[31.87511,54.7789],[31.87811,54.77898],[31.91644,54.78455],[31.96843,54.78794],[31.97668,54.78558],[31.97812,54.7768],[31.98131,54.7724],[31.98132,54.76814],[31.98322,54.76769],[31.98164,54.76425],[32.00653,54.76083],[32.01304,54.75733],[32.0063,54.75138],[32.00574,54.7412],[32.01589,54.74177],[32.01029,54.73693],[32.01415,54.73253],[32.02847,54.7317],[32.02738,54.72752],[32.03199,54.72691],[32.0392,54.72642],[32.04742,54.73025],[32.05357,54.72946],[32.05604,54.72255],[32.06949,54.72312],[32.07353,54.71948],[32.07766,54.72115],[32.08757,54.71742],[32.09688,54.70861],[32.10138,54.71033],[32.10067,54.70774],[32.10384,54.70756],[32.10545,54.71125],[32.11147,54.71316],[32.10887,54.71578],[32.11222,54.71834],[32.10594,54.72083],[32.10925,54.72164],[32.10816,54.72438],[32.11427,54.72568],[32.10533,54.72752],[32.09934,54.72615],[32.09582,54.73003],[32.09732,54.7337],[32.10152,54.73434],[32.10027,54.73907],[32.09688,54.74213],[32.10037,54.74543],[32.097,54.75251],[32.11893,54.75023],[32.11767,54.75146],[32.1191,54.75506],[32.11354,54.7598],[32.11718,54.76418],[32.12508,54.76411],[32.12457,54.76758],[32.11771,54.76746],[32.10952,54.77022],[32.11604,54.77027],[32.11811,54.77318],[32.1337,54.77218],[32.13332,54.76624],[32.12807,54.76389],[32.13315,54.761],[32.12607,54.75413],[32.1365,54.7619],[32.13321,54.76383],[32.13692,54.77141],[32.13916,54.77018],[32.13641,54.76358],[32.13904,54.76214],[32.13807,54.75863],[32.14963,54.75892],[32.15785,54.75172],[32.16719,54.74901],[32.1686,54.75661],[32.16374,54.76241],[32.16238,54.76797],[32.17125,54.7714],[32.16551,54.77067],[32.14844,54.77934],[32.14513,54.7764],[32.13468,54.77445],[32.13315,54.77856],[32.12489,54.78412],[32.12561,54.78132],[32.13291,54.77702],[32.13375,54.77304],[32.12223,54.7739],[32.12368,54.77755],[32.11207,54.78032],[32.10739,54.78605],[32.10588,54.79063],[32.11231,54.79268],[32.10871,54.79378],[32.10081,54.79201],[32.09845,54.79309],[32.09854,54.79724],[32.09746,54.79443],[32.0933,54.79397],[32.09235,54.78872],[32.08853,54.78964],[32.0849,54.78715],[32.07872,54.78923],[32.07739,54.79195],[32.08062,54.79196],[32.08665,54.79629],[32.09654,54.79651],[32.09823,54.7985],[32.10214,54.79875],[32.1043,54.79488],[32.10747,54.79396],[32.11274,54.79853],[32.11098,54.79881],[32.11317,54.80178],[32.12763,54.80214],[32.13289,54.79871],[32.13127,54.79368],[32.12792,54.79276],[32.13071,54.79238],[32.12945,54.78929],[32.1334,54.7886],[32.13412,54.78524],[32.14121,54.78056],[32.14784,54.78261],[32.1504,54.7803],[32.15833,54.78048],[32.16137,54.78446],[32.17593,54.7752],[32.18574,54.76384],[32.19386,54.7665],[32.186,54.77698],[32.18173,54.77728],[32.18489,54.7878],[32.18819,54.78892],[32.19515,54.78635],[32.19841,54.78766],[32.20385,54.79697],[32.20119,54.7973],[32.19993,54.80292],[32.19232,54.80861],[32.20855,54.80702],[32.20951,54.813],[32.18802,54.82072],[32.17982,54.81746],[32.17901,54.81367],[32.17437,54.81421],[32.17209,54.80992],[32.17386,54.80932],[32.17016,54.80672],[32.16369,54.80556],[32.15618,54.8062],[32.15496,54.80793],[32.1448,54.80464],[32.13799,54.80488],[32.13143,54.80982],[32.14131,54.81168],[32.13359,54.81701],[32.13536,54.81757],[32.13239,54.8208],[32.13204,54.82575],[32.11493,54.8178],[32.10843,54.81625],[32.1045,54.81889],[32.1025,54.81786],[32.10396,54.81619],[32.09562,54.815],[32.07955,54.827],[32.08775,54.83271],[32.08409,54.83997],[32.05293,54.84078],[32.04436,54.84598],[32.04447,54.84907],[32.03591,54.84563],[32.03291,54.84687],[32.03313,54.84485],[32.03047,54.8433],[32.00524,54.84104],[32.00817,54.83425],[31.99504,54.82811],[31.997,54.82724],[31.9944,54.82333],[32.00028,54.81925],[31.99198,54.8183],[31.9893,54.81525],[31.9827,54.82159],[31.97203,54.82305],[31.97587,54.825],[31.97444,54.82875],[31.97789,54.83016],[31.97249,54.83054],[31.96863,54.82668],[31.96756,54.82936],[31.95581,54.83159],[31.95478,54.83284],[31.96025,54.83639],[31.95675,54.84016],[31.94167,54.84173],[31.91791,54.83689],[31.90351,54.83801],[31.90377,54.84119],[31.89838,54.84592],[31.89673,54.85038],[31.8899,54.84638],[31.89059,54.83749],[31.87242,54.83344],[31.86573,54.8286],[31.85711,54.82908],[31.85657,54.82555],[31.86061,54.82666],[31.85844,54.81958],[31.85136,54.8199],[31.84853,54.8124],[31.85465,54.80903],[31.85441,54.80624],[31.8623,54.80519],[31.86379,54.8019],[31.8618,54.80135],[31.86937,54.80053],[31.86814,54.79551],[31.8802,54.79489],[31.88132,54.79216],[31.87759,54.79197],[31.88394,54.78647],[31.82325,54.78405],[31.82827,54.793],[31.82218,54.79578],[31.80662,54.79526],[31.79386,54.79161],[31.78833,54.78801]]]}}]}