{"type":"FeatureCollection","features":[{"type":"Feature","properties":{"name":"Курск","osm":"relation/3348896","licence":"Data © OpenStreetMap contributors, ODbL 1.0. http://osm.org/copyright"},"geometry":{"type":"Polygon","coordinates":[[[36.0603,51.67692],[36.06525,51.65806],[36.07756,51.62191],[36.09267,51.63113],[36.09058,51.63353],[36.0964,51.6386],[36.08962,51.64813],[36.09595,51.64892],[36.10063,51.64297],[36.10294,51.64329],[36.10159,51.63373],[36.10762,51.63342],[36.10757,51.63503],[36.10963,51.63516],[36.1124,51.63494],[36.11137,51.63352],[36.11282,51.63313],[36.11833,51.63334],[36.12176,51.63669],[36.13432,51.63384],[36.1331,51.63092],[36.13994,51.62707],[36.13552,51.62588],[36.13578,51.6206],[36.14562,51.621],[36.14444,51.6294],[36.14766,51.62952],[36.14601,51.63271],[36.14612,51.64004],[36.14937,51.64075],[36.15137,51.63881],[36.16554,51.6421],[36.16091,51.6486],[36.16142,51.6518],[36.17124,51.65517],[36.17476,51.65963],[36.17461,51.66459],[36.17328,51.66461],[36.17241,51.67032],[36.18477,51.67114],[36.18537,51.67361],[36.19008,51.67282],[36.18947,51.67648],[36.18115,51.6771],[36.18119,51.67955],[36.19137,51.67919],[36.19557,51.68239],[36.20008,51.67946],[36.20816,51.68162],[36.21002,51.6866],[36.20833,51.69091],[36.20369,51.6926],[36.20375,51.69463],[36.20562,51.69515],[36.20696,51.69775],[36.21602,51.7008],[36.21588,51.70265],[36.21389,51.70362],[36.21471,51.70489],[36.21872,51.70573],[36.22797,51.70388],[36.22955,51.70197],[36.23149,51.69296],[36.23458,51.69101],[36.23824,51.68981],[36.25564,51.69108],[36.26683,51.68998],[36.27137,51.6872],[36.27146,51.68558],[36.26819,51.68438],[36.2726,51.68561],[36.27272,51.68727],[36.26993,51.68996],[36.26688,51.69067],[36.26682,51.69281],[36.26384,51.69477],[36.25496,51.69296],[36.23714,51.69273],[36.2333,51.69787],[36.23266,51.7061],[36.2206,51.70881],[36.22297,51.7172],[36.22633,51.7186],[36.23786,51.7145],[36.24493,51.71413],[36.25125,51.71701],[36.25825,51.71311],[36.26593,51.71836],[36.28889,51.72352],[36.28924,51.73383],[36.30084,51.73107],[36.29955,51.73699],[36.30386,51.74352],[36.29523,51.7469],[36.28849,51.74592],[36.28102,51.74738],[36.28242,51.74822],[36.26289,51.75732],[36.27015,51.76337],[36.26905,51.76623],[36.2553,51.76502],[36.25609,51.76624],[36.25261,51.76625],[36.25152,51.76757],[36.24393,51.76379],[36.24061,51.76422],[36.23698,51.76636],[36.24113,51.77163],[36.24922,51.77493],[36.23554,51.77618],[36.22966,51.77434],[36.22501,51.77006],[36.22054,51.77142],[36.22269,51.77664],[36.22689,51.77705],[36.22807,51.77912],[36.22333,51.7808],[36.2195,51.7868],[36.21267,51.79023],[36.21378,51.79178],[36.21316,51.79432],[36.20802,51.79693],[36.2062,51.8007],[36.20136,51.80244],[36.20023,51.80101],[36.1963,51.80112],[36.19445,51.7998],[36.19292,51.80222],[36.1878,51.80219],[36.18309,51.80833],[36.18131,51.80827],[36.18121,51.80988],[36.17575,51.80884],[36.17798,51.81149],[36.17359,51.81161],[36.17339,51.81314],[36.17905,51.81327],[36.17883,51.81524],[36.16265,51.8169],[36.16072,51.82244],[36.15658,51.82181],[36.1497,51.8232],[36.14984,51.82044],[36.15343,51.82054],[36.15406,51.81908],[36.14852,51.8171],[36.1467,51.81349],[36.14751,51.811],[36.15368,51.81357],[36.16289,51.81452],[36.16379,51.80239],[36.15478,51.80001],[36.14388,51.80752],[36.14073,51.80104],[36.13975,51.80283],[36.13714,51.80101],[36.13199,51.80093],[36.13168,51.80323],[36.12932,51.80329],[36.12926,51.80528],[36.12246,51.80261],[36.12197,51.80427],[36.11389,51.80109],[36.10357,51.80369],[36.10389,51.80127],[36.09815,51.80049],[36.08826,51.81707],[36.09345,51.81842],[36.08705,51.82372],[36.08387,51.82244],[36.08067,51.8245],[36.0786,51.82823],[36.08174,51.83028],[36.08071,51.83149],[36.07719,51.82937],[36.07126,51.83362],[36.0682,51.83178],[36.07319,51.82847],[36.07187,51.82772],[36.07323,51.82673],[36.06186,51.81938],[36.06133,51.81587],[36.07468,51.82562],[36.07784,51.82327],[36.07827,51.82146],[36.07659,51.82093],[36.07721,51.81815],[36.08254,51.82029],[36.08158,51.82131],[36.08268,51.82169],[36.08773,51.81774],[36.08414,51.81665],[36.07895,51.8172],[36.07019,51.81338],[36.06432,51.80807],[36.06506,51.80651],[36.08272,51.81224],[36.0826,51.81096],[36.07148,51.80687],[36.07634,51.80638],[36.08972,51.80861],[36.08728,51.80643],[36.09124,51.80391],[36.08188,51.80583],[36.06933,51.80508],[36.0691,51.80245],[36.08349,51.80099],[36.07125,51.80122],[36.07287,51.79697],[36.07844,51.79957],[36.07949,51.797],[36.07474,51.79555],[36.07424,51.79363],[36.0775,51.79362],[36.08032,51.79194],[36.07399,51.79086],[36.07401,51.7885],[36.07721,51.78735],[36.07635,51.78545],[36.07383,51.7857],[36.07504,51.78407],[36.0741,51.78275],[36.07671,51.78205],[36.07821,51.78361],[36.07921,51.78143],[36.07565,51.78004],[36.07717,51.77525],[36.075,51.7744],[36.07566,51.76949],[36.07371,51.76636],[36.07681,51.76472],[36.08064,51.75536],[36.08776,51.7607],[36.08709,51.76674],[36.09206,51.76816],[36.09486,51.76329],[36.10125,51.76423],[36.10237,51.76327],[36.10314,51.76494],[36.10786,51.76388],[36.10326,51.75978],[36.09469,51.75909],[36.08383,51.74957],[36.08341,51.74768],[36.09151,51.7467],[36.08883,51.74153],[36.0917,51.73975],[36.09051,51.73747],[36.08348,51.73378],[36.08651,51.72985],[36.09482,51.72789],[36.09756,51.72208],[36.10145,51.72245],[36.10345,51.7181],[36.1058,51.71723],[36.1015,51.71254],[36.10576,51.71251],[36.10835,51.70775],[36.10685,51.7041],[36.1036,51.70415],[36.1036,51.70602],[36.09285,51.70677],[36.09179,51.70971],[36.09128,51.70731],[36.08021,51.70745],[36.07588,51.70887],[36.07225,51.70317],[36.10659,51.70326],[36.10392,51.70043],[36.10618,51.70029],[36.10425,51.69749],[36.09657,51.69414],[36.10105,51.69186],[36.10083,51.68959],[36.09727,51.68771],[36.09066,51.68521],[36.07755,51.68953],[36.07256,51.6895],[36.07167,51.68829],[36.07701,51.68635],[36.07643,51.6846],[36.06839,51.68069],[36.06039,51.67947],[36.0603,51.67692]]]}}]}