{"type":"FeatureCollection","features":[{"type":"Feature","properties":{"name":"Тобольск","osm":"relation/3348770","licence":"Data © OpenStreetMap contributors, ODbL 1.0. http://osm.org/copyright"},"geometry":{"type":"Polygon","coordinates":[[[68.14574,58.18468],[68.1477,58.18249],[68.15315,58.18197],[68.1565,58.17924],[68.17801,58.17467],[68.18151,58.1806],[68.18758,58.18571],[68.20056,58.18878],[68.21,58.18891],[68.21644,58.18636],[68.21247,58.18217],[68.20991,58.1756],[68.21189,58.16553],[68.2173,58.15525],[68.22308,58.15266],[68.23967,58.14917],[68.25708,58.1476],[68.26649,58.14854],[68.27777,58.15422],[68.28131,58.15774],[68.28441,58.16252],[68.28581,58.16727],[68.28935,58.17425],[68.29182,58.17573],[68.29637,58.17609],[68.30073,58.17542],[68.30524,58.17341],[68.3194,58.16421],[68.32422,58.16788],[68.3325,58.17453],[68.3363,58.17782],[68.34137,58.1786],[68.33982,58.18055],[68.33737,58.18312],[68.34103,58.18516],[68.34671,58.18599],[68.35035,58.19065],[68.35812,58.19146],[68.36841,58.19011],[68.36858,58.18989],[68.36948,58.19],[68.37033,58.18987],[68.37005,58.19169],[68.39366,58.19404],[68.40014,58.19305],[68.41823,58.19422],[68.45946,58.19548],[68.47015,58.2],[68.48121,58.20453],[68.48086,58.20625],[68.53426,58.21338],[68.53816,58.2223],[68.52424,58.23855],[68.51493,58.24961],[68.50877,58.25986],[68.50916,58.26151],[68.51366,58.26679],[68.51475,58.27021],[68.51985,58.28756],[68.52884,58.29497],[68.49443,58.29344],[68.4942,58.29486],[68.47962,58.29443],[68.47986,58.29267],[68.43639,58.28064],[68.43286,58.27812],[68.42982,58.27734],[68.42832,58.27919],[68.42884,58.28105],[68.42648,58.28106],[68.42432,58.27964],[68.42073,58.28013],[68.4198,58.28141],[68.41376,58.28139],[68.39338,58.27213],[68.39495,58.27021],[68.39713,58.26875],[68.39823,58.26675],[68.39078,58.2628],[68.39214,58.26074],[68.38992,58.25954],[68.38352,58.25874],[68.3829,58.2566],[68.38566,58.25598],[68.38456,58.25465],[68.38113,58.2515],[68.37933,58.25035],[68.37801,58.24957],[68.37714,58.2493],[68.37459,58.24894],[68.37318,58.24851],[68.37222,58.24796],[68.37136,58.24695],[68.37095,58.24659],[68.36928,58.24536],[68.3654,58.24177],[68.36459,58.2406],[68.36307,58.24132],[68.36155,58.24246],[68.36301,58.24324],[68.36453,58.24358],[68.36419,58.2445],[68.36191,58.24535],[68.36355,58.2471],[68.36876,58.25075],[68.37156,58.25364],[68.37346,58.25356],[68.37428,58.25689],[68.37215,58.25852],[68.37045,58.26239],[68.36764,58.26634],[68.37772,58.26929],[68.37851,58.278],[68.38887,58.27828],[68.36321,58.31629],[68.36148,58.31773],[68.3611,58.31805],[68.36044,58.31843],[68.3597,58.31869],[68.35883,58.31894],[68.3581,58.31909],[68.35725,58.31919],[68.35648,58.31922],[68.35576,58.31919],[68.35493,58.3191],[68.35429,58.31898],[68.35357,58.31879],[68.35306,58.3186],[68.35259,58.31838],[68.35215,58.31807],[68.35178,58.31772],[68.35145,58.31742],[68.3512,58.31708],[68.35102,58.31654],[68.35105,58.316],[68.35256,58.31267],[68.35273,58.30914],[68.35018,58.30742],[68.34404,58.30729],[68.34304,58.30838],[68.34082,58.30945],[68.33966,58.30955],[68.33643,58.30391],[68.33206,58.30111],[68.33125,58.30081],[68.32994,58.30058],[68.32832,58.30034],[68.32381,58.29997],[68.31681,58.29939],[68.31639,58.2993],[68.31507,58.29911],[68.31392,58.29887],[68.3133,58.29874],[68.31294,58.29864],[68.31228,58.29844],[68.31128,58.29804],[68.31047,58.29771],[68.30595,58.29558],[68.3026,58.29409],[68.29793,58.29191],[68.2976,58.29175],[68.29538,58.29319],[68.2945,58.29408],[68.29159,58.29635],[68.28137,58.29082],[68.27408,58.28942],[68.26289,58.29164],[68.25812,58.29345],[68.24985,58.29984],[68.2396,58.30181],[68.22572,58.30417],[68.21502,58.30392],[68.21223,58.30614],[68.20163,58.30774],[68.1943,58.30739],[68.18777,58.30569],[68.18251,58.30427],[68.18224,58.30008],[68.18969,58.2996],[68.20086,58.29716],[68.2064,58.29409],[68.2121,58.28969],[68.21755,58.28342],[68.22333,58.27561],[68.23195,58.26397],[68.20712,58.25935],[68.20363,58.25789],[68.21083,58.25331],[68.21103,58.25314],[68.21105,58.25302],[68.211,58.2529],[68.21084,58.25274],[68.20725,58.24991],[68.20692,58.2496],[68.20671,58.24925],[68.20662,58.24895],[68.20668,58.24862],[68.20684,58.24836],[68.20787,58.24733],[68.21179,58.24279],[68.21245,58.24198],[68.21263,58.24157],[68.21265,58.24119],[68.21263,58.23634],[68.21244,58.23534],[68.21157,58.23287],[68.21137,58.23221],[68.21117,58.23146],[68.21107,58.23085],[68.21103,58.2303],[68.21104,58.22976],[68.21116,58.22919],[68.21187,58.22662],[68.23256,58.22327],[68.22984,58.2173],[68.22673,58.21386],[68.22342,58.20804],[68.22223,58.20693],[68.21989,58.2057],[68.22208,58.20429],[68.22434,58.20267],[68.22283,58.20131],[68.22062,58.19912],[68.21743,58.1973],[68.21471,58.19627],[68.21301,58.19576],[68.21109,58.19563],[68.21025,58.19562],[68.20917,58.19566],[68.20579,58.19611],[68.20112,58.1966],[68.19819,58.20282],[68.19317,58.19949],[68.19221,58.2003],[68.18697,58.19923],[68.1843,58.19781],[68.1666,58.20413],[68.15133,58.19154],[68.14574,58.18468]]]}}]}