{"type":"FeatureCollection","features":[{"type":"Feature","properties":{"name":"Самара","osm":"relation/3368701","licence":"Data © OpenStreetMap contributors, ODbL 1.0. http://osm.org/copyright"},"geometry":{"type":"Polygon","coordinates":[[[49.73139,53.48063],[49.73146,53.47726],[49.76625,53.47727],[49.82778,53.46857],[49.82654,53.45633],[49.85942,53.45703],[49.85938,53.46322],[49.88803,53.4661],[49.88366,53.45852],[49.90165,53.45916],[49.9019,53.46586],[49.91969,53.46283],[49.92051,53.47586],[49.88951,53.477],[49.8902,53.48547],[49.87801,53.48627],[49.87964,53.49588],[49.84813,53.49775],[49.85143,53.51696],[49.8675,53.51605],[49.86926,53.52554],[49.88478,53.52457],[49.88611,53.53391],[49.90301,53.53563],[49.90787,53.54075],[49.90438,53.54482],[49.91151,53.54612],[49.93142,53.53843],[49.959,53.53826],[50.01115,53.51409],[50.027,53.51432],[50.0291,53.51998],[50.0378,53.52053],[50.05772,53.50594],[50.06935,53.50765],[50.06906,53.49381],[50.05985,53.4858],[50.06481,53.47893],[50.0563,53.47747],[50.09641,53.44877],[50.06774,53.45107],[50.06212,53.44527],[50.06593,53.43529],[50.13365,53.40817],[50.13488,53.39635],[50.16294,53.37221],[50.15918,53.3587],[50.12752,53.35849],[50.12622,53.34584],[50.1298,53.34582],[50.12611,53.33975],[50.13066,53.34257],[50.13036,53.335],[50.13645,53.3349],[50.13649,53.32463],[50.14027,53.32455],[50.12725,53.31621],[50.11744,53.31624],[50.11259,53.31028],[50.11967,53.30033],[50.13465,53.30036],[50.13723,53.28455],[50.12675,53.27904],[50.13339,53.27569],[50.1099,53.26083],[50.08809,53.25914],[50.05825,53.21332],[50.06131,53.20805],[49.95526,53.18715],[49.9533,53.16858],[49.95705,53.16531],[49.98119,53.16001],[50.00888,53.16392],[50.01236,53.15141],[50.00896,53.15005],[50.01549,53.14416],[50.04919,53.13759],[50.04878,53.12958],[50.05544,53.12539],[50.03675,53.11007],[50.02809,53.10823],[50.03238,53.09919],[50.02785,53.09651],[50.0337,53.09203],[50.06781,53.0919],[50.13976,53.10104],[50.10869,53.13057],[50.11166,53.1331],[50.20527,53.12387],[50.22878,53.11281],[50.24983,53.11262],[50.25741,53.11968],[50.22975,53.1176],[50.23415,53.12886],[50.25007,53.13719],[50.24238,53.14217],[50.21839,53.13054],[50.19911,53.13272],[50.20162,53.13578],[50.21106,53.13212],[50.219,53.15033],[50.22491,53.14707],[50.23596,53.15416],[50.23802,53.14861],[50.26788,53.14444],[50.26302,53.14792],[50.27901,53.15097],[50.28312,53.15603],[50.27863,53.15701],[50.30783,53.17243],[50.31421,53.17068],[50.30887,53.16864],[50.31428,53.1678],[50.31388,53.16155],[50.32104,53.16295],[50.32263,53.16799],[50.33727,53.17354],[50.33473,53.18259],[50.34086,53.1802],[50.3502,53.18897],[50.3336,53.20049],[50.32985,53.21484],[50.3483,53.22581],[50.37812,53.23412],[50.39039,53.24316],[50.37352,53.2571],[50.36178,53.25412],[50.33394,53.26617],[50.33244,53.29077],[50.31242,53.29584],[50.32843,53.32398],[50.35776,53.33035],[50.35231,53.3485],[50.35697,53.35538],[50.35194,53.35827],[50.33388,53.35165],[50.31642,53.35953],[50.32346,53.33744],[50.31081,53.32871],[50.29245,53.32561],[50.29017,53.33027],[50.29474,53.33511],[50.2845,53.34567],[50.28718,53.34008],[50.27904,53.34156],[50.28079,53.33511],[50.27098,53.33807],[50.26693,53.33428],[50.28869,53.32431],[50.28497,53.32416],[50.2861,53.31824],[50.27674,53.31892],[50.27197,53.31424],[50.24349,53.34904],[50.22809,53.34945],[50.22631,53.35779],[50.18125,53.37847],[50.18109,53.38346],[50.17518,53.38398],[50.17828,53.38705],[50.17244,53.38818],[50.18107,53.39616],[50.16826,53.39573],[50.15943,53.40336],[50.15904,53.40775],[50.18551,53.40984],[50.21774,53.40788],[50.21938,53.41579],[50.18039,53.42607],[50.1798,53.43118],[50.17911,53.42288],[50.17005,53.42556],[50.13731,53.41098],[50.11153,53.42791],[50.09119,53.43268],[50.08864,53.44187],[50.09407,53.44671],[50.12687,53.45184],[50.12838,53.46601],[50.11726,53.47778],[50.12115,53.50339],[50.13039,53.50518],[50.12453,53.5034],[50.1271,53.49747],[50.12047,53.49332],[50.1718,53.50406],[50.18715,53.48363],[50.19121,53.48449],[50.19017,53.49274],[50.1788,53.50566],[50.18888,53.50849],[50.1786,53.50598],[50.17658,53.50941],[50.18434,53.51376],[50.17406,53.51249],[50.17345,53.52064],[50.16502,53.52761],[50.16142,53.52694],[50.16299,53.51497],[50.14965,53.51321],[50.14364,53.51475],[50.1571,53.51927],[50.15142,53.52411],[50.11851,53.52206],[50.11578,53.47785],[50.12748,53.46467],[50.12516,53.4511],[50.11484,53.44992],[50.10654,53.44912],[50.06974,53.47406],[50.08154,53.48034],[50.07214,53.48674],[50.08535,53.49422],[50.07325,53.49557],[50.08381,53.50242],[50.06896,53.50437],[50.0883,53.5115],[50.0636,53.5154],[50.06323,53.52017],[50.04563,53.52643],[50.03116,53.52805],[50.02989,53.52282],[50.00753,53.52924],[49.98138,53.54641],[49.94893,53.54439],[49.94962,53.54857],[49.90069,53.55076],[49.89908,53.53934],[49.86686,53.54138],[49.86797,53.55058],[49.84147,53.54856],[49.83465,53.51786],[49.8196,53.51867],[49.81038,53.50088],[49.83204,53.49896],[49.83096,53.48928],[49.8148,53.49003],[49.8124,53.47902],[49.76477,53.47958],[49.76468,53.48471],[49.73139,53.48063]]]}}]}