{"type":"FeatureCollection","features":[{"type":"Feature","properties":{"name":"Чебоксары","osm":"relation/3374548","licence":"Data © OpenStreetMap contributors, ODbL 1.0. http://osm.org/copyright"},"geometry":{"type":"Polygon","coordinates":[[[47.11455,56.10637],[47.1173,56.10469],[47.11929,56.10511],[47.12802,56.10191],[47.11745,56.09224],[47.12259,56.0966],[47.13011,56.09525],[47.1248,56.09268],[47.12585,56.0909],[47.1339,56.09284],[47.13442,56.09225],[47.13234,56.09026],[47.13335,56.08997],[47.13112,56.08741],[47.1275,56.08686],[47.1255,56.08731],[47.12299,56.08606],[47.12087,56.08731],[47.1198,56.08677],[47.11898,56.08467],[47.11704,56.08294],[47.1168,56.08161],[47.11745,56.08037],[47.11631,56.07986],[47.11549,56.07859],[47.12059,56.07642],[47.12153,56.07623],[47.12886,56.07989],[47.13721,56.08218],[47.14417,56.08329],[47.15032,56.08346],[47.14999,56.08311],[47.15555,56.08266],[47.16178,56.0807],[47.16256,56.0812],[47.17343,56.07848],[47.17318,56.07805],[47.21591,56.07248],[47.22565,56.07173],[47.22887,56.07058],[47.23888,56.06492],[47.24497,56.06253],[47.27282,56.05426],[47.27407,56.05461],[47.28421,56.05145],[47.2865,56.05132],[47.28007,56.06152],[47.282,56.06231],[47.28323,56.06421],[47.28809,56.0657],[47.2927,56.06658],[47.29418,56.06634],[47.29536,56.06708],[47.3005,56.06577],[47.31208,56.06936],[47.31968,56.07039],[47.32899,56.06954],[47.32978,56.07087],[47.32877,56.07524],[47.32977,56.07705],[47.33281,56.07986],[47.33422,56.07956],[47.34374,56.08158],[47.3453,56.08228],[47.35143,56.08888],[47.36842,56.0922],[47.37193,56.09414],[47.33047,56.08656],[47.33129,56.08386],[47.32511,56.08342],[47.32494,56.08244],[47.32577,56.08251],[47.32595,56.08185],[47.32775,56.08191],[47.32804,56.08067],[47.32506,56.08057],[47.32066,56.08184],[47.32047,56.08255],[47.319,56.0825],[47.31536,56.08583],[47.31667,56.08657],[47.31681,56.08822],[47.31465,56.08812],[47.31458,56.08914],[47.31515,56.08916],[47.31593,56.09071],[47.31475,56.09232],[47.31751,56.09302],[47.31752,56.09432],[47.3198,56.09497],[47.32152,56.09629],[47.32213,56.0951],[47.32964,56.09534],[47.32965,56.09675],[47.33066,56.09729],[47.32851,56.10124],[47.33332,56.10275],[47.33205,56.10374],[47.33274,56.10619],[47.33223,56.10662],[47.33907,56.10789],[47.34493,56.10977],[47.35075,56.1091],[47.35094,56.10967],[47.35819,56.10987],[47.35885,56.11054],[47.36057,56.11075],[47.36052,56.10942],[47.35899,56.10917],[47.35898,56.10855],[47.35978,56.10843],[47.36091,56.10896],[47.36088,56.11267],[47.36749,56.11237],[47.36734,56.11283],[47.36415,56.11298],[47.36453,56.11535],[47.36343,56.11542],[47.36369,56.1168],[47.36234,56.11898],[47.36295,56.12056],[47.36454,56.1209],[47.365,56.12416],[47.36305,56.12427],[47.36274,56.12548],[47.41806,56.12232],[47.42049,56.12169],[47.42078,56.12219],[47.41168,56.12281],[47.413,56.12315],[47.41107,56.12332],[47.41104,56.12467],[47.4147,56.12591],[47.41572,56.1268],[47.41877,56.12675],[47.41934,56.12789],[47.42182,56.12775],[47.4243,56.12905],[47.42389,56.12958],[47.42707,56.12989],[47.42721,56.13034],[47.42389,56.13085],[47.42336,56.1303],[47.41583,56.13002],[47.40982,56.13048],[47.40885,56.12975],[47.40366,56.12937],[47.40112,56.12795],[47.39834,56.12871],[47.39465,56.1287],[47.39424,56.12951],[47.39467,56.13167],[47.39359,56.13258],[47.39124,56.13151],[47.39085,56.13173],[47.39124,56.13289],[47.39075,56.13301],[47.38985,56.13221],[47.38986,56.13272],[47.38823,56.1324],[47.38824,56.13305],[47.38091,56.13387],[47.37865,56.13309],[47.37743,56.13356],[47.37169,56.13267],[47.37253,56.13466],[47.3716,56.13462],[47.37144,56.13391],[47.36451,56.13398],[47.36233,56.13245],[47.36322,56.13152],[47.36206,56.13138],[47.36284,56.13049],[47.36251,56.12942],[47.3604,56.12877],[47.36009,56.13012],[47.35868,56.1304],[47.35926,56.13084],[47.35782,56.13178],[47.35904,56.13217],[47.35793,56.13261],[47.35908,56.13279],[47.36502,56.13852],[47.35442,56.1414],[47.33501,56.14433],[47.32622,56.14466],[47.3227,56.14566],[47.3112,56.14648],[47.30392,56.1478],[47.28075,56.15027],[47.26145,56.15024],[47.25589,56.14748],[47.25418,56.14772],[47.25267,56.149],[47.25479,56.15024],[47.25498,56.15197],[47.25388,56.15266],[47.24882,56.15396],[47.23295,56.1552],[47.21007,56.15601],[47.16297,56.15522],[47.15019,56.15671],[47.14818,56.15188],[47.15424,56.15109],[47.15361,56.15069],[47.14316,56.15124],[47.13926,56.14597],[47.13673,56.13987],[47.13952,56.13922],[47.13736,56.1376],[47.1366,56.13626],[47.137,56.13385],[47.13664,56.13001],[47.14207,56.13122],[47.14668,56.13094],[47.14633,56.13036],[47.14497,56.13056],[47.14423,56.1293],[47.14331,56.12946],[47.14358,56.13],[47.14065,56.12992],[47.14047,56.12858],[47.14107,56.12826],[47.1454,56.12839],[47.14696,56.1309],[47.16132,56.12943],[47.16341,56.12771],[47.16722,56.12638],[47.17264,56.12739],[47.17307,56.12506],[47.16664,56.12299],[47.16376,56.12398],[47.16315,56.12339],[47.16021,56.12473],[47.15856,56.12405],[47.16359,56.12207],[47.16046,56.1204],[47.15424,56.11883],[47.14526,56.11826],[47.14237,56.11702],[47.13963,56.11667],[47.13879,56.11572],[47.13768,56.11611],[47.13158,56.11551],[47.12805,56.11648],[47.1265,56.11561],[47.12763,56.11464],[47.123,56.1138],[47.1229,56.1133],[47.12112,56.11274],[47.12281,56.11099],[47.12225,56.11098],[47.12255,56.10923],[47.11867,56.11019],[47.11772,56.10891],[47.11831,56.10831],[47.11548,56.10754],[47.11455,56.10637]]]}}]}