{"type":"FeatureCollection","features":[{"type":"Feature","properties":{"name":"Волгоград","osm":"relation/3374767","licence":"Data © OpenStreetMap contributors, ODbL 1.0. http://osm.org/copyright"},"geometry":{"type":"Polygon","coordinates":[[[44.10877,48.62336],[44.11942,48.61772],[44.1224,48.61019],[44.11975,48.609],[44.12075,48.60575],[44.131,48.60475],[44.1345,48.60025],[44.15504,48.59827],[44.15727,48.59528],[44.15,48.58725],[44.1465,48.5865],[44.1455,48.5905],[44.14096,48.59151],[44.15925,48.57283],[44.17129,48.57726],[44.18983,48.57425],[44.22592,48.57707],[44.18918,48.56873],[44.18743,48.56215],[44.18109,48.5583],[44.16514,48.53834],[44.17214,48.51961],[44.19125,48.5134],[44.19132,48.50778],[44.19597,48.50755],[44.1937,48.50379],[44.20403,48.49843],[44.20574,48.49336],[44.2313,48.49248],[44.24481,48.48605],[44.26561,48.4854],[44.28049,48.48018],[44.28991,48.4831],[44.28817,48.55131],[44.30392,48.55891],[44.31206,48.55934],[44.31156,48.59341],[44.2994,48.60349],[44.34321,48.61591],[44.32895,48.58897],[44.36486,48.59882],[44.36335,48.59402],[44.36991,48.59283],[44.37435,48.58169],[44.36567,48.57994],[44.36555,48.57689],[44.37367,48.56837],[44.37209,48.5603],[44.36469,48.55764],[44.34567,48.56857],[44.3392,48.564],[44.39231,48.53384],[44.38205,48.53111],[44.41036,48.51249],[44.45979,48.49762],[44.44985,48.49561],[44.46921,48.48559],[44.49713,48.48196],[44.499,48.47904],[44.49004,48.48101],[44.4844,48.47691],[44.50313,48.47463],[44.5095,48.47175],[44.5085,48.46723],[44.51152,48.46678],[44.51798,48.47709],[44.54629,48.48272],[44.51804,48.45379],[44.50392,48.42955],[44.5014,48.42972],[44.50509,48.43204],[44.49707,48.4337],[44.49588,48.43124],[44.49951,48.43003],[44.49362,48.42503],[44.43893,48.43707],[44.43224,48.44382],[44.42738,48.43983],[44.49882,48.42476],[44.50525,48.43054],[44.51948,48.45504],[44.5531,48.48821],[44.567,48.48507],[44.57294,48.48995],[44.58526,48.47901],[44.59127,48.46793],[44.59493,48.46603],[44.60384,48.46838],[44.60677,48.4656],[44.6134,48.46758],[44.62645,48.45555],[44.57607,48.43654],[44.58111,48.41938],[44.57604,48.41736],[44.53705,48.42035],[44.49681,48.41657],[44.48874,48.42119],[44.47519,48.4123],[44.45588,48.40722],[44.4491,48.40814],[44.42274,48.4224],[44.42625,48.42753],[44.43539,48.42468],[44.43643,48.42763],[44.42359,48.42901],[44.42178,48.42674],[44.42507,48.42596],[44.42238,48.42232],[44.44928,48.40787],[44.46261,48.40793],[44.4752,48.41217],[44.4795,48.4169],[44.49024,48.41328],[44.50792,48.4193],[44.53846,48.42019],[44.57534,48.41692],[44.58164,48.4192],[44.57666,48.43655],[44.62703,48.45529],[44.62941,48.45077],[44.64266,48.45512],[44.63681,48.45917],[44.64407,48.46269],[44.66022,48.45154],[44.66658,48.45326],[44.68065,48.46231],[44.67895,48.48699],[44.66411,48.49128],[44.66389,48.50197],[44.68061,48.51002],[44.68732,48.51601],[44.68743,48.52065],[44.61407,48.55722],[44.6065,48.56702],[44.61005,48.57275],[44.6165,48.57475],[44.64243,48.57547],[44.64732,48.58135],[44.64736,48.59239],[44.62997,48.59986],[44.61968,48.61357],[44.59251,48.62553],[44.52738,48.6184],[44.516,48.62419],[44.52016,48.64751],[44.52629,48.65304],[44.5356,48.67265],[44.54406,48.71398],[44.58722,48.76401],[44.62558,48.79325],[44.63336,48.79311],[44.65963,48.81845],[44.65499,48.8241],[44.65889,48.82789],[44.65428,48.82932],[44.65864,48.83067],[44.66771,48.86798],[44.64714,48.87677],[44.62562,48.87794],[44.61858,48.88252],[44.61882,48.88906],[44.58691,48.87871],[44.60043,48.87319],[44.59578,48.86731],[44.59915,48.86533],[44.59899,48.86026],[44.57286,48.84214],[44.55363,48.84768],[44.55063,48.84512],[44.55373,48.8438],[44.52693,48.82514],[44.52411,48.81351],[44.51436,48.81307],[44.50157,48.80418],[44.50088,48.80016],[44.49348,48.80095],[44.48927,48.79011],[44.47728,48.78888],[44.47124,48.78225],[44.45046,48.77089],[44.42688,48.77126],[44.43451,48.77605],[44.42702,48.77842],[44.42136,48.77675],[44.40599,48.78503],[44.40148,48.79032],[44.40654,48.79374],[44.38648,48.78984],[44.37485,48.80226],[44.36055,48.79639],[44.35329,48.80452],[44.33772,48.79486],[44.34145,48.79287],[44.32869,48.79504],[44.31977,48.79304],[44.32584,48.77961],[44.31126,48.77558],[44.30793,48.7706],[44.34173,48.77924],[44.36956,48.77051],[44.35597,48.76356],[44.37514,48.76356],[44.3816,48.76812],[44.39443,48.76047],[44.39662,48.76291],[44.40911,48.75753],[44.42031,48.75838],[44.4117,48.75086],[44.41628,48.74823],[44.41728,48.74356],[44.41166,48.71833],[44.38951,48.71797],[44.38039,48.70804],[44.378,48.69947],[44.36065,48.70107],[44.33689,48.70983],[44.32472,48.70835],[44.31713,48.69465],[44.30655,48.69093],[44.30114,48.69467],[44.30276,48.6921],[44.28578,48.68068],[44.28524,48.67564],[44.23807,48.67168],[44.23887,48.66957],[44.25415,48.6714],[44.24856,48.6489],[44.25004,48.64358],[44.24389,48.6403],[44.23288,48.63962],[44.21392,48.63229],[44.21044,48.63754],[44.14931,48.62877],[44.14595,48.6314],[44.13123,48.62245],[44.12298,48.62818],[44.10877,48.62336]]]}}]}