{"type":"FeatureCollection","features":[{"type":"Feature","properties":{"name":"Мурманск","osm":"relation/3374641","licence":"Data © OpenStreetMap contributors, ODbL 1.0. http://osm.org/copyright"},"geometry":{"type":"Polygon","coordinates":[[[32.93287,68.90211],[32.94804,68.90152],[32.95134,68.90139],[32.98818,68.89996],[33.01872,68.89877],[33.06249,68.89666],[33.0633,68.89663],[33.06545,68.89664],[33.06677,68.89659],[33.06719,68.89644],[33.06833,68.89626],[33.07003,68.89643],[33.0712,68.89639],[33.07205,68.89623],[33.07287,68.89601],[33.07292,68.8957],[33.07167,68.89504],[33.07189,68.89497],[33.07211,68.89491],[33.06846,68.89277],[33.06629,68.89134],[33.06439,68.88925],[33.06674,68.88919],[33.07039,68.88869],[33.07262,68.88872],[33.08062,68.88819],[33.07913,68.88644],[33.08369,68.88289],[33.08507,68.88326],[33.08922,68.88437],[33.09623,68.88582],[33.09654,68.88576],[33.1041,68.88434],[33.10921,68.88615],[33.10944,68.88654],[33.1107,68.88656],[33.11664,68.88861],[33.11874,68.88934],[33.12526,68.89159],[33.15485,68.90179],[33.22883,68.92841],[33.26249,68.93927],[33.26561,68.95291],[33.29414,68.95349],[33.2927,68.96487],[33.28861,68.99719],[33.23897,68.99745],[33.20793,68.99762],[33.16736,69.01463],[33.1424,69.02509],[33.13237,69.02463],[33.13059,69.02455],[33.12599,69.02434],[33.12054,69.02279],[33.11566,69.02401],[33.11257,69.02446],[33.11288,69.026],[33.1151,69.02802],[33.11649,69.02935],[33.11641,69.02936],[33.11658,69.02965],[33.11679,69.02999],[33.11657,69.03103],[33.11626,69.03221],[33.11713,69.03398],[33.12146,69.03611],[33.12523,69.03799],[33.13438,69.03972],[33.13815,69.04039],[33.14208,69.0409],[33.14756,69.04116],[33.15175,69.04094],[33.15698,69.04071],[33.15878,69.04046],[33.16265,69.0397],[33.16351,69.03937],[33.16457,69.03848],[33.16519,69.03701],[33.16594,69.03635],[33.16725,69.03596],[33.16874,69.03574],[33.17038,69.03569],[33.17208,69.03587],[33.17317,69.03619],[33.1738,69.03647],[33.17649,69.03849],[33.17769,69.03921],[33.18015,69.04009],[33.18296,69.04065],[33.18791,69.04145],[33.19103,69.03941],[33.20317,69.03983],[33.20591,69.04202],[33.23766,69.0468],[33.25035,69.04607],[33.25376,69.04587],[33.26308,69.04662],[33.26436,69.04683],[33.26864,69.05281],[33.25971,69.05617],[33.2669,69.06177],[33.26589,69.06405],[33.21962,69.06334],[33.20627,69.06236],[33.19042,69.05988],[33.17232,69.06031],[33.15813,69.0626],[33.11803,69.05351],[33.08493,69.05349],[33.07162,69.04988],[33.06658,69.03808],[33.06251,69.03314],[33.06083,69.03109],[33.05129,69.01939],[33.04657,69.01417],[33.04402,69.01049],[33.03523,68.99976],[33.03135,68.9953],[33.02659,68.98962],[33.02316,68.98579],[33.02168,68.98627],[33.01979,68.98627],[33.0197,68.98682],[33.01657,68.9866],[33.01307,68.98627],[33.01038,68.98626],[33.00989,68.98621],[33.00941,68.98616],[33.00648,68.9858],[33.00257,68.98531],[32.99203,68.98401],[32.98674,68.98337],[32.98153,68.98273],[32.97789,68.98228],[32.97108,68.98144],[32.96539,68.98073],[32.96038,68.98022],[32.9564,68.97988],[32.95053,68.97945],[32.9455,68.97909],[32.94113,68.97876],[32.93817,68.95563],[32.93791,68.94308],[32.96632,68.94717],[32.96619,68.94588],[32.96653,68.94498],[32.9672,68.944],[32.96832,68.94306],[32.96955,68.94228],[32.9734,68.94059],[32.93597,68.93432],[32.93588,68.93302],[32.93287,68.90211]]]}}]}