{"type":"FeatureCollection","features":[{"type":"Feature","properties":{"name":"Великий Новгород","osm":"relation/3396084","licence":"Data © OpenStreetMap contributors, ODbL 1.0. http://osm.org/copyright"},"geometry":{"type":"Polygon","coordinates":[[[31.19668,58.63183],[31.24176,58.57926],[31.24066,58.57713],[31.23972,58.573],[31.2385,58.57266],[31.24158,58.56864],[31.24052,58.56847],[31.24094,58.56816],[31.24058,58.56791],[31.23953,58.56774],[31.23926,58.56713],[31.2382,58.56714],[31.23759,58.56653],[31.23675,58.56543],[31.23728,58.56473],[31.23765,58.56466],[31.23742,58.5643],[31.23655,58.56409],[31.23694,58.56364],[31.23512,58.5635],[31.2353,58.56281],[31.23361,58.56228],[31.24396,58.55926],[31.24516,58.5592],[31.24575,58.55529],[31.24038,58.55034],[31.23487,58.55209],[31.2263,58.5541],[31.22687,58.55311],[31.2248,58.55309],[31.22427,58.55267],[31.22339,58.55272],[31.22315,58.5522],[31.22185,58.55205],[31.22145,58.55134],[31.2203,58.5507],[31.22048,58.55038],[31.21855,58.54944],[31.21893,58.54886],[31.21771,58.5487],[31.21811,58.54823],[31.21649,58.54709],[31.21684,58.54646],[31.21523,58.54577],[31.21592,58.54501],[31.21553,58.54337],[31.21618,58.54288],[31.21444,58.54147],[31.21442,58.54119],[31.21523,58.54065],[31.21455,58.53954],[31.21514,58.53827],[31.21597,58.53806],[31.2148,58.5371],[31.20343,58.53689],[31.20322,58.53511],[31.19846,58.53247],[31.20028,58.5302],[31.20245,58.52861],[31.20657,58.52688],[31.20613,58.5268],[31.2056,58.52618],[31.20666,58.5258],[31.20584,58.52478],[31.20856,58.52482],[31.20911,58.52443],[31.20872,58.52363],[31.20634,58.52296],[31.20598,58.52247],[31.20767,58.52185],[31.21018,58.52192],[31.21249,58.5216],[31.21245,58.52093],[31.21046,58.51985],[31.20989,58.51933],[31.20997,58.51901],[31.21089,58.51886],[31.21258,58.51966],[31.2138,58.51891],[31.2146,58.51875],[31.21558,58.5191],[31.21701,58.51909],[31.21902,58.51854],[31.22027,58.51894],[31.22061,58.518],[31.22023,58.51664],[31.22253,58.51675],[31.22357,58.51641],[31.22346,58.51606],[31.22135,58.5156],[31.22078,58.51516],[31.22055,58.51423],[31.2217,58.51313],[31.22054,58.51285],[31.21659,58.51272],[31.21216,58.51307],[31.21126,58.51088],[31.21197,58.51],[31.21369,58.50939],[31.21877,58.50922],[31.21962,58.50893],[31.21968,58.50789],[31.22153,58.50638],[31.22008,58.5052],[31.22064,58.50423],[31.22209,58.50278],[31.22116,58.50194],[31.22168,58.50165],[31.22374,58.50241],[31.22575,58.50222],[31.22625,58.50193],[31.22765,58.5021],[31.22808,58.50169],[31.23015,58.5011],[31.23126,58.50199],[31.232,58.50208],[31.23564,58.50135],[31.23819,58.50172],[31.23894,58.50099],[31.23721,58.49771],[31.23526,58.49496],[31.23777,58.49447],[31.23217,58.48611],[31.23478,58.48538],[31.23795,58.48717],[31.24182,58.4916],[31.25009,58.49122],[31.25262,58.49343],[31.26466,58.49123],[31.26123,58.48746],[31.26905,58.48516],[31.27358,58.48967],[31.28102,58.48838],[31.27734,58.48436],[31.2777,58.48353],[31.27157,58.48003],[31.27422,58.47913],[31.27346,58.47845],[31.27281,58.47821],[31.27207,58.47846],[31.27179,58.47807],[31.26853,58.47694],[31.27308,58.47358],[31.27034,58.47242],[31.26962,58.47164],[31.27001,58.47119],[31.28273,58.47036],[31.28339,58.4787],[31.29159,58.48683],[31.29266,58.4922],[31.30265,58.49106],[31.3034,58.49176],[31.30503,58.49155],[31.30558,58.49261],[31.3083,58.49553],[31.30749,58.49597],[31.30726,58.49664],[31.30641,58.49727],[31.2981,58.49662],[31.29785,58.49774],[31.29379,58.49818],[31.29389,58.50353],[31.29628,58.50451],[31.3025,58.50633],[31.30964,58.50916],[31.31122,58.50937],[31.31437,58.50909],[31.31917,58.50769],[31.31982,58.50789],[31.32015,58.50933],[31.32046,58.50966],[31.32387,58.51023],[31.32765,58.51346],[31.33745,58.5151],[31.33975,58.51592],[31.34005,58.51701],[31.33981,58.51791],[31.33897,58.5189],[31.33812,58.52058],[31.33206,58.5242],[31.33157,58.52499],[31.33196,58.52646],[31.33509,58.52922],[31.34044,58.53153],[31.34094,58.53299],[31.32776,58.5332],[31.32705,58.53342],[31.32625,58.53522],[31.32846,58.53553],[31.32841,58.53658],[31.32567,58.53651],[31.32505,58.53846],[31.32502,58.54059],[31.32572,58.54143],[31.32667,58.54562],[31.32373,58.56007],[31.32387,58.56185],[31.31931,58.56298],[31.32371,58.56825],[31.3446,58.56756],[31.34203,58.57638],[31.34649,58.57839],[31.3489,58.58144],[31.34555,58.58403],[31.38391,58.59007],[31.40572,58.59553],[31.41198,58.59789],[31.41224,58.5987],[31.41207,58.60228],[31.40649,58.60779],[31.40792,58.614],[31.41346,58.62394],[31.42163,58.62733],[31.4258,58.63068],[31.42145,58.63188],[31.41731,58.6294],[31.41393,58.6317],[31.40917,58.62785],[31.40718,58.63254],[31.40384,58.63613],[31.39879,58.63909],[31.39954,58.64543],[31.38542,58.651],[31.37258,58.63974],[31.36826,58.64098],[31.36053,58.6332],[31.35301,58.62389],[31.3587,58.62011],[31.35353,58.61327],[31.35656,58.61176],[31.36262,58.61281],[31.37974,58.608],[31.37306,58.60643],[31.37679,58.60408],[31.37791,58.60305],[31.38078,58.6046],[31.38175,58.6042],[31.38576,58.6058],[31.38923,58.60471],[31.38767,58.60324],[31.38826,58.60294],[31.39139,58.60539],[31.40418,58.60208],[31.40377,58.6003],[31.39896,58.59583],[31.38331,58.59167],[31.36533,58.58896],[31.35853,58.59054],[31.35095,58.58879],[31.34792,58.5918],[31.34051,58.58934],[31.34022,58.58746],[31.32848,58.58548],[31.32182,58.58976],[31.31381,58.59012],[31.30515,58.58027],[31.29843,58.57745],[31.29254,58.57823],[31.28988,58.57981],[31.28914,58.58108],[31.29032,58.58232],[31.28763,58.58587],[31.28538,58.58616],[31.27277,58.59003],[31.26312,58.58999],[31.256,58.59872],[31.27344,58.61906],[31.2875,58.61657],[31.2853,58.6262],[31.27444,58.62638],[31.25742,58.63041],[31.25111,58.629],[31.24771,58.63277],[31.25652,58.63484],[31.25222,58.63849],[31.23867,58.6414],[31.19668,58.63183]]]}}]}