{"type":"FeatureCollection","features":[{"type":"Feature","properties":{"name":"Сыктывкар","osm":"relation/3404703","licence":"Data © OpenStreetMap contributors, ODbL 1.0. http://osm.org/copyright"},"geometry":{"type":"Polygon","coordinates":[[[50.62917,61.83131],[50.62962,61.82993],[50.63953,61.8284],[50.64221,61.83219],[50.67141,61.83198],[50.66594,61.8199],[50.687,61.81803],[50.68729,61.81647],[50.69718,61.81693],[50.69794,61.81442],[50.69886,61.81436],[50.70233,61.80961],[50.72307,61.77528],[50.72096,61.77097],[50.72501,61.77125],[50.72625,61.77022],[50.7278,61.76984],[50.72856,61.7703],[50.72899,61.77012],[50.73064,61.7688],[50.7308,61.76788],[50.73205,61.76752],[50.73111,61.76661],[50.73266,61.76529],[50.73227,61.765],[50.73242,61.7646],[50.73335,61.76423],[50.73506,61.76431],[50.73476,61.76358],[50.73612,61.76292],[50.73604,61.76258],[50.73711,61.76174],[50.73632,61.76157],[50.7365,61.76105],[50.73615,61.76054],[50.73786,61.76029],[50.73704,61.75988],[50.73795,61.75972],[50.73509,61.75383],[50.73304,61.75376],[50.73216,61.75307],[50.73294,61.75275],[50.73006,61.75265],[50.72743,61.7535],[50.72608,61.7544],[50.72537,61.75433],[50.72549,61.75391],[50.72448,61.75355],[50.72444,61.75297],[50.72161,61.75325],[50.7189,61.75248],[50.71726,61.75265],[50.7163,61.75197],[50.71518,61.7524],[50.71466,61.75228],[50.71479,61.75134],[50.71357,61.75166],[50.71177,61.75101],[50.7116,61.75071],[50.71265,61.75002],[50.71127,61.74893],[50.70998,61.7488],[50.7112,61.74842],[50.70935,61.74834],[50.70967,61.748],[50.70945,61.74764],[50.70893,61.7476],[50.70815,61.74842],[50.70309,61.74824],[50.69955,61.74746],[50.69781,61.74793],[50.69654,61.74731],[50.69575,61.74758],[50.6943,61.7463],[50.68146,61.74767],[50.68055,61.74734],[50.67978,61.74531],[50.67841,61.74475],[50.67893,61.74404],[50.67731,61.74437],[50.67501,61.74382],[50.6738,61.74497],[50.6727,61.74407],[50.67107,61.74364],[50.66975,61.74393],[50.67121,61.74448],[50.66927,61.74545],[50.66938,61.74632],[50.6683,61.74626],[50.66707,61.74471],[50.66613,61.74451],[50.66085,61.73408],[50.68004,61.73216],[50.68274,61.73658],[50.69206,61.73597],[50.70799,61.73381],[50.69709,61.71357],[50.73686,61.70861],[50.7368,61.6968],[50.73576,61.69109],[50.71976,61.69351],[50.71583,61.68876],[50.71356,61.68719],[50.71407,61.68367],[50.76726,61.67604],[50.76141,61.66531],[50.76666,61.66448],[50.76778,61.65752],[50.75921,61.65612],[50.75489,61.65605],[50.75532,61.65271],[50.76646,61.65123],[50.76936,61.64863],[50.7443,61.64731],[50.74139,61.64743],[50.73512,61.65],[50.73306,61.65008],[50.72358,61.64702],[50.72242,61.64688],[50.71941,61.64769],[50.71445,61.64492],[50.72031,61.64288],[50.72226,61.64404],[50.75564,61.64062],[50.75857,61.64128],[50.76145,61.641],[50.76269,61.64035],[50.76674,61.64011],[50.76949,61.63849],[50.77058,61.63697],[50.77338,61.6375],[50.77675,61.63714],[50.77849,61.63779],[50.78701,61.63729],[50.78844,61.63787],[50.7978,61.63589],[50.80269,61.63677],[50.80422,61.63518],[50.80715,61.63427],[50.80965,61.63377],[50.81058,61.63438],[50.81766,61.63371],[50.83045,61.62984],[50.82287,61.62786],[50.82011,61.62573],[50.82976,61.62423],[50.83011,61.62399],[50.8294,61.62329],[50.82971,61.62288],[50.83213,61.62389],[50.83465,61.62437],[50.84247,61.62313],[50.84377,61.62469],[50.84616,61.62567],[50.85804,61.62804],[50.86385,61.6279],[50.87184,61.63021],[50.87913,61.6337],[50.88321,61.63462],[50.91398,61.65033],[50.90886,61.65426],[50.90742,61.65688],[50.90721,61.65862],[50.90767,61.65956],[50.90862,61.66019],[50.9154,61.66206],[50.91824,61.66367],[50.9188,61.66544],[50.91783,61.66798],[50.91607,61.66903],[50.91436,61.66942],[50.90685,61.67029],[50.8954,61.66935],[50.89266,61.66948],[50.89161,61.67009],[50.89081,61.67132],[50.8912,61.67659],[50.89296,61.68011],[50.89423,61.68168],[50.89649,61.68292],[50.90308,61.68487],[50.90384,61.68554],[50.90397,61.68637],[50.90331,61.68722],[50.90181,61.68798],[50.89092,61.68934],[50.89199,61.69355],[50.88855,61.69447],[50.87996,61.69228],[50.87506,61.68945],[50.85902,61.68949],[50.85687,61.68778],[50.8523,61.68687],[50.84746,61.687],[50.8442,61.68789],[50.84206,61.68922],[50.84173,61.68984],[50.84255,61.69246],[50.84177,61.69682],[50.8367,61.70274],[50.8314,61.70647],[50.82153,61.71001],[50.81971,61.7112],[50.8149,61.71757],[50.81213,61.72],[50.80364,61.72557],[50.80206,61.72702],[50.81204,61.72928],[50.81463,61.73694],[50.81309,61.73833],[50.81116,61.74283],[50.80701,61.74398],[50.80096,61.74334],[50.79946,61.7425],[50.78918,61.73978],[50.78516,61.74245],[50.78534,61.74305],[50.7848,61.74435],[50.78524,61.74499],[50.7855,61.74824],[50.78499,61.74922],[50.78501,61.7507],[50.78658,61.75656],[50.7893,61.76072],[50.79467,61.76283],[50.79747,61.76463],[50.79783,61.76853],[50.79711,61.7694],[50.79492,61.76996],[50.77988,61.76999],[50.77737,61.77093],[50.77414,61.77379],[50.77177,61.7785],[50.77113,61.78059],[50.77194,61.78461],[50.7737,61.78686],[50.78326,61.79614],[50.78357,61.79742],[50.78312,61.79845],[50.78201,61.79941],[50.77698,61.80161],[50.76975,61.8033],[50.76417,61.80517],[50.76164,61.8065],[50.75759,61.80969],[50.75544,61.81311],[50.75242,61.8265],[50.75126,61.82903],[50.74657,61.83361],[50.74306,61.83881],[50.74141,61.84887],[50.73576,61.84875],[50.71755,61.84961],[50.71752,61.84768],[50.71068,61.84816],[50.70811,61.84718],[50.70719,61.84809],[50.70775,61.85003],[50.70697,61.85023],[50.69842,61.84471],[50.691,61.84317],[50.69031,61.84377],[50.69267,61.84419],[50.69223,61.84474],[50.69264,61.845],[50.69078,61.84655],[50.69127,61.84676],[50.6903,61.84725],[50.68908,61.849],[50.68789,61.84878],[50.68727,61.84952],[50.68626,61.84937],[50.68421,61.85251],[50.6823,61.85283],[50.67897,61.85427],[50.67346,61.86153],[50.66649,61.84607],[50.64901,61.85304],[50.64734,61.84564],[50.63067,61.84566],[50.63076,61.83959],[50.6314,61.83426],[50.62917,61.83131]]]}}]}