{"type":"FeatureCollection","features":[{"type":"Feature","properties":{"name":"Казань","osm":"relation/3437391","licence":"Data © OpenStreetMap contributors, ODbL 1.0. http://osm.org/copyright"},"geometry":{"type":"Polygon","coordinates":[[[48.82058,55.82569],[48.83241,55.82424],[48.84243,55.81953],[48.84024,55.80774],[48.84055,55.78988],[49.01516,55.79067],[49.07679,55.75702],[48.98837,55.69342],[48.98851,55.68382],[48.99144,55.67389],[49.03889,55.6738],[49.06012,55.68004],[49.06458,55.67746],[49.07089,55.68167],[49.09601,55.68279],[49.09677,55.6854],[49.10625,55.68453],[49.11341,55.68079],[49.10883,55.67882],[49.11064,55.67663],[49.10745,55.67548],[49.11158,55.67536],[49.10611,55.67323],[49.10645,55.67176],[49.11276,55.67306],[49.11125,55.67174],[49.11401,55.67098],[49.12299,55.67702],[49.12506,55.67666],[49.12289,55.67131],[49.14522,55.67756],[49.13635,55.68262],[49.13957,55.68463],[49.13412,55.68721],[49.13482,55.69151],[49.14822,55.67997],[49.15291,55.67869],[49.15088,55.67524],[49.15584,55.67052],[49.15989,55.67048],[49.16244,55.66391],[49.18959,55.67762],[49.18224,55.68224],[49.18357,55.68697],[49.18037,55.68663],[49.18048,55.68895],[49.17621,55.69086],[49.17468,55.68914],[49.17158,55.69294],[49.16056,55.69362],[49.15713,55.70055],[49.17988,55.70774],[49.1838,55.70566],[49.17903,55.70276],[49.21491,55.69646],[49.21994,55.69438],[49.21805,55.69288],[49.22336,55.6898],[49.29489,55.66176],[49.29531,55.65854],[49.36336,55.70212],[49.3137,55.71168],[49.29576,55.71735],[49.30024,55.72329],[49.29639,55.7243],[49.31983,55.7258],[49.32503,55.73115],[49.32461,55.73319],[49.33017,55.73438],[49.33475,55.73254],[49.37352,55.74045],[49.37658,55.74247],[49.37773,55.74931],[49.38119,55.74939],[49.37929,55.75708],[49.36591,55.75935],[49.357,55.76375],[49.33986,55.78149],[49.33784,55.78718],[49.33893,55.79422],[49.33679,55.79851],[49.32809,55.79887],[49.32851,55.80044],[49.33717,55.8],[49.34376,55.80419],[49.35012,55.83276],[49.34806,55.83847],[49.33017,55.85228],[49.30617,55.86235],[49.28975,55.87375],[49.25406,55.87717],[49.25191,55.87996],[49.22323,55.88923],[49.21292,55.88096],[49.21395,55.87626],[49.21813,55.87403],[49.21185,55.87623],[49.20686,55.87293],[49.2174,55.86906],[49.19678,55.85528],[49.20033,55.85714],[49.20112,55.862],[49.19781,55.86535],[49.19371,55.86512],[49.19071,55.8734],[49.19405,55.87859],[49.2028,55.8847],[49.19761,55.89034],[49.20811,55.89753],[49.20093,55.89959],[49.20651,55.90427],[49.21222,55.90431],[49.21907,55.90266],[49.22232,55.89773],[49.23295,55.896],[49.23389,55.89762],[49.22681,55.90384],[49.2306,55.90362],[49.23544,55.89909],[49.23754,55.90364],[49.23225,55.90552],[49.22743,55.91153],[49.23772,55.91483],[49.2421,55.91156],[49.24549,55.91265],[49.24947,55.91581],[49.2413,55.91933],[49.23964,55.91817],[49.24346,55.91702],[49.24314,55.91561],[49.23249,55.91683],[49.23493,55.91869],[49.22671,55.91956],[49.22893,55.91322],[49.21351,55.91386],[49.20908,55.9111],[49.20826,55.90632],[49.20363,55.9065],[49.2064,55.90455],[49.20082,55.89992],[49.17607,55.90643],[49.15618,55.91596],[49.14362,55.91792],[49.15668,55.90916],[49.16459,55.91151],[49.15894,55.90813],[49.16139,55.90615],[49.15657,55.90111],[49.14682,55.89941],[49.14037,55.8993],[49.13512,55.90361],[49.13479,55.90678],[49.13953,55.91232],[49.13625,55.91286],[49.13839,55.91778],[49.12585,55.91594],[49.12725,55.91428],[49.12567,55.91581],[49.10931,55.91312],[49.1137,55.91261],[49.11311,55.90866],[49.09551,55.90456],[49.09245,55.90569],[49.0987,55.90715],[49.07905,55.90578],[49.07682,55.9085],[49.08037,55.90712],[49.08371,55.90802],[49.07907,55.90925],[49.0973,55.91085],[49.10394,55.90885],[49.10217,55.91063],[49.10458,55.9102],[49.10254,55.91081],[49.1048,55.91265],[49.05137,55.90926],[49.04976,55.90097],[49.06528,55.897],[49.05284,55.89346],[49.05205,55.88898],[49.06788,55.88558],[49.06928,55.88368],[49.06766,55.88511],[49.05229,55.88454],[49.04454,55.8887],[49.03963,55.88573],[49.03338,55.887],[49.02883,55.88935],[49.03018,55.89075],[49.02555,55.89471],[49.02211,55.89471],[49.02568,55.89485],[49.0248,55.89822],[49.02913,55.89183],[49.04193,55.88826],[49.04737,55.89226],[48.99454,55.91396],[48.98007,55.91205],[48.97669,55.90857],[48.95635,55.90745],[48.95534,55.9052],[48.9514,55.90563],[48.95176,55.90184],[48.96748,55.90339],[48.96772,55.89954],[48.97223,55.8987],[48.96985,55.88438],[48.96518,55.8879],[48.93188,55.87935],[48.92706,55.87345],[48.93384,55.87203],[48.93125,55.8644],[48.92147,55.86392],[48.91505,55.8589],[48.89572,55.86971],[48.88957,55.87032],[48.86993,55.86585],[48.86831,55.86783],[48.85669,55.86825],[48.85701,55.87057],[48.85003,55.86975],[48.84621,55.86672],[48.85308,55.86118],[48.84911,55.85877],[48.85236,55.85655],[48.8535,55.85268],[48.84704,55.82576],[48.82074,55.82739],[48.82058,55.82569]]]}}]}