{"type":"FeatureCollection","features":[{"type":"Feature","properties":{"name":"Пермь","osm":"relation/3437213","licence":"Data © OpenStreetMap contributors, ODbL 1.0. http://osm.org/copyright"},"geometry":{"type":"Polygon","coordinates":[[[55.79892,57.99166],[55.80241,57.97568],[55.83035,57.95081],[55.86071,57.94092],[55.88561,57.94094],[55.9014,57.9437],[55.92251,57.95843],[55.92844,57.96387],[55.93466,57.97288],[55.93882,57.98408],[55.94362,57.98826],[55.99216,58.01063],[56.0145,58.01707],[56.03502,58.01891],[56.08173,58.01769],[56.07272,58.01376],[56.07107,58.01064],[56.06251,58.01027],[56.06397,58.00813],[56.0707,58.00943],[56.06989,58.00549],[56.09564,58.00215],[56.10051,57.99756],[56.10652,57.9985],[56.10539,58.00024],[56.11342,58.00082],[56.12,57.99249],[56.12338,57.99436],[56.13024,57.99281],[56.1263,57.99103],[56.12832,57.9862],[56.12415,57.97983],[56.11708,57.97876],[56.12103,57.97662],[56.11725,57.97443],[56.11822,57.97282],[56.12551,57.97192],[56.11928,57.97075],[56.11862,57.96939],[56.1224,57.96824],[56.11781,57.96586],[56.12422,57.95723],[56.11919,57.95604],[56.1193,57.9545],[56.07905,57.946],[56.08094,57.94728],[56.0794,57.94809],[56.0735,57.94429],[56.0451,57.93844],[56.0628,57.93578],[56.06996,57.93949],[56.08426,57.93477],[56.09207,57.93909],[56.10493,57.93629],[56.10186,57.9329],[56.10209,57.93019],[56.09513,57.92357],[56.09793,57.92212],[56.09609,57.92134],[56.09919,57.91811],[56.1053,57.91611],[56.10567,57.91414],[56.10909,57.91463],[56.10747,57.91362],[56.11039,57.91002],[56.12413,57.90373],[56.12186,57.90261],[56.1254,57.9005],[56.1345,57.89839],[56.14589,57.89887],[56.16312,57.88814],[56.15338,57.88263],[56.1555,57.87586],[56.16297,57.8706],[56.17009,57.87366],[56.17958,57.86767],[56.18833,57.87166],[56.17873,57.87789],[56.18105,57.87893],[56.18893,57.87823],[56.19389,57.87471],[56.19591,57.87575],[56.19365,57.87706],[56.19653,57.87834],[56.20168,57.87555],[56.20512,57.87722],[56.21251,57.87347],[56.18521,57.89151],[56.18784,57.89383],[56.20654,57.88181],[56.20895,57.88468],[56.19792,57.88902],[56.18024,57.9061],[56.18325,57.91018],[56.17954,57.91438],[56.18309,57.92101],[56.18715,57.92106],[56.19759,57.93001],[56.2012,57.94029],[56.21516,57.94006],[56.21463,57.93744],[56.21885,57.93823],[56.22643,57.94402],[56.23716,57.94299],[56.2432,57.94907],[56.25087,57.95133],[56.25667,57.94508],[56.26363,57.94196],[56.28224,57.94293],[56.29066,57.94079],[56.2933,57.93776],[56.31305,57.95017],[56.32778,57.95292],[56.34468,57.94938],[56.34755,57.95463],[56.35621,57.9538],[56.36529,57.95823],[56.41132,57.94657],[56.41041,57.94116],[56.40338,57.9326],[56.40289,57.92756],[56.40662,57.92286],[56.44204,57.92076],[56.45356,57.96836],[56.50723,57.96499],[56.53189,57.96726],[56.52637,57.97805],[56.53478,58.00172],[56.63999,57.99495],[56.65193,58.04251],[56.65664,58.04404],[56.65407,58.04805],[56.65477,58.05567],[56.64167,58.05892],[56.64172,58.06126],[56.63399,58.06509],[56.61916,58.06187],[56.5885,58.07463],[56.57076,58.07093],[56.54969,58.07232],[56.56016,58.1195],[56.53827,58.13223],[56.5233,58.14693],[56.51537,58.15209],[56.50517,58.15546],[56.45074,58.1583],[56.39281,58.15247],[56.39082,58.15567],[56.38953,58.15525],[56.39172,58.15216],[56.31559,58.17715],[56.30549,58.17472],[56.30258,58.17],[56.29689,58.16767],[56.29802,58.16684],[56.29404,58.16303],[56.29222,58.15727],[56.29955,58.15458],[56.29364,58.15285],[56.26388,58.16419],[56.25281,58.16365],[56.24957,58.15513],[56.23146,58.15687],[56.21138,58.09526],[56.20697,58.0942],[56.2085,58.09396],[56.2064,58.0929],[56.20763,58.09196],[56.20305,58.09021],[56.2,58.09155],[56.19773,58.0894],[56.19305,58.0917],[56.19118,58.08952],[56.17302,58.08886],[56.16657,58.08548],[56.16288,58.08653],[56.16362,58.09426],[56.15788,58.09467],[56.16131,58.10525],[56.10676,58.11085],[56.10898,58.1066],[56.11426,58.10638],[56.11396,58.10312],[56.12459,58.09634],[56.12494,58.09429],[56.0276,58.10292],[56.02274,58.07799],[55.98302,58.07562],[55.97717,58.07859],[55.97853,58.07529],[55.97561,58.07472],[55.97896,58.07274],[55.97492,58.07082],[55.97907,58.06701],[55.97479,58.06403],[55.97645,58.06191],[55.97028,58.062],[55.97281,58.06014],[55.96901,58.05982],[55.97032,58.05742],[55.96609,58.0574],[55.96548,58.05561],[55.96261,58.0569],[55.96353,58.05472],[55.95762,58.05463],[55.95659,58.05287],[55.95904,58.05248],[55.9557,58.05195],[55.95489,58.04972],[55.946,58.04947],[55.94536,58.04678],[55.94368,58.04819],[55.93982,58.04505],[55.9283,58.04508],[55.9291,58.0437],[55.9212,58.0389],[55.8895,58.04449],[55.883,58.03911],[55.87213,58.04355],[55.86353,58.04247],[55.85883,58.04797],[55.85598,58.04581],[55.85476,58.04642],[55.85695,58.04792],[55.84254,58.04848],[55.83859,58.05089],[55.841,58.05224],[55.83498,58.0541],[55.82757,58.05367],[55.82801,58.05548],[55.82072,58.05382],[55.81835,58.04968],[55.80986,58.04623],[55.81638,58.03882],[55.81823,58.02842],[55.80381,58.00523],[55.79892,57.99166]]]}}]}