{"type":"FeatureCollection","features":[{"type":"Feature","properties":{"name":"Омск","osm":"relation/3442814","licence":"Data © OpenStreetMap contributors, ODbL 1.0. http://osm.org/copyright"},"geometry":{"type":"Polygon","coordinates":[[[73.09753,54.94648],[73.14672,54.94404],[73.15004,54.94337],[73.16602,54.94254],[73.16676,54.93872],[73.16816,54.93869],[73.16871,54.94112],[73.18424,54.94027],[73.18444,54.94218],[73.21567,54.94036],[73.22929,54.93804],[73.22938,54.93735],[73.23438,54.93638],[73.24269,54.93501],[73.24569,54.93509],[73.26167,54.89479],[73.26508,54.89527],[73.30453,54.89423],[73.3022,54.88466],[73.31178,54.88458],[73.31035,54.88143],[73.31527,54.87947],[73.31322,54.87651],[73.31148,54.85785],[73.31252,54.8519],[73.31544,54.84743],[73.31974,54.84331],[73.33039,54.83837],[73.34534,54.82717],[73.35337,54.82508],[73.3638,54.82404],[73.37578,54.82519],[73.38628,54.82757],[73.42094,54.83921],[73.43556,54.84509],[73.43913,54.84582],[73.44958,54.84727],[73.45754,54.84679],[73.47912,54.84804],[73.48049,54.85051],[73.47263,54.8517],[73.47203,54.85249],[73.47147,54.85803],[73.45799,54.85607],[73.44336,54.85545],[73.4408,54.85468],[73.43729,54.85531],[73.43113,54.85322],[73.42969,54.854],[73.42114,54.86385],[73.41893,54.86547],[73.41929,54.86639],[73.42758,54.86937],[73.44382,54.87662],[73.43856,54.87919],[73.44387,54.883],[73.45115,54.88029],[73.45905,54.87639],[73.46306,54.87384],[73.46778,54.86925],[73.47051,54.87016],[73.53349,54.85123],[73.54679,54.84682],[73.58144,54.83199],[73.58389,54.83365],[73.58965,54.83509],[73.62868,54.86829],[73.59722,54.8806],[73.54316,54.88437],[73.53311,54.88452],[73.52264,54.8866],[73.50537,54.89265],[73.49303,54.89594],[73.49781,54.89996],[73.51958,54.90297],[73.52182,54.9043],[73.51186,54.91661],[73.51897,54.9176],[73.51976,54.91693],[73.52812,54.91907],[73.52545,54.92454],[73.52366,54.92627],[73.52479,54.92823],[73.5328,54.92796],[73.5332,54.93184],[73.52366,54.93211],[73.52308,54.93376],[73.52926,54.93438],[73.53305,54.93575],[73.53335,54.9375],[73.54856,54.93968],[73.54823,54.9406],[73.61526,54.94748],[73.61278,54.95548],[73.61141,54.95538],[73.61001,54.9597],[73.60695,54.96158],[73.60461,54.96136],[73.60177,54.97338],[73.59119,54.98231],[73.6067,54.98818],[73.593,54.99672],[73.5724,54.98806],[73.56929,54.99017],[73.5778,54.99354],[73.56495,54.99339],[73.56358,54.99433],[73.56118,55.00771],[73.54487,55.00638],[73.52661,55.00339],[73.51554,55.00766],[73.51534,55.00814],[73.52552,55.00955],[73.52547,55.01013],[73.51868,55.01357],[73.51597,55.01777],[73.51976,55.01744],[73.52326,55.0179],[73.53126,55.02414],[73.53478,55.02522],[73.54615,55.0267],[73.55383,55.02511],[73.55669,55.02577],[73.5574,55.02667],[73.55585,55.02973],[73.55231,55.03221],[73.54999,55.03527],[73.53938,55.04366],[73.52966,55.05276],[73.52482,55.05608],[73.52493,55.0601],[73.51518,55.05888],[73.54,55.07119],[73.53505,55.07456],[73.53105,55.07482],[73.52903,55.07557],[73.51841,55.07071],[73.5172,55.06914],[73.50951,55.06583],[73.50744,55.06544],[73.5038,55.06648],[73.49753,55.06333],[73.49531,55.06166],[73.49725,55.06024],[73.50034,55.06215],[73.50942,55.05672],[73.50527,55.05444],[73.5031,55.05424],[73.48573,55.04435],[73.4862,55.04386],[73.47667,55.04046],[73.46972,55.03875],[73.46126,55.03868],[73.43875,55.05185],[73.44622,55.05609],[73.43339,55.06377],[73.43246,55.06321],[73.42572,55.06681],[73.42656,55.06968],[73.4238,55.07108],[73.42421,55.07138],[73.42053,55.07399],[73.41761,55.07207],[73.41144,55.0751],[73.40816,55.07294],[73.41193,55.07085],[73.40952,55.06939],[73.40426,55.07211],[73.3996,55.07215],[73.38843,55.06468],[73.38091,55.06126],[73.3831,55.05961],[73.38453,55.05908],[73.40924,55.06557],[73.419,55.05984],[73.38632,55.05032],[73.35303,55.02721],[73.3507,55.02706],[73.348,55.02779],[73.33435,55.04321],[73.33578,55.04421],[73.33452,55.04486],[73.33273,55.044],[73.33032,55.04693],[73.33674,55.05152],[73.32503,55.05693],[73.32232,55.05749],[73.32062,55.06027],[73.30616,55.07539],[73.28316,55.09509],[73.2632,55.1191],[73.2388,55.11273],[73.23767,55.11407],[73.2364,55.11372],[73.23753,55.11238],[73.19185,55.10027],[73.19058,55.10391],[73.17717,55.1028],[73.17973,55.10894],[73.18048,55.11504],[73.18288,55.12422],[73.18388,55.12416],[73.18743,55.1319],[73.17923,55.13312],[73.18151,55.1375],[73.17229,55.13908],[73.17305,55.14057],[73.16954,55.14074],[73.16871,55.13963],[73.15926,55.14126],[73.15598,55.13542],[73.1522,55.13091],[73.14499,55.126],[73.13744,55.11265],[73.14637,55.09124],[73.14911,55.08004],[73.15598,55.05842],[73.15975,55.05291],[73.16937,55.04858],[73.19546,55.03088],[73.20864,55.02538],[73.20863,55.02137],[73.2076,55.02032],[73.20422,55.01987],[73.19502,55.02091],[73.18071,55.02708],[73.17861,55.02576],[73.18362,55.02286],[73.18403,55.01484],[73.18091,55.01568],[73.18043,55.01423],[73.17135,55.01138],[73.17075,55.01012],[73.15428,54.99674],[73.15703,54.99245],[73.15615,54.99129],[73.15369,54.99088],[73.15155,54.98953],[73.15979,54.98655],[73.15703,54.98351],[73.15502,54.98251],[73.16141,54.97971],[73.16273,54.98046],[73.17939,54.97356],[73.19207,54.97577],[73.2158,54.96814],[73.21436,54.96613],[73.2159,54.96414],[73.21474,54.963],[73.21645,54.96253],[73.2166,54.96097],[73.2296,54.96225],[73.22997,54.96097],[73.23048,54.96094],[73.23402,54.96239],[73.24407,54.95879],[73.24378,54.95843],[73.24479,54.95679],[73.24441,54.95562],[73.2536,54.95255],[73.25206,54.95104],[73.25106,54.95131],[73.24797,54.9499],[73.24625,54.94801],[73.2471,54.94626],[73.24578,54.94496],[73.23743,54.94772],[73.23501,54.94795],[73.23473,54.94702],[73.23655,54.94686],[73.23576,54.94482],[73.23622,54.94408],[73.21514,54.94538],[73.21514,54.94593],[73.21306,54.94619],[73.2128,54.94569],[73.20553,54.94585],[73.17759,54.9471],[73.18013,54.95618],[73.17615,54.9567],[73.17612,54.95731],[73.16414,54.95992],[73.16271,54.9582],[73.1629,54.96177],[73.16362,54.96276],[73.16212,54.96334],[73.15798,54.95918],[73.155,54.96044],[73.15272,54.95857],[73.14832,54.95719],[73.14783,54.95555],[73.13981,54.95642],[73.14039,54.96153],[73.12392,54.96245],[73.12316,54.96173],[73.12125,54.95044],[73.09817,54.95188],[73.09753,54.94648]]]}}]}