{"type":"FeatureCollection","features":[{"type":"Feature","properties":{"name":"Майкоп","osm":"relation/3441283","licence":"Data © OpenStreetMap contributors, ODbL 1.0. http://osm.org/copyright"},"geometry":{"type":"Polygon","coordinates":[[[40.03849,44.61095],[40.04352,44.6095],[40.04461,44.60883],[40.04479,44.60832],[40.04497,44.60787],[40.04507,44.60749],[40.04512,44.60731],[40.04515,44.60708],[40.04519,44.60682],[40.04534,44.60673],[40.04541,44.60604],[40.04533,44.60498],[40.04507,44.6039],[40.04468,44.60305],[40.0444,44.60265],[40.04372,44.60181],[40.04406,44.60107],[40.0443,44.6003],[40.04465,44.59992],[40.04524,44.59923],[40.04589,44.59889],[40.0463,44.59838],[40.04773,44.59558],[40.0486,44.5932],[40.04903,44.59233],[40.04957,44.59125],[40.04997,44.58933],[40.05081,44.58812],[40.05144,44.58757],[40.05182,44.58733],[40.05222,44.58715],[40.05295,44.58688],[40.05396,44.58696],[40.05621,44.58748],[40.05782,44.5877],[40.05859,44.58764],[40.05939,44.58758],[40.06097,44.58688],[40.06213,44.58636],[40.06255,44.58634],[40.06782,44.586],[40.07856,44.58456],[40.08913,44.58416],[40.10783,44.58346],[40.10995,44.56768],[40.12258,44.56797],[40.12458,44.5657],[40.13042,44.56556],[40.13301,44.56551],[40.13474,44.56531],[40.13589,44.56482],[40.13642,44.56476],[40.13702,44.56452],[40.13732,44.56462],[40.13726,44.56491],[40.13749,44.56506],[40.13772,44.56512],[40.13858,44.56503],[40.13855,44.56513],[40.13843,44.56555],[40.1385,44.56577],[40.13924,44.5667],[40.14363,44.5646],[40.14504,44.56282],[40.14629,44.56019],[40.15044,44.5611],[40.15352,44.56177],[40.15322,44.56295],[40.15378,44.56312],[40.15446,44.563],[40.15818,44.56501],[40.16111,44.56601],[40.16264,44.56542],[40.16488,44.56654],[40.16257,44.5707],[40.15841,44.57317],[40.15633,44.57443],[40.15392,44.5759],[40.15144,44.57728],[40.15021,44.57833],[40.1499,44.579],[40.15092,44.58073],[40.15237,44.58278],[40.15617,44.58877],[40.15722,44.59043],[40.15775,44.59126],[40.15787,44.5915],[40.15913,44.59411],[40.16084,44.60239],[40.16187,44.60744],[40.15524,44.60834],[40.15106,44.60891],[40.15224,44.61151],[40.15193,44.61169],[40.15331,44.61445],[40.14854,44.61472],[40.14693,44.6148],[40.14682,44.61507],[40.14679,44.61509],[40.14566,44.61463],[40.14432,44.61429],[40.14238,44.61407],[40.14159,44.61407],[40.14071,44.61408],[40.14069,44.61412],[40.14168,44.61432],[40.14198,44.61444],[40.14231,44.61476],[40.14232,44.61496],[40.14002,44.61829],[40.13914,44.61958],[40.13868,44.62366],[40.13742,44.62363],[40.13755,44.6244],[40.13694,44.62579],[40.13651,44.62715],[40.13626,44.62712],[40.1362,44.62744],[40.13653,44.62748],[40.13694,44.62751],[40.13641,44.62865],[40.13587,44.62858],[40.13602,44.62931],[40.13541,44.63037],[40.13368,44.62979],[40.1334,44.63029],[40.13306,44.63044],[40.13295,44.63141],[40.13263,44.63427],[40.13213,44.63536],[40.13112,44.64039],[40.13065,44.64209],[40.12946,44.6439],[40.12938,44.64401],[40.12942,44.6441],[40.12997,44.64526],[40.12967,44.64655],[40.12906,44.64654],[40.12784,44.64652],[40.08848,44.64948],[40.06114,44.64407],[40.0706,44.6374],[40.07295,44.63604],[40.07649,44.6338],[40.07777,44.63313],[40.0797,44.63197],[40.08014,44.63203],[40.0824,44.63069],[40.08366,44.62988],[40.08362,44.62984],[40.08348,44.62967],[40.08281,44.62918],[40.08235,44.62885],[40.08222,44.62876],[40.08195,44.62857],[40.08164,44.62834],[40.08151,44.62824],[40.0807,44.62763],[40.08064,44.62758],[40.08031,44.62733],[40.07975,44.62691],[40.07962,44.62682],[40.07946,44.6267],[40.07903,44.62641],[40.07889,44.62629],[40.07859,44.62611],[40.07808,44.62621],[40.07842,44.62652],[40.07641,44.62674],[40.07565,44.62703],[40.07503,44.62687],[40.07466,44.62675],[40.07445,44.62667],[40.07422,44.62659],[40.07405,44.62662],[40.07372,44.6264],[40.0732,44.62675],[40.07308,44.62666],[40.07151,44.62778],[40.07188,44.62804],[40.07172,44.62814],[40.07012,44.62917],[40.069,44.62986],[40.06802,44.63049],[40.06786,44.63042],[40.06563,44.62878],[40.06235,44.62624],[40.05276,44.6329],[40.05263,44.63283],[40.05248,44.63276],[40.04923,44.63132],[40.04609,44.6298],[40.04564,44.62954],[40.0458,44.62921],[40.04612,44.62883],[40.04572,44.62852],[40.04462,44.62877],[40.04291,44.62864],[40.04174,44.62848],[40.04085,44.62796],[40.04013,44.62702],[40.0397,44.62631],[40.0394,44.62556],[40.0392,44.62479],[40.0391,44.62406],[40.03911,44.62311],[40.03918,44.62262],[40.03933,44.62201],[40.03977,44.6207],[40.0407,44.61851],[40.04097,44.61787],[40.04255,44.61378],[40.03849,44.61095]]]}}]}