{"type":"FeatureCollection","features":[{"type":"Feature","properties":{"name":"Кызыл","osm":"relation/3511787","licence":"Data © OpenStreetMap contributors, ODbL 1.0. http://osm.org/copyright"},"geometry":{"type":"Polygon","coordinates":[[[94.27147,51.6719],[94.27583,51.66694],[94.27763,51.66423],[94.28189,51.66407],[94.28478,51.65815],[94.29171,51.6559],[94.30482,51.66049],[94.31058,51.66485],[94.3143,51.66303],[94.31745,51.66319],[94.32488,51.66061],[94.33384,51.66023],[94.35159,51.65483],[94.35975,51.65188],[94.359,51.64232],[94.35232,51.62035],[94.32956,51.61311],[94.31547,51.60459],[94.3197,51.60102],[94.33994,51.5939],[94.34623,51.59543],[94.34695,51.59914],[94.35978,51.59355],[94.36073,51.58964],[94.36854,51.58919],[94.38001,51.57622],[94.38416,51.5684],[94.40503,51.5678],[94.43109,51.55046],[94.43499,51.55096],[94.43938,51.55557],[94.44145,51.56394],[94.44217,51.57375],[94.43723,51.58439],[94.43444,51.59474],[94.44719,51.59934],[94.46527,51.5981],[94.46981,51.59984],[94.45388,51.61701],[94.44464,51.62116],[94.43954,51.63086],[94.45686,51.64022],[94.4677,51.64476],[94.50195,51.63722],[94.5219,51.6462],[94.52074,51.64934],[94.51989,51.65622],[94.52452,51.66187],[94.52501,51.66583],[94.52322,51.67169],[94.52452,51.67589],[94.53627,51.68411],[94.54434,51.68689],[94.54617,51.68669],[94.546,51.68785],[94.54346,51.68884],[94.54269,51.69006],[94.5431,51.69166],[94.54987,51.70348],[94.55026,51.7054],[94.5565,51.70425],[94.55884,51.70456],[94.55995,51.70556],[94.56138,51.70586],[94.56803,51.70471],[94.57009,51.70482],[94.57191,51.70453],[94.57383,51.70342],[94.57573,51.7028],[94.57673,51.70312],[94.58075,51.70277],[94.58415,51.70166],[94.5893,51.7025],[94.59186,51.70181],[94.59406,51.7019],[94.59693,51.70099],[94.60694,51.70063],[94.61256,51.70165],[94.61413,51.70116],[94.61356,51.69989],[94.61455,51.69927],[94.61556,51.69923],[94.61753,51.69842],[94.61987,51.69896],[94.62791,51.69658],[94.63741,51.69694],[94.64012,51.69732],[94.64126,51.69984],[94.63885,51.69991],[94.63679,51.7008],[94.63208,51.70693],[94.61195,51.7059],[94.587,51.70675],[94.5871,51.70709],[94.57986,51.70822],[94.57719,51.70804],[94.57594,51.70833],[94.56586,51.70898],[94.56532,51.70926],[94.56183,51.70963],[94.5586,51.70888],[94.55354,51.70873],[94.55226,51.70896],[94.55012,51.70861],[94.547,51.70891],[94.5444,51.70962],[94.54306,51.70926],[94.536,51.71],[94.52941,51.71121],[94.52782,51.71203],[94.52582,51.71402],[94.52496,51.71589],[94.5255,51.71675],[94.52626,51.71689],[94.52885,51.71596],[94.52991,51.71482],[94.53047,51.7148],[94.53138,51.71407],[94.5315,51.7145],[94.52955,51.7161],[94.52985,51.71625],[94.53378,51.71528],[94.53501,51.71511],[94.535,51.7155],[94.51683,51.7207],[94.507,51.724],[94.50175,51.72434],[94.49225,51.72425],[94.48272,51.7227],[94.47818,51.72237],[94.4753,51.7226],[94.47328,51.7233],[94.46799,51.72604],[94.46526,51.72707],[94.46513,51.72732],[94.46848,51.72689],[94.47003,51.72618],[94.46917,51.7269],[94.46813,51.72724],[94.46617,51.72781],[94.45662,51.72844],[94.45659,51.72875],[94.45817,51.72994],[94.46168,51.7316],[94.4637,51.73371],[94.46401,51.73516],[94.46301,51.73895],[94.46345,51.74098],[94.46471,51.74287],[94.4642,51.74283],[94.46233,51.74075],[94.46106,51.74274],[94.45857,51.74537],[94.45816,51.74696],[94.45911,51.75101],[94.45721,51.7552],[94.45711,51.75754],[94.4585,51.76],[94.46026,51.76182],[94.4655,51.7645],[94.46286,51.76614],[94.464,51.7667],[94.46429,51.76799],[94.46493,51.76901],[94.46462,51.76983],[94.46505,51.76913],[94.46646,51.76998],[94.46532,51.76919],[94.46458,51.76813],[94.46412,51.76683],[94.4644,51.76669],[94.46845,51.76826],[94.47037,51.76954],[94.47215,51.77128],[94.47769,51.778],[94.4805,51.78166],[94.48157,51.78349],[94.48195,51.78549],[94.48178,51.79129],[94.48478,51.80253],[94.48497,51.8055],[94.48476,51.8066],[94.48544,51.8062],[94.4856,51.80865],[94.48692,51.81121],[94.48735,51.81404],[94.48454,51.82123],[94.483,51.82396],[94.48147,51.82602],[94.48068,51.82821],[94.47824,51.832],[94.47637,51.83369],[94.47669,51.83407],[94.47757,51.83402],[94.47718,51.83494],[94.47597,51.83524],[94.47518,51.83495],[94.4736,51.83491],[94.47146,51.83528],[94.46999,51.8359],[94.47047,51.83547],[94.47276,51.83457],[94.47275,51.83433],[94.47232,51.8342],[94.47072,51.83475],[94.46939,51.83626],[94.46857,51.8389],[94.46852,51.8399],[94.4677,51.84121],[94.46878,51.8398],[94.46936,51.83967],[94.47019,51.83998],[94.46989,51.8411],[94.46633,51.84404],[94.46492,51.8448],[94.46425,51.84535],[94.4644,51.84552],[94.46246,51.8463],[94.46062,51.8452],[94.4425,51.8546],[94.44114,51.85162],[94.4355,51.84923],[94.43635,51.84703],[94.45189,51.8439],[94.4486,51.84047],[94.44972,51.83922],[94.44638,51.83689],[94.4519,51.83483],[94.44869,51.83187],[94.44744,51.82906],[94.44373,51.83026],[94.44207,51.83033],[94.44377,51.82103],[94.42336,51.82304],[94.42213,51.82174],[94.42132,51.81986],[94.42193,51.81831],[94.42382,51.81698],[94.43681,51.81343],[94.43921,51.81],[94.44058,51.8071],[94.44339,51.80732],[94.44556,51.79205],[94.44678,51.76747],[94.43721,51.76929],[94.4337,51.77102],[94.43082,51.771],[94.42805,51.76821],[94.42429,51.76725],[94.42114,51.76788],[94.42049,51.76487],[94.42437,51.76138],[94.42451,51.75625],[94.4164,51.74083],[94.41201,51.73484],[94.41127,51.73419],[94.4085,51.73283],[94.38242,51.72623],[94.37433,51.72353],[94.35625,51.71877],[94.35347,51.71559],[94.34544,51.71336],[94.34114,51.71256],[94.32799,51.70854],[94.32954,51.70715],[94.33027,51.7058],[94.32634,51.70029],[94.31846,51.69644],[94.32062,51.69429],[94.3112,51.69147],[94.29539,51.68608],[94.2843,51.68081],[94.27147,51.6719]]]}}]}