{"type":"FeatureCollection","features":[{"type":"Feature","properties":{"name":"Кострома","osm":"relation/3536487","licence":"Data © OpenStreetMap contributors, ODbL 1.0. http://osm.org/copyright"},"geometry":{"type":"Polygon","coordinates":[[[40.74432,57.76521],[40.74933,57.75527],[40.75746,57.7559],[40.75777,57.75793],[40.76419,57.75955],[40.78102,57.7615],[40.78585,57.7608],[40.7866,57.75998],[40.79142,57.76005],[40.79673,57.75918],[40.80556,57.75891],[40.81307,57.75932],[40.81412,57.7588],[40.81287,57.75786],[40.81435,57.75686],[40.81597,57.75231],[40.82299,57.75224],[40.82955,57.75087],[40.83389,57.74944],[40.83555,57.7476],[40.84053,57.74716],[40.84063,57.74265],[40.84329,57.74268],[40.8445,57.74343],[40.85155,57.74329],[40.85182,57.74133],[40.83178,57.73618],[40.83951,57.72711],[40.84016,57.72731],[40.84299,57.72542],[40.8542,57.72325],[40.85858,57.72145],[40.86293,57.71797],[40.86413,57.71968],[40.87059,57.72372],[40.87074,57.72432],[40.86878,57.72551],[40.86529,57.72642],[40.86133,57.72807],[40.86388,57.72874],[40.86643,57.73003],[40.8704,57.73081],[40.87466,57.72883],[40.87181,57.72549],[40.87364,57.72503],[40.87623,57.72691],[40.88204,57.72646],[40.88228,57.72677],[40.88366,57.72616],[40.89516,57.72628],[40.89556,57.72592],[40.89505,57.72145],[40.8783,57.71948],[40.87174,57.71916],[40.87305,57.71621],[40.91381,57.72017],[40.91942,57.72119],[40.92534,57.72357],[40.92771,57.72522],[40.92924,57.72676],[40.93008,57.72848],[40.93219,57.73099],[40.95084,57.72616],[40.95129,57.7247],[40.95325,57.72437],[40.95378,57.72453],[40.95352,57.72525],[40.957,57.72604],[40.95518,57.72852],[40.96209,57.73045],[40.97343,57.71802],[40.98759,57.70672],[40.99797,57.71028],[40.99695,57.71133],[41.00134,57.71233],[41.00122,57.71316],[40.99939,57.71404],[40.99899,57.7148],[41.00272,57.71552],[41.00288,57.71601],[41.00147,57.71754],[40.99764,57.71737],[40.99698,57.7187],[40.9968,57.72226],[40.9981,57.72359],[40.99931,57.72418],[40.99925,57.72455],[41.00556,57.72464],[41.00502,57.72588],[41.00572,57.72675],[41.00712,57.72698],[41.00884,57.72703],[41.01003,57.72567],[41.0201,57.72648],[41.02471,57.72867],[41.03113,57.72575],[41.0311,57.72536],[41.03542,57.72322],[41.03835,57.72448],[41.03062,57.72935],[41.0334,57.73108],[41.03755,57.73226],[41.02718,57.73841],[41.00894,57.74439],[41.01192,57.74669],[41.0212,57.74647],[41.02169,57.74864],[41.01987,57.74874],[41.01654,57.75003],[41.01919,57.75181],[41.02784,57.74986],[41.03926,57.75433],[41.03979,57.76082],[41.04423,57.77033],[41.05185,57.7804],[41.05568,57.78378],[41.05804,57.78527],[41.05247,57.78513],[41.04863,57.78104],[41.04357,57.78115],[41.04215,57.77879],[41.0416,57.77889],[41.04165,57.77834],[41.04059,57.77854],[41.04196,57.78148],[41.03727,57.782],[41.03602,57.78251],[41.03491,57.7852],[41.02413,57.78396],[41.02292,57.78715],[41.02885,57.78731],[41.03102,57.78785],[41.03173,57.78855],[41.0272,57.79418],[41.03033,57.79513],[41.03043,57.80249],[41.02594,57.80912],[41.0295,57.81118],[41.0281,57.81189],[41.03181,57.81247],[41.03557,57.81043],[41.04039,57.81288],[41.03682,57.81499],[41.04526,57.8197],[41.04374,57.82055],[41.04575,57.82159],[41.04195,57.82369],[41.0344,57.82011],[41.02911,57.82258],[41.02208,57.81872],[41.02092,57.8209],[41.02062,57.82249],[41.0169,57.82273],[41.01416,57.82175],[41.01448,57.8214],[41.00972,57.82166],[41.00749,57.82216],[41.0061,57.82176],[41.00083,57.82191],[41.0,57.82126],[40.99857,57.81679],[40.99708,57.81518],[40.99807,57.81487],[40.99616,57.81151],[40.98547,57.81305],[40.97903,57.81354],[40.98163,57.821],[40.97699,57.82176],[40.96566,57.82256],[40.96615,57.82401],[40.96127,57.82432],[40.96008,57.82169],[40.95364,57.81613],[40.95315,57.81611],[40.95086,57.81802],[40.9464,57.81763],[40.95448,57.83587],[40.94137,57.83716],[40.93966,57.83766],[40.93911,57.83925],[40.94497,57.83988],[40.95201,57.84156],[40.95328,57.84248],[40.9557,57.8428],[40.95168,57.8505],[40.94473,57.85725],[40.93701,57.87322],[40.91832,57.87464],[40.92214,57.88379],[40.90669,57.88572],[40.90564,57.88267],[40.9024,57.88243],[40.90029,57.8781],[40.9008,57.87563],[40.8991,57.87239],[40.89961,57.87024],[40.89864,57.86974],[40.89729,57.86701],[40.89787,57.86535],[40.8969,57.86393],[40.89357,57.86294],[40.89156,57.85969],[40.88933,57.85841],[40.88721,57.85816],[40.88076,57.8591],[40.87948,57.85882],[40.87777,57.85775],[40.87484,57.85431],[40.88061,57.85287],[40.88862,57.84969],[40.8908,57.84825],[40.89042,57.84718],[40.89217,57.84665],[40.88979,57.84273],[40.89082,57.83936],[40.89114,57.83549],[40.88746,57.83151],[40.88482,57.82975],[40.88167,57.8295],[40.87499,57.83008],[40.87309,57.82739],[40.87271,57.82742],[40.87331,57.82831],[40.87236,57.82865],[40.87173,57.82842],[40.8711,57.82777],[40.8718,57.82749],[40.87012,57.82617],[40.88036,57.82142],[40.883,57.81984],[40.88746,57.81621],[40.8892,57.81333],[40.89099,57.80607],[40.89191,57.80506],[40.89573,57.80317],[40.90336,57.80153],[40.90768,57.79921],[40.90858,57.79758],[40.90814,57.79603],[40.90683,57.79481],[40.90438,57.79343],[40.90126,57.79239],[40.89928,57.79084],[40.89699,57.79135],[40.8964,57.79113],[40.89578,57.78977],[40.89426,57.78871],[40.88914,57.78656],[40.88426,57.78513],[40.88041,57.78483],[40.87501,57.78553],[40.87216,57.78513],[40.86869,57.78756],[40.86865,57.78901],[40.8679,57.78918],[40.86739,57.78985],[40.8647,57.79046],[40.86257,57.78893],[40.86147,57.78761],[40.86145,57.78635],[40.86248,57.78422],[40.86244,57.78205],[40.86225,57.78143],[40.86026,57.77964],[40.85917,57.77731],[40.86018,57.77688],[40.85963,57.77483],[40.85919,57.77426],[40.8581,57.77406],[40.85019,57.76763],[40.82794,57.77334],[40.79217,57.78407],[40.78963,57.77927],[40.78376,57.78067],[40.78087,57.77748],[40.77045,57.77434],[40.76942,57.77334],[40.75387,57.76974],[40.75262,57.76886],[40.75249,57.76918],[40.75061,57.76889],[40.75011,57.76948],[40.74679,57.76894],[40.74878,57.76658],[40.74432,57.76521]]]}}]}