{"type":"FeatureCollection","features":[{"type":"Feature","properties":{"name":"Воронеж","osm":"relation/3536492","licence":"Data © OpenStreetMap contributors, ODbL 1.0. http://osm.org/copyright"},"geometry":{"type":"Polygon","coordinates":[[[39.01323,51.60446],[39.03093,51.60173],[39.02684,51.59063],[39.02763,51.58662],[39.02885,51.58411],[39.03616,51.57795],[39.0385,51.57277],[39.06262,51.55369],[39.07902,51.54811],[39.08059,51.54412],[39.08394,51.54623],[39.08856,51.54218],[39.09473,51.54444],[39.09972,51.54841],[39.11736,51.55038],[39.1237,51.5478],[39.11882,51.54475],[39.11787,51.54183],[39.11408,51.54091],[39.11596,51.53804],[39.11543,51.53602],[39.11105,51.53581],[39.10824,51.53766],[39.10301,51.53832],[39.10058,51.53536],[39.09389,51.53184],[39.09303,51.52734],[39.08547,51.52645],[39.08493,51.52366],[39.08631,51.52039],[39.09404,51.5174],[39.09822,51.51982],[39.10068,51.52493],[39.10116,51.52371],[39.10686,51.52399],[39.11325,51.52147],[39.11531,51.5162],[39.12027,51.5148],[39.13396,51.51437],[39.14294,51.50972],[39.20983,51.49363],[39.22469,51.48568],[39.23038,51.48487],[39.23546,51.48937],[39.24022,51.4963],[39.24304,51.49592],[39.24175,51.52553],[39.2737,51.5226],[39.27381,51.53543],[39.27437,51.53959],[39.27537,51.53965],[39.27088,51.5478],[39.28125,51.55002],[39.28322,51.54673],[39.29623,51.54758],[39.30003,51.54173],[39.30546,51.5423],[39.29855,51.55337],[39.29351,51.55243],[39.29609,51.5479],[39.28389,51.54708],[39.27657,51.56013],[39.27799,51.56053],[39.27736,51.56159],[39.29022,51.56052],[39.29102,51.56857],[39.29292,51.5703],[39.30099,51.5676],[39.29975,51.57531],[39.30407,51.57623],[39.32829,51.56149],[39.33123,51.56328],[39.32633,51.57054],[39.32835,51.57953],[39.32452,51.58377],[39.32595,51.5865],[39.32852,51.58787],[39.32696,51.58929],[39.32689,51.59736],[39.32345,51.59746],[39.32273,51.5929],[39.31304,51.59284],[39.30782,51.6078],[39.30036,51.61467],[39.30241,51.63462],[39.30367,51.63455],[39.30423,51.63796],[39.31385,51.63612],[39.315,51.63745],[39.31216,51.63881],[39.31153,51.64568],[39.30375,51.65044],[39.30062,51.66781],[39.30106,51.67374],[39.30164,51.67573],[39.30692,51.67785],[39.30262,51.6794],[39.3021,51.68088],[39.31631,51.68141],[39.3213,51.67531],[39.33036,51.67831],[39.33185,51.67906],[39.33284,51.68352],[39.32974,51.68534],[39.33029,51.6903],[39.33933,51.69417],[39.3386,51.69574],[39.34597,51.69832],[39.34662,51.70159],[39.35142,51.70138],[39.35668,51.70556],[39.36828,51.70139],[39.37118,51.69838],[39.37309,51.70048],[39.37184,51.70232],[39.37296,51.7028],[39.37033,51.70337],[39.36975,51.70436],[39.37185,51.70495],[39.36735,51.71179],[39.37087,51.71211],[39.37092,51.71358],[39.37488,51.7142],[39.37401,51.71247],[39.41712,51.72106],[39.41924,51.71754],[39.42621,51.71902],[39.42507,51.72077],[39.43922,51.72503],[39.44815,51.72435],[39.45828,51.72708],[39.44083,51.74345],[39.40297,51.74373],[39.40321,51.7533],[39.41654,51.75631],[39.41351,51.7566],[39.41363,51.75914],[39.43045,51.75907],[39.43291,51.7575],[39.43229,51.7566],[39.44238,51.75499],[39.44228,51.7598],[39.44656,51.77651],[39.37401,51.78338],[39.36942,51.79575],[39.37169,51.80037],[39.37425,51.80113],[39.3763,51.80619],[39.37281,51.80928],[39.37823,51.80902],[39.38413,51.8119],[39.38338,51.81387],[39.38041,51.81547],[39.3841,51.81743],[39.38327,51.81997],[39.38617,51.82873],[39.3808,51.83297],[39.37938,51.8393],[39.38136,51.84294],[39.38057,51.84792],[39.38366,51.85143],[39.38427,51.8554],[39.38372,51.8574],[39.37693,51.85939],[39.37411,51.86326],[39.37319,51.86811],[39.36221,51.86905],[39.35628,51.87472],[39.352,51.87522],[39.36076,51.86788],[39.36107,51.86514],[39.35912,51.86278],[39.35332,51.86071],[39.34246,51.86114],[39.34073,51.85697],[39.3416,51.85432],[39.34016,51.8558],[39.33164,51.85802],[39.32863,51.8627],[39.31728,51.8602],[39.31333,51.85244],[39.30087,51.84363],[39.29951,51.83282],[39.29722,51.83212],[39.29311,51.83333],[39.28804,51.82986],[39.28266,51.82955],[39.28144,51.82831],[39.28054,51.81855],[39.27159,51.80976],[39.26776,51.80981],[39.26602,51.8118],[39.26271,51.80908],[39.2607,51.81018],[39.25529,51.80179],[39.25512,51.80976],[39.25275,51.80747],[39.24965,51.80842],[39.24668,51.81144],[39.23904,51.81251],[39.25195,51.80663],[39.25218,51.80393],[39.24899,51.8028],[39.24485,51.80485],[39.24531,51.80627],[39.23979,51.80783],[39.2303,51.80618],[39.22564,51.80751],[39.22103,51.8041],[39.2294,51.80172],[39.22233,51.79561],[39.21481,51.79485],[39.21149,51.79243],[39.19401,51.7729],[39.19296,51.76975],[39.1889,51.77012],[39.18762,51.7662],[39.18269,51.76673],[39.18316,51.76861],[39.18045,51.76856],[39.16867,51.75433],[39.16899,51.75521],[39.16701,51.75553],[39.15789,51.7545],[39.15822,51.75327],[39.1614,51.75245],[39.16522,51.75471],[39.16883,51.75425],[39.16397,51.74662],[39.16203,51.7458],[39.15968,51.74814],[39.15802,51.7471],[39.1448,51.74786],[39.14373,51.74478],[39.14041,51.74549],[39.1362,51.74442],[39.13671,51.73944],[39.13326,51.7313],[39.12351,51.72306],[39.11309,51.72151],[39.10802,51.7087],[39.0996,51.70227],[39.09322,51.7013],[39.08842,51.70263],[39.08084,51.70782],[39.07756,51.7133],[39.07289,51.71495],[39.0689,51.71442],[39.06061,51.70614],[39.06192,51.70172],[39.05673,51.69767],[39.05756,51.69678],[39.05462,51.68949],[39.04304,51.68786],[39.04564,51.68254],[39.05767,51.68437],[39.07132,51.67655],[39.07024,51.67565],[39.07317,51.67149],[39.07616,51.66982],[39.07999,51.66441],[39.0846,51.66364],[39.08495,51.66256],[39.08173,51.66074],[39.08174,51.6591],[39.08295,51.6539],[39.08583,51.64952],[39.06348,51.65133],[39.06358,51.64974],[39.05587,51.64069],[39.0465,51.63473],[39.04994,51.6343],[39.05748,51.63989],[39.06588,51.65076],[39.08734,51.64919],[39.08147,51.64449],[39.07853,51.63897],[39.06365,51.62832],[39.04679,51.61999],[39.02595,51.61421],[39.01323,51.60446]]]}}]}