{"type":"FeatureCollection","features":[{"type":"Feature","properties":{"name":"Новосибирск","osm":"relation/366544","licence":"Data © OpenStreetMap contributors, ODbL 1.0. http://osm.org/copyright"},"geometry":{"type":"Polygon","coordinates":[[[82.75113,54.99103],[82.75149,54.98716],[82.75609,54.98642],[82.7554,54.98573],[82.75763,54.9853],[82.80428,54.95869],[82.8242,54.94658],[82.82228,54.94545],[82.8264,54.94548],[82.832,54.94312],[82.8348,54.94095],[82.8393,54.93511],[82.8629,54.93383],[82.86327,54.93193],[82.86246,54.93058],[82.86841,54.92754],[82.86951,54.92743],[82.86952,54.92906],[82.87143,54.92952],[82.87089,54.93003],[82.87339,54.93137],[82.87379,54.93289],[82.91709,54.92949],[82.92023,54.92683],[82.92252,54.92656],[82.93603,54.93113],[82.93701,54.93639],[82.93847,54.93679],[83.03471,54.94163],[83.03809,54.93696],[83.03814,54.93443],[83.0404,54.92838],[83.0354,54.9168],[83.02916,54.90913],[83.02288,54.89448],[83.0135,54.87789],[83.00376,54.88108],[82.99776,54.87372],[82.99082,54.87347],[82.99045,54.86817],[82.97607,54.86954],[82.9726,54.87195],[82.94276,54.8723],[82.94209,54.86947],[82.94327,54.869],[82.94237,54.86669],[82.9273,54.86751],[82.9268,54.86092],[82.92559,54.8585],[82.92647,54.85788],[82.92596,54.84486],[82.92622,54.84198],[82.92698,54.84147],[82.92528,54.84053],[82.92572,54.83763],[82.92721,54.83687],[82.92558,54.83722],[82.92615,54.83421],[82.93405,54.83251],[82.95068,54.83731],[82.95156,54.83857],[82.95773,54.84071],[82.95778,54.84181],[82.96661,54.84372],[82.96904,54.84697],[82.97389,54.84826],[82.98173,54.85224],[82.99875,54.84398],[83.0069,54.84146],[83.01624,54.84089],[83.0385,54.84225],[83.04322,54.83403],[83.04009,54.84153],[83.04263,54.84289],[83.05008,54.8434],[83.05292,54.84346],[83.0559,54.84213],[83.05113,54.83702],[83.04983,54.83766],[83.04563,54.83572],[83.04877,54.8354],[83.05356,54.83049],[83.05537,54.83002],[83.06398,54.8326],[83.07511,54.8325],[83.0771,54.8314],[83.08109,54.82765],[83.08137,54.82326],[83.08436,54.81692],[83.08477,54.81278],[83.08333,54.80512],[83.08688,54.80377],[83.08884,54.80888],[83.10235,54.80807],[83.10314,54.80874],[83.10523,54.80827],[83.10374,54.80134],[83.1177,54.8009],[83.12653,54.80169],[83.1347,54.80637],[83.13918,54.8144],[83.13742,54.81603],[83.13969,54.81633],[83.13778,54.81794],[83.14185,54.81831],[83.13983,54.81734],[83.14065,54.81645],[83.14527,54.81728],[83.14645,54.81903],[83.14377,54.82258],[83.14308,54.82201],[83.12887,54.82598],[83.12782,54.827],[83.13102,54.83069],[83.1364,54.83415],[83.14246,54.83592],[83.13884,54.8377],[83.13934,54.83854],[83.14158,54.83856],[83.13577,54.84223],[83.12714,54.84229],[83.12331,54.84115],[83.12294,54.84645],[83.1238,54.84657],[83.12417,54.84541],[83.12583,54.84556],[83.12273,54.84926],[83.12345,54.85002],[83.12348,54.85421],[83.12515,54.85423],[83.12512,54.85506],[83.1235,54.85506],[83.12352,54.86066],[83.12471,54.86123],[83.12286,54.86333],[83.12359,54.86425],[83.12364,54.88012],[83.1258,54.88088],[83.12745,54.87966],[83.13281,54.88196],[83.13133,54.88282],[83.13978,54.88581],[83.13405,54.901],[83.13147,54.90219],[83.15311,54.91555],[83.14382,54.92903],[83.1438,54.93101],[83.14761,54.93553],[83.14591,54.94096],[83.14889,54.94493],[83.1501,54.94895],[83.15689,54.9514],[83.15937,54.95439],[83.16023,54.95699],[83.15727,54.95699],[83.1499,54.95965],[83.14493,54.96654],[83.1388,54.9695],[83.13417,54.96982],[83.12173,54.96743],[83.11276,54.96839],[83.10763,54.97391],[83.10206,54.97701],[83.09844,54.98218],[83.08954,54.98431],[83.08366,54.9846],[83.07568,54.98983],[83.07678,54.99261],[83.08031,54.99507],[83.07663,54.99635],[83.07222,54.99622],[83.07204,54.99838],[83.07077,54.99874],[83.07464,55.02145],[83.07598,55.02167],[83.08044,55.04817],[83.08126,55.04862],[83.08056,55.04904],[83.08137,55.0539],[83.08622,55.06358],[83.07675,55.06597],[83.0678,55.07],[83.06364,55.06979],[83.05681,55.07416],[83.04459,55.07704],[83.04513,55.07794],[83.03627,55.07961],[83.03155,55.08274],[83.03081,55.08384],[83.03224,55.0845],[83.03007,55.0858],[83.0314,55.08664],[83.02512,55.08956],[83.02323,55.08895],[83.01856,55.09258],[82.99863,55.10131],[83.00553,55.11901],[83.00324,55.1198],[83.00305,55.12688],[83.00374,55.12696],[83.00138,55.13287],[82.9879,55.13248],[82.9823,55.12822],[82.98283,55.12762],[82.98099,55.12693],[82.98006,55.12258],[82.98392,55.12278],[82.98618,55.12134],[82.98537,55.11948],[82.9892,55.11874],[82.9913,55.11698],[82.98434,55.11558],[82.98044,55.11595],[82.97959,55.1149],[82.9771,55.11498],[82.97672,55.11306],[82.97343,55.11407],[82.96757,55.11223],[82.9648,55.11042],[82.92267,55.12165],[82.91693,55.12146],[82.91209,55.12438],[82.91301,55.12523],[82.90943,55.1252],[82.90129,55.12753],[82.90037,55.12891],[82.89713,55.12992],[82.8971,55.13221],[82.89862,55.13392],[82.89654,55.13482],[82.89377,55.13359],[82.89705,55.13242],[82.89628,55.12998],[82.88745,55.13146],[82.88445,55.12828],[82.81881,55.12066],[82.81141,55.11141],[82.80685,55.10842],[82.80407,55.10378],[82.80281,55.09558],[82.80362,55.0875],[82.80155,55.08313],[82.8021,55.07477],[82.80515,55.07008],[82.80949,55.06811],[82.81398,55.06236],[82.82099,55.0574],[82.82492,55.05166],[82.83012,55.04831],[82.81999,55.04235],[82.82167,55.04103],[82.81911,55.03968],[82.81139,55.03834],[82.79639,55.03082],[82.79454,55.0315],[82.79127,55.0289],[82.79265,55.02736],[82.78684,55.02244],[82.78341,55.02298],[82.77877,55.02213],[82.7796,55.01991],[82.78169,55.01951],[82.77988,55.01958],[82.78127,55.01843],[82.7784,55.01666],[82.77797,55.01435],[82.76905,55.00709],[82.7711,55.00741],[82.77067,55.00666],[82.768,55.00599],[82.76489,55.0036],[82.75319,54.99366],[82.7524,54.99139],[82.75113,54.99103]]]}}]}