{"type":"FeatureCollection","features":[{"type":"Feature","properties":{"name":"Коктебель","osm":"relation/3741133","licence":"Data © OpenStreetMap contributors, ODbL 1.0. http://osm.org/copyright"},"geometry":{"type":"Polygon","coordinates":[[[35.05569,44.91503],[35.07215,44.9139],[35.09217,44.91563],[35.09454,44.91908],[35.09621,44.91908],[35.09559,44.91762],[35.0976,44.91793],[35.09822,44.91868],[35.09676,44.91933],[35.09673,44.91985],[35.10157,44.92083],[35.10657,44.92688],[35.10818,44.92419],[35.11043,44.92268],[35.1119,44.92304],[35.11167,44.92734],[35.11335,44.92738],[35.11394,44.92807],[35.11627,44.92761],[35.11706,44.92803],[35.12917,44.92798],[35.13047,44.9248],[35.13241,44.92251],[35.13239,44.92368],[35.13109,44.92512],[35.13063,44.92884],[35.13315,44.93108],[35.13586,44.9317],[35.14068,44.93103],[35.14339,44.9313],[35.14371,44.93223],[35.14652,44.93333],[35.15277,44.93353],[35.15682,44.93122],[35.15945,44.93042],[35.15992,44.93082],[35.16038,44.93027],[35.15777,44.92762],[35.16251,44.92533],[35.1611,44.92859],[35.16198,44.9293],[35.16378,44.93],[35.16893,44.92825],[35.17,44.92887],[35.17202,44.92829],[35.17276,44.92634],[35.175,44.92518],[35.17442,44.92351],[35.16288,44.91953],[35.1618,44.91788],[35.16287,44.91716],[35.16139,44.91633],[35.15979,44.91156],[35.15266,44.90855],[35.15002,44.90852],[35.1512,44.90526],[35.15034,44.90254],[35.14588,44.898],[35.14206,44.89757],[35.13905,44.89628],[35.1387,44.89544],[35.14085,44.89392],[35.14283,44.89353],[35.14575,44.89062],[35.14958,44.88806],[35.15395,44.88736],[35.15357,44.88825],[35.15719,44.89356],[35.16672,44.90092],[35.17282,44.90224],[35.17655,44.90168],[35.17753,44.90301],[35.18167,44.9053],[35.18264,44.90647],[35.18741,44.90873],[35.19002,44.90906],[35.19009,44.90855],[35.19008,44.90907],[35.19101,44.90912],[35.19113,44.90864],[35.19104,44.90913],[35.1919,44.90926],[35.1921,44.90875],[35.19195,44.90927],[35.19326,44.90904],[35.19293,44.90947],[35.19351,44.90989],[35.19403,44.90958],[35.19349,44.90996],[35.19442,44.91005],[35.19399,44.91052],[35.19471,44.91085],[35.19711,44.91043],[35.19962,44.91158],[35.20166,44.91105],[35.20261,44.91202],[35.20439,44.91251],[35.20686,44.91252],[35.2128,44.91118],[35.22186,44.91214],[35.22258,44.91271],[35.2237,44.91224],[35.22477,44.91281],[35.22409,44.91303],[35.22459,44.91347],[35.22558,44.91339],[35.22905,44.91519],[35.23133,44.91557],[35.23227,44.91502],[35.23179,44.91709],[35.23545,44.91614],[35.23516,44.91667],[35.23665,44.91649],[35.2367,44.91735],[35.23811,44.91722],[35.24224,44.9204],[35.24262,44.92123],[35.24201,44.92254],[35.24284,44.92262],[35.24231,44.92323],[35.24395,44.9252],[35.24504,44.92517],[35.24438,44.92561],[35.24502,44.92666],[35.24663,44.92677],[35.24583,44.92735],[35.2467,44.92965],[35.24807,44.93128],[35.24762,44.93141],[35.2483,44.93215],[35.24797,44.93277],[35.25121,44.93575],[35.25193,44.93574],[35.2518,44.93684],[35.25316,44.93813],[35.25294,44.93907],[35.2521,44.9395],[35.25208,44.94077],[35.24943,44.94278],[35.24897,44.94478],[35.24739,44.94579],[35.2463,44.94868],[35.24509,44.94906],[35.24196,44.94788],[35.24104,44.94681],[35.24053,44.94813],[35.23916,44.94801],[35.23847,44.94876],[35.24406,44.951],[35.24368,44.95147],[35.23745,44.95372],[35.23502,44.95376],[35.23425,44.95282],[35.23168,44.95242],[35.22017,44.95211],[35.21878,44.95695],[35.21889,44.95845],[35.21272,44.96099],[35.21112,44.96263],[35.2084,44.96171],[35.2068,44.95957],[35.20427,44.96073],[35.20364,44.96198],[35.20212,44.96156],[35.20448,44.96422],[35.20438,44.9665],[35.20562,44.96766],[35.20233,44.96845],[35.20386,44.96945],[35.20271,44.97428],[35.20424,44.97451],[35.20755,44.97862],[35.20655,44.97999],[35.1984,44.97839],[35.19709,44.97989],[35.19755,44.98164],[35.1985,44.98189],[35.19931,44.98326],[35.19471,44.98376],[35.18714,44.98094],[35.18669,44.98206],[35.18524,44.98146],[35.18236,44.98331],[35.18471,44.9834],[35.18539,44.98405],[35.18647,44.98327],[35.18767,44.98435],[35.18938,44.98421],[35.19823,44.99011],[35.19628,44.9938],[35.19824,44.996],[35.19684,44.99875],[35.19553,44.99956],[35.19543,45.00169],[35.18677,44.99856],[35.16095,44.99932],[35.16067,44.98847],[35.15807,44.98601],[35.16526,44.98031],[35.15671,44.98067],[35.15295,44.98002],[35.1503,44.97678],[35.15523,44.97323],[35.15856,44.9733],[35.15887,44.97231],[35.15705,44.97111],[35.14542,44.96881],[35.14944,44.96623],[35.15388,44.96727],[35.15649,44.96724],[35.15875,44.9651],[35.16552,44.96415],[35.16486,44.96187],[35.16732,44.96085],[35.16751,44.96131],[35.17639,44.96036],[35.17652,44.95901],[35.16568,44.95789],[35.16061,44.95655],[35.15483,44.95742],[35.14423,44.95634],[35.14042,44.95841],[35.13662,44.95682],[35.13514,44.95821],[35.13487,44.95489],[35.13328,44.95411],[35.13098,44.95434],[35.13001,44.95588],[35.1294,44.95566],[35.12862,44.95687],[35.12755,44.95656],[35.12551,44.95781],[35.12377,44.96007],[35.1229,44.96024],[35.1231,44.95869],[35.12034,44.95745],[35.11198,44.95679],[35.11235,44.95616],[35.11657,44.95553],[35.12523,44.95511],[35.12867,44.95366],[35.12799,44.95097],[35.12636,44.95036],[35.12412,44.94813],[35.126,44.94704],[35.12536,44.94602],[35.12105,44.94503],[35.11779,44.94497],[35.11717,44.9455],[35.11591,44.94451],[35.11732,44.9434],[35.1196,44.94394],[35.12476,44.94315],[35.12741,44.94474],[35.12901,44.9452],[35.12988,44.94482],[35.13206,44.9459],[35.13691,44.94512],[35.13659,44.94399],[35.138,44.94322],[35.14079,44.94337],[35.14182,44.94115],[35.14316,44.94112],[35.14342,44.93922],[35.13954,44.93694],[35.13603,44.93633],[35.13506,44.93479],[35.13434,44.93468],[35.13434,44.93529],[35.13044,44.93377],[35.12977,44.9316],[35.1279,44.92978],[35.12343,44.93067],[35.12202,44.9294],[35.11595,44.92873],[35.11463,44.9288],[35.11509,44.93023],[35.11574,44.9298],[35.1158,44.93305],[35.11118,44.93891],[35.10931,44.93514],[35.10308,44.93281],[35.1008,44.93512],[35.09964,44.93537],[35.09403,44.93317],[35.08649,44.93309],[35.07189,44.93848],[35.06648,44.93337],[35.05915,44.92334],[35.05569,44.91503]]]}}]}