{"type":"FeatureCollection","features":[{"type":"Feature","properties":{"name":"Иваново","osm":"relation/389790","licence":"Data © OpenStreetMap contributors, ODbL 1.0. http://osm.org/copyright"},"geometry":{"type":"Polygon","coordinates":[[[40.86788,56.99265],[40.87099,56.99073],[40.89532,56.99795],[40.90051,56.99397],[40.90194,56.99456],[40.9028,56.99383],[40.90458,56.99079],[40.90433,56.98917],[40.90476,56.98806],[40.90587,56.98831],[40.9108,56.98171],[40.91087,56.98025],[40.90991,56.97879],[40.92085,56.96902],[40.92013,56.96872],[40.92125,56.96674],[40.92672,56.9643],[40.93089,56.96391],[40.93092,56.96155],[40.93143,56.95948],[40.93282,56.95831],[40.93465,56.95738],[40.93568,56.95642],[40.93574,56.95511],[40.93651,56.95375],[40.93837,56.95361],[40.93982,56.95534],[40.94037,56.95612],[40.94065,56.95711],[40.94059,56.95908],[40.94938,56.95937],[40.9532,56.95911],[40.95316,56.95798],[40.95541,56.95787],[40.95533,56.95744],[40.95883,56.95702],[40.96106,56.95542],[40.96279,56.95504],[40.96674,56.95316],[40.96993,56.9537],[40.9702,56.95602],[40.97169,56.95594],[40.97175,56.95667],[40.9739,56.9567],[40.97418,56.954],[40.9759,56.95402],[40.98155,56.95257],[40.97926,56.95122],[40.98494,56.94879],[40.98707,56.94669],[40.98863,56.94705],[40.98718,56.94783],[40.99056,56.94936],[40.98768,56.95046],[40.98441,56.95397],[40.98426,56.95499],[40.99905,56.95371],[40.99957,56.95136],[40.99932,56.95104],[41.005,56.95019],[41.0063,56.9508],[41.00513,56.95175],[41.0113,56.95474],[41.01263,56.95443],[41.0138,56.95455],[41.01443,56.95542],[41.01508,56.95537],[41.01586,56.95571],[41.01491,56.95638],[41.01661,56.9572],[41.01814,56.95757],[41.02199,56.95737],[41.0206,56.95674],[41.02454,56.95383],[41.02366,56.95345],[41.02455,56.95267],[41.02514,56.95145],[41.02402,56.95077],[41.02599,56.94974],[41.02741,56.95009],[41.03029,56.95157],[41.03189,56.95289],[41.0341,56.9538],[41.03452,56.95413],[41.03384,56.95562],[41.03759,56.95716],[41.04586,56.95132],[41.05259,56.94787],[41.05605,56.94954],[41.05761,56.94865],[41.06217,56.95035],[41.06317,56.94973],[41.0649,56.95039],[41.06598,56.94968],[41.06825,56.95059],[41.06209,56.95481],[41.06614,56.95487],[41.06581,56.95623],[41.06443,56.95876],[41.06559,56.9591],[41.06493,56.95961],[41.06388,56.95964],[41.06349,56.96067],[41.06329,56.96286],[41.06501,56.9632],[41.06313,56.96571],[41.06444,56.96603],[41.06826,56.96841],[41.07268,56.96995],[41.07492,56.96701],[41.08146,56.96814],[41.08528,56.96748],[41.09147,56.96549],[41.09511,56.96291],[41.09642,56.96121],[41.10042,56.95883],[41.10303,56.95584],[41.09742,56.95561],[41.09781,56.95507],[41.09756,56.95091],[41.10764,56.95114],[41.10671,56.95261],[41.1041,56.95565],[41.11156,56.95607],[41.12322,56.95532],[41.1238,56.95778],[41.12305,56.95964],[41.12663,56.96058],[41.12422,56.96182],[41.11695,56.96413],[41.09677,56.96963],[41.09927,56.96706],[41.09872,56.96273],[41.10238,56.96157],[41.09824,56.96051],[41.09638,56.96238],[41.09278,56.96859],[41.08525,56.97049],[41.08488,56.97236],[41.07971,56.97454],[41.0824,56.97652],[41.08803,56.97933],[41.08374,56.98413],[41.08277,56.98424],[41.08034,56.9837],[41.07779,56.98725],[41.07531,56.98935],[41.07534,56.9958],[41.07842,57.00547],[41.07655,57.00546],[41.07663,57.00714],[41.07414,57.00797],[41.07315,57.01089],[41.06758,57.01103],[41.06176,57.00966],[41.06332,57.00636],[41.0635,57.00516],[41.05546,57.00631],[41.05415,57.00663],[41.05334,57.00728],[41.04882,57.00676],[41.04726,57.00576],[41.04666,57.00569],[41.04214,57.0074],[41.04109,57.0082],[41.0388,57.01106],[41.03488,57.01242],[41.03348,57.0136],[41.03299,57.01426],[41.0334,57.01477],[41.03712,57.01499],[41.03803,57.01643],[41.0322,57.01723],[41.03283,57.01835],[41.03104,57.01854],[41.03688,57.02836],[41.0454,57.03128],[41.04825,57.03336],[41.04857,57.03829],[41.04839,57.04409],[41.04786,57.04568],[41.02825,57.04154],[41.01116,57.03828],[41.00858,57.03956],[41.00667,57.0416],[41.0026,57.04302],[40.99789,57.04606],[40.99947,57.04615],[40.99945,57.04655],[41.00057,57.04666],[41.00097,57.04844],[41.00215,57.05043],[41.00221,57.05176],[41.00263,57.05276],[41.00515,57.05563],[41.00318,57.05659],[41.00299,57.05477],[41.00028,57.05669],[40.99547,57.05802],[40.99154,57.06143],[40.9834,57.06313],[40.9739,57.06411],[40.96127,57.06706],[40.95703,57.06901],[40.95246,57.06708],[40.95345,57.06463],[40.95493,57.06317],[40.95123,57.06168],[40.94896,57.06217],[40.94337,57.06235],[40.94504,57.06374],[40.94389,57.06418],[40.94572,57.06627],[40.94468,57.06862],[40.94104,57.07],[40.93688,57.07068],[40.93294,57.06963],[40.93161,57.06744],[40.93402,57.06386],[40.9355,57.06062],[40.92775,57.05602],[40.92744,57.05492],[40.92587,57.05388],[40.92498,57.05361],[40.92414,57.0541],[40.92207,57.05295],[40.92073,57.0537],[40.91876,57.05272],[40.92156,57.05123],[40.916,57.0476],[40.91408,57.0484],[40.90501,57.04695],[40.9022,57.04679],[40.90065,57.04703],[40.89862,57.04662],[40.89443,57.04477],[40.8954,57.04421],[40.89664,57.04436],[40.89677,57.04419],[40.89633,57.04384],[40.89648,57.04263],[40.89707,57.04228],[40.89682,57.04141],[40.89757,57.04099],[40.89744,57.04059],[40.89257,57.03929],[40.89439,57.03709],[40.89972,57.03363],[40.90584,57.03172],[40.90737,57.03252],[40.91134,57.02928],[40.91075,57.02854],[40.9107,57.02736],[40.90953,57.02595],[40.90999,57.02432],[40.9084,57.02135],[40.90974,57.02029],[40.91259,57.01985],[40.91781,57.0196],[40.91766,57.01918],[40.91658,57.01869],[40.90824,57.01272],[40.90709,57.01226],[40.90312,57.01338],[40.90054,57.01575],[40.89283,57.01434],[40.88835,57.01427],[40.88563,57.01485],[40.88367,57.01358],[40.88467,57.0124],[40.88554,57.01011],[40.88541,57.00978],[40.88616,57.00947],[40.88554,57.00891],[40.88565,57.00852],[40.88329,57.00709],[40.88265,57.00422],[40.88347,57.00409],[40.88422,57.00062],[40.88403,56.99971],[40.88426,56.99802],[40.88154,56.99771],[40.87742,56.99604],[40.87023,56.99384],[40.86788,56.99265]]]}}]}