{"type":"FeatureCollection","features":[{"type":"Feature","properties":{"name":"Саратов","osm":"relation/3955288","licence":"Data © OpenStreetMap contributors, ODbL 1.0. http://osm.org/copyright"},"geometry":{"type":"Polygon","coordinates":[[[45.80531,51.62693],[45.81027,51.62362],[45.81976,51.62079],[45.82446,51.61495],[45.82496,51.61801],[45.83664,51.62082],[45.83764,51.6192],[45.83603,51.61753],[45.83912,51.61548],[45.84086,51.61632],[45.8461,51.61112],[45.82897,51.60335],[45.83019,51.59302],[45.82438,51.59211],[45.82935,51.59018],[45.83192,51.58698],[45.83303,51.58438],[45.82919,51.58344],[45.83024,51.58161],[45.83632,51.5816],[45.84283,51.58368],[45.85159,51.58382],[45.85497,51.58214],[45.86336,51.58803],[45.86641,51.58561],[45.86557,51.57286],[45.87084,51.56479],[45.8727,51.56423],[45.87368,51.56052],[45.87663,51.55901],[45.87448,51.55827],[45.87555,51.55203],[45.87419,51.5501],[45.87659,51.53123],[45.87127,51.52951],[45.87122,51.52621],[45.86159,51.52136],[45.86613,51.51263],[45.86418,51.5048],[45.8713,51.50149],[45.87291,51.5014],[45.87376,51.50382],[45.87746,51.50336],[45.87754,51.49606],[45.87203,51.49652],[45.87036,51.49392],[45.88624,51.48688],[45.88802,51.48674],[45.88459,51.48864],[45.88633,51.49068],[45.88473,51.49208],[45.8858,51.49258],[45.88951,51.49215],[45.89477,51.48909],[45.89028,51.48735],[45.88868,51.48516],[45.88229,51.48455],[45.87026,51.48896],[45.86981,51.49343],[45.8601,51.49398],[45.85888,51.49484],[45.8581,51.50098],[45.84938,51.4974],[45.84206,51.49834],[45.83825,51.49733],[45.83579,51.49629],[45.83709,51.4922],[45.82591,51.49097],[45.8215,51.48832],[45.8136,51.48743],[45.81487,51.48626],[45.81038,51.4844],[45.8152,51.48231],[45.81509,51.48086],[45.82182,51.48132],[45.82456,51.47899],[45.82865,51.48246],[45.82937,51.48646],[45.84135,51.48457],[45.8498,51.48569],[45.85894,51.48345],[45.86274,51.48483],[45.86882,51.48149],[45.87022,51.48322],[45.87356,51.48214],[45.8806,51.48263],[45.88731,51.47545],[45.8947,51.4712],[45.88615,51.46665],[45.88416,51.46083],[45.89438,51.45569],[45.8945,51.45428],[45.89233,51.45319],[45.89182,51.45471],[45.87528,51.46126],[45.86503,51.45518],[45.86504,51.44241],[45.86652,51.44213],[45.86509,51.44174],[45.86505,51.43934],[45.86835,51.4383],[45.86575,51.43722],[45.85565,51.43818],[45.85516,51.43711],[45.85666,51.43507],[45.8773,51.42901],[45.88707,51.42817],[45.88802,51.42938],[45.9081,51.42982],[45.91585,51.43284],[45.91977,51.43192],[45.91959,51.42947],[45.92265,51.42758],[45.92569,51.42919],[45.92875,51.42659],[45.9273,51.42651],[45.92767,51.42483],[45.92304,51.42416],[45.9193,51.42608],[45.91648,51.42584],[45.91582,51.42852],[45.91259,51.42928],[45.90906,51.42659],[45.90401,51.42764],[45.90106,51.42449],[45.89399,51.42726],[45.88897,51.42116],[45.89942,51.41836],[45.90577,51.42073],[45.91601,51.42114],[45.91618,51.42357],[45.92528,51.42298],[45.9324,51.4162],[45.92385,51.41357],[45.92314,51.40929],[45.94736,51.39211],[45.9732,51.39247],[45.97556,51.39381],[45.98267,51.40635],[45.98345,51.41059],[45.98134,51.44897],[45.98378,51.45296],[46.0035,51.47299],[46.02233,51.49977],[46.04275,51.50787],[46.07751,51.51484],[46.08498,51.51435],[46.09125,51.51131],[46.11245,51.51147],[46.14609,51.51814],[46.17359,51.52567],[46.18774,51.53416],[46.19008,51.5371],[46.20972,51.57276],[46.17727,51.59055],[46.1591,51.58786],[46.15499,51.59207],[46.14771,51.59264],[46.13889,51.59561],[46.13395,51.59969],[46.12486,51.6014],[46.11746,51.60053],[46.11017,51.60275],[46.10898,51.60082],[46.10365,51.60037],[46.09759,51.6018],[46.09823,51.60247],[46.09591,51.60526],[46.10853,51.61972],[46.10121,51.62266],[46.08316,51.63483],[46.07513,51.62578],[46.08441,51.62207],[46.08163,51.61971],[46.07624,51.62315],[46.07396,51.62227],[46.07998,51.61824],[46.07414,51.61274],[46.0629,51.61516],[46.06113,51.61741],[46.0551,51.6187],[46.05354,51.61656],[46.03383,51.61615],[46.02808,51.61328],[45.98251,51.61511],[45.98131,51.61351],[45.97477,51.6161],[45.97367,51.61507],[45.95911,51.61501],[45.95888,51.61657],[45.96494,51.62053],[45.96072,51.62277],[45.95746,51.6204],[45.95491,51.62248],[45.94698,51.61957],[45.94457,51.62288],[45.94557,51.62343],[45.94438,51.62308],[45.93521,51.63546],[45.93769,51.63762],[45.94585,51.63979],[45.95041,51.64366],[45.95013,51.64623],[45.95282,51.65338],[45.9496,51.65575],[45.92899,51.64582],[45.92377,51.65422],[45.9406,51.66247],[45.93366,51.66771],[45.95075,51.67631],[45.94219,51.68206],[45.92966,51.68184],[45.92695,51.68466],[45.923,51.68559],[45.91532,51.68434],[45.9115,51.68175],[45.91319,51.67999],[45.91296,51.67489],[45.90047,51.67539],[45.90089,51.6725],[45.90498,51.66948],[45.88971,51.66957],[45.88772,51.66613],[45.8778,51.66562],[45.87851,51.66329],[45.87722,51.66218],[45.86094,51.65663],[45.86721,51.64729],[45.88942,51.62499],[45.88754,51.62153],[45.89191,51.61966],[45.88892,51.6191],[45.88805,51.61786],[45.88909,51.61743],[45.88562,51.61469],[45.85639,51.6255],[45.82927,51.64402],[45.83081,51.64175],[45.81429,51.63547],[45.81725,51.63462],[45.82252,51.62899],[45.82444,51.62549],[45.82373,51.62468],[45.81913,51.62317],[45.81353,51.6246],[45.80788,51.62802],[45.80531,51.62693]]]}}]}