{"type":"FeatureCollection","features":[{"type":"Feature","properties":{"name":"Елизово","osm":"relation/4139914","licence":"Data © OpenStreetMap contributors, ODbL 1.0. http://osm.org/copyright"},"geometry":{"type":"Polygon","coordinates":[[[158.23844,53.18378],[158.28285,53.15674],[158.29866,53.13482],[158.29692,53.12112],[158.31439,53.1048],[158.31649,53.10291],[158.31784,53.10164],[158.31899,53.10039],[158.32034,53.099],[158.32109,53.09829],[158.32251,53.09738],[158.32275,53.09695],[158.32273,53.09184],[158.32357,53.08954],[158.32486,53.08721],[158.33799,53.08223],[158.33545,53.09059],[158.32927,53.09167],[158.32908,53.09763],[158.3359,53.10365],[158.33949,53.10314],[158.33969,53.1056],[158.35584,53.10512],[158.35844,53.10504],[158.36114,53.11027],[158.36624,53.11152],[158.37,53.11189],[158.37365,53.11241],[158.37644,53.11394],[158.37993,53.11485],[158.38575,53.11648],[158.39257,53.13269],[158.39274,53.13383],[158.39131,53.13533],[158.38951,53.13649],[158.38833,53.13895],[158.38822,53.13925],[158.38812,53.14647],[158.38686,53.14718],[158.38693,53.14885],[158.38854,53.14939],[158.39048,53.15031],[158.39099,53.15142],[158.39327,53.15649],[158.40267,53.16235],[158.40296,53.16265],[158.40481,53.16468],[158.40731,53.16705],[158.41672,53.16027],[158.42241,53.15756],[158.42442,53.15721],[158.42467,53.15712],[158.42803,53.15544],[158.43543,53.14912],[158.43781,53.14705],[158.43204,53.14412],[158.43319,53.14276],[158.43941,53.14585],[158.44228,53.14338],[158.44548,53.14183],[158.45318,53.13694],[158.45661,53.13746],[158.46024,53.13797],[158.46578,53.13699],[158.46651,53.13674],[158.46789,53.13517],[158.47185,53.13604],[158.47474,53.13288],[158.47591,53.1316],[158.47883,53.12816],[158.47896,53.12817],[158.47909,53.12824],[158.47916,53.12836],[158.47919,53.12857],[158.47917,53.12869],[158.4792,53.12875],[158.47939,53.12879],[158.47965,53.1288],[158.47971,53.12884],[158.47963,53.1289],[158.47946,53.12893],[158.47946,53.12903],[158.47958,53.12911],[158.47972,53.12909],[158.47982,53.12897],[158.47993,53.12896],[158.48002,53.12903],[158.48003,53.12922],[158.48013,53.12928],[158.48046,53.12929],[158.48063,53.12931],[158.48079,53.12928],[158.4809,53.12924],[158.48102,53.12928],[158.48115,53.12932],[158.48149,53.12933],[158.48169,53.1294],[158.48166,53.12951],[158.48173,53.12956],[158.4818,53.1295],[158.48186,53.12944],[158.48194,53.12948],[158.48199,53.12956],[158.48228,53.12971],[158.48243,53.12972],[158.48254,53.12979],[158.48273,53.12979],[158.48308,53.12978],[158.48338,53.12978],[158.48371,53.12984],[158.49238,53.13741],[158.49154,53.13785],[158.48841,53.13938],[158.48617,53.14049],[158.48471,53.14121],[158.48225,53.14223],[158.47711,53.14435],[158.47562,53.14497],[158.47505,53.14518],[158.47461,53.14536],[158.47718,53.14834],[158.47746,53.14865],[158.47775,53.14889],[158.47819,53.14917],[158.47878,53.14951],[158.47958,53.14993],[158.48374,53.15225],[158.48424,53.15247],[158.48548,53.15303],[158.487,53.15365],[158.49134,53.15538],[158.49567,53.15711],[158.49308,53.16077],[158.49028,53.16473],[158.48988,53.16526],[158.48925,53.16611],[158.48832,53.16744],[158.48785,53.16804],[158.48641,53.16994],[158.48465,53.17219],[158.48315,53.17411],[158.47774,53.18155],[158.47804,53.18255],[158.47967,53.18411],[158.48014,53.1845],[158.48361,53.18734],[158.4854,53.18863],[158.47777,53.18907],[158.47361,53.18974],[158.47188,53.19068],[158.47092,53.19096],[158.4692,53.1923],[158.46319,53.19229],[158.46341,53.19516],[158.46303,53.19951],[158.46372,53.20001],[158.46404,53.20053],[158.46362,53.20163],[158.46348,53.20243],[158.46271,53.20295],[158.46164,53.20361],[158.45753,53.20451],[158.45526,53.20557],[158.45377,53.2061],[158.45151,53.20564],[158.44712,53.20532],[158.44099,53.20762],[158.43511,53.20943],[158.43347,53.21083],[158.42905,53.21068],[158.42526,53.2092],[158.42334,53.20853],[158.42087,53.20822],[158.42084,53.20853],[158.42133,53.2091],[158.42118,53.20939],[158.42094,53.20951],[158.41952,53.20983],[158.41788,53.21006],[158.41753,53.21009],[158.41675,53.21026],[158.41646,53.21025],[158.4162,53.21032],[158.41571,53.21033],[158.41468,53.21031],[158.41342,53.21043],[158.41238,53.21004],[158.41085,53.20976],[158.40953,53.20962],[158.40904,53.20958],[158.40826,53.20951],[158.40765,53.20937],[158.40734,53.20926],[158.40685,53.2092],[158.40612,53.2091],[158.40527,53.20902],[158.40436,53.20885],[158.4039,53.20881],[158.40355,53.20883],[158.40318,53.20899],[158.40274,53.2091],[158.40162,53.20947],[158.40028,53.20903],[158.39879,53.20944],[158.39849,53.20966],[158.39863,53.20976],[158.40197,53.21106],[158.40302,53.21177],[158.40274,53.21306],[158.40148,53.21523],[158.39954,53.21643],[158.39875,53.21707],[158.39835,53.21739],[158.39731,53.21735],[158.39807,53.21652],[158.39626,53.21639],[158.39362,53.21639],[158.39236,53.21744],[158.39229,53.21823],[158.39146,53.21889],[158.39118,53.21844],[158.39076,53.21802],[158.38847,53.21839],[158.38749,53.21894],[158.38575,53.2196],[158.3829,53.22069],[158.38102,53.22131],[158.3799,53.22115],[158.379,53.22123],[158.37733,53.22202],[158.37489,53.2226],[158.3744,53.22177],[158.37364,53.22131],[158.37259,53.2214],[158.37204,53.22265],[158.37016,53.22331],[158.36995,53.22406],[158.36856,53.2249],[158.36654,53.22498],[158.36605,53.22431],[158.3648,53.22419],[158.36319,53.22435],[158.36194,53.22373],[158.36166,53.22265],[158.36013,53.22252],[158.35916,53.22302],[158.3579,53.22348],[158.35616,53.22323],[158.35302,53.22186],[158.35157,53.22123],[158.23844,53.18378]]]}}]}