{"type":"FeatureCollection","features":[{"type":"Feature","properties":{"name":"Петропавловск-Камчатский","osm":"relation/4139922","licence":"Data © OpenStreetMap contributors, ODbL 1.0. http://osm.org/copyright"},"geometry":{"type":"Polygon","coordinates":[[[158.52199,53.07739],[158.52604,53.07491],[158.52705,53.0729],[158.52917,53.07141],[158.52776,53.07372],[158.53003,53.0729],[158.52883,53.07287],[158.52936,53.07223],[158.53053,53.0726],[158.52958,53.07202],[158.53214,53.06995],[158.53252,53.06825],[158.53363,53.06903],[158.53311,53.06768],[158.53408,53.0661],[158.53829,53.06588],[158.53373,53.06469],[158.53484,53.06359],[158.53305,53.06247],[158.53473,53.06094],[158.53278,53.06102],[158.5352,53.06008],[158.5414,53.06008],[158.54475,53.06163],[158.55776,53.06326],[158.56967,53.06309],[158.57366,53.06229],[158.57534,53.06113],[158.57477,53.06047],[158.57643,53.06128],[158.58058,53.06089],[158.58495,53.05934],[158.58727,53.05653],[158.58793,53.05364],[158.58644,53.05327],[158.58803,53.05351],[158.58992,53.0493],[158.59259,53.04647],[158.59539,53.04626],[158.59668,53.04936],[158.59793,53.05019],[158.60022,53.05001],[158.60007,53.04819],[158.59983,53.05053],[158.60228,53.0512],[158.60762,53.0514],[158.61105,53.0505],[158.60655,53.05007],[158.61158,53.05034],[158.61246,53.04995],[158.61134,53.04891],[158.61251,53.04993],[158.6142,53.04907],[158.6149,53.04427],[158.61347,53.0436],[158.61618,53.04332],[158.62358,53.03549],[158.62701,53.03332],[158.63281,53.03113],[158.63466,53.02927],[158.63588,53.02987],[158.64125,53.02648],[158.64191,53.02408],[158.64076,53.01998],[158.64104,53.00699],[158.64547,53.00656],[158.64537,53.00935],[158.6435,53.01023],[158.6431,53.01475],[158.64481,53.01634],[158.64772,53.01679],[158.64801,53.01351],[158.64444,53.01289],[158.64909,53.01123],[158.65428,53.00492],[158.65221,52.99988],[158.65494,52.99815],[158.65307,52.99383],[158.65393,52.98937],[158.65768,52.98813],[158.66023,52.98396],[158.66389,52.98208],[158.66462,52.98587],[158.66617,52.98585],[158.66576,52.98221],[158.66832,52.98086],[158.67216,52.98176],[158.67446,52.97867],[158.67373,52.9778],[158.6743,52.97723],[158.67154,52.97597],[158.67399,52.97436],[158.67188,52.97592],[158.67374,52.97676],[158.67823,52.97515],[158.68032,52.97602],[158.68022,52.977],[158.68147,52.97706],[158.68018,52.97708],[158.68122,52.97785],[158.68448,52.97804],[158.68602,52.97623],[158.68156,52.97552],[158.67901,52.97363],[158.67804,52.96927],[158.68008,52.96634],[158.68128,52.96636],[158.68776,52.96123],[158.68865,52.96156],[158.68592,52.96438],[158.68781,52.96574],[158.69366,52.96216],[158.70061,52.96253],[158.70425,52.96424],[158.70909,52.96261],[158.71237,52.95533],[158.71195,52.95342],[158.70576,52.95677],[158.706,52.95876],[158.70495,52.96092],[158.69847,52.95964],[158.69773,52.95738],[158.69427,52.95633],[158.69216,52.95388],[158.68942,52.95249],[158.68408,52.95211],[158.68062,52.95391],[158.68034,52.9571],[158.67187,52.95961],[158.6679,52.95877],[158.66534,52.95941],[158.66329,52.96163],[158.66417,52.96293],[158.66308,52.96322],[158.66351,52.96398],[158.66141,52.96607],[158.66269,52.96733],[158.65838,52.96935],[158.65267,52.97017],[158.64992,52.96795],[158.64646,52.96176],[158.64567,52.95818],[158.64913,52.95796],[158.65011,52.95707],[158.65053,52.95502],[158.64958,52.95073],[158.65347,52.94834],[158.65712,52.94141],[158.66355,52.93994],[158.66653,52.94219],[158.66383,52.94295],[158.66572,52.94595],[158.66885,52.94711],[158.67475,52.94736],[158.67965,52.94646],[158.68252,52.94488],[158.68138,52.94312],[158.682,52.93866],[158.68078,52.93837],[158.6877,52.9326],[158.68811,52.93043],[158.68672,52.92965],[158.68833,52.92774],[158.68888,52.92486],[158.68825,52.92328],[158.68552,52.92216],[158.68828,52.91522],[158.68561,52.91232],[158.67998,52.91163],[158.68258,52.91024],[158.68363,52.90822],[158.69395,52.90339],[158.69998,52.89765],[158.70122,52.89556],[158.7011,52.89369],[158.69589,52.8926],[158.70142,52.88897],[158.70233,52.88567],[158.70398,52.88503],[158.71331,52.8871],[158.71757,52.89095],[158.72448,52.89345],[158.73401,52.89441],[158.73315,52.89615],[158.73471,52.90041],[158.74004,52.90615],[158.75551,52.91745],[158.76431,52.9228],[158.76907,52.92419],[158.77323,52.9282],[158.77682,52.92912],[158.77816,52.9316],[158.77969,52.93237],[158.77852,52.93297],[158.7793,52.93447],[158.78161,52.93612],[158.78366,52.93622],[158.7831,52.93676],[158.78486,52.93847],[158.79237,52.94274],[158.7955,52.94817],[158.80229,52.95475],[158.81446,52.96229],[158.81707,52.9653],[158.83349,52.97849],[158.86429,53.00001],[158.88828,53.01429],[158.93252,53.03841],[158.98754,53.06429],[158.9822,53.06636],[158.97843,53.06661],[158.97762,53.0671],[158.97851,53.06826],[158.96528,53.0745],[158.96238,53.07545],[158.95992,53.07463],[158.95279,53.0796],[158.94871,53.07817],[158.94493,53.07958],[158.89687,53.1042],[158.89648,53.11464],[158.89546,53.11681],[158.89284,53.11747],[158.88752,53.12326],[158.88735,53.12543],[158.88534,53.12632],[158.84118,53.11749],[158.83636,53.1157],[158.82298,53.11404],[158.7446,53.09828],[158.74626,53.09567],[158.72932,53.09227],[158.7226,53.09556],[158.70685,53.11935],[158.68247,53.10995],[158.63524,53.11283],[158.62348,53.10695],[158.61269,53.10626],[158.60734,53.10114],[158.61526,53.09464],[158.62988,53.09117],[158.62195,53.08655],[158.61693,53.08609],[158.61246,53.08747],[158.60523,53.08435],[158.60054,53.07986],[158.57542,53.07807],[158.56728,53.0761],[158.5479,53.0817],[158.52877,53.07724],[158.52699,53.07714],[158.52774,53.07753],[158.52741,53.07854],[158.52628,53.07916],[158.52199,53.07739]]]}}]}