{"type":"FeatureCollection","features":[{"type":"Feature","properties":{"name":"Санкт-Петербург","osm":"relation/421007","licence":"Data © OpenStreetMap contributors, ODbL 1.0. http://osm.org/copyright"},"geometry":{"type":"Polygon","coordinates":[[[30.04334,59.76418],[30.04382,59.76239],[30.06057,59.76219],[30.06197,59.75701],[30.07187,59.75594],[30.06653,59.75527],[30.06826,59.75273],[30.06248,59.75213],[30.06399,59.74989],[30.07614,59.74792],[30.11015,59.76264],[30.14169,59.76117],[30.15278,59.77175],[30.14599,59.77438],[30.14743,59.77798],[30.15533,59.78494],[30.15408,59.78657],[30.15901,59.78804],[30.15885,59.79257],[30.16281,59.79627],[30.15388,59.79689],[30.15932,59.80117],[30.17656,59.79605],[30.17982,59.79349],[30.17753,59.79152],[30.17962,59.79078],[30.18888,59.79142],[30.21008,59.79752],[30.22133,59.79703],[30.28394,59.78787],[30.27116,59.7786],[30.27362,59.77762],[30.26879,59.77473],[30.2709,59.77404],[30.26441,59.77095],[30.25856,59.76268],[30.31,59.74415],[30.32963,59.76319],[30.33233,59.76245],[30.33508,59.76865],[30.33837,59.76836],[30.33878,59.76992],[30.32615,59.77694],[30.32542,59.79106],[30.32775,59.79444],[30.32506,59.79751],[30.32466,59.80374],[30.33623,59.80676],[30.34808,59.81289],[30.38165,59.81873],[30.3827,59.81657],[30.40622,59.81922],[30.43207,59.82513],[30.4396,59.82911],[30.4752,59.83399],[30.51155,59.80777],[30.50829,59.81264],[30.52013,59.81923],[30.52021,59.82393],[30.5485,59.81313],[30.55472,59.81716],[30.55174,59.81974],[30.55428,59.82123],[30.55873,59.81946],[30.56312,59.82088],[30.56001,59.82221],[30.5652,59.82176],[30.56717,59.82392],[30.56125,59.82761],[30.56285,59.83362],[30.56148,59.83545],[30.55594,59.83674],[30.54082,59.83362],[30.5327,59.83406],[30.50964,59.84309],[30.49575,59.84596],[30.49244,59.84855],[30.49349,59.8582],[30.52,59.86323],[30.49741,59.89136],[30.49542,59.89148],[30.5131,59.97056],[30.5433,59.97748],[30.55249,59.96899],[30.56603,59.97096],[30.55617,59.97328],[30.55821,59.97381],[30.55409,59.97923],[30.54843,59.97871],[30.55167,59.98119],[30.52811,59.98209],[30.53313,59.98451],[30.53317,59.98701],[30.53778,59.98811],[30.5337,59.9888],[30.53658,59.99085],[30.53469,59.99259],[30.51746,59.98534],[30.50809,59.98713],[30.50352,59.9994],[30.49949,60.00043],[30.50398,60.00647],[30.4939,60.00966],[30.49016,60.00827],[30.48796,60.01026],[30.48579,60.01475],[30.48986,60.01869],[30.48911,60.02306],[30.48306,60.02019],[30.47587,60.0227],[30.47517,60.02515],[30.46732,60.02291],[30.46411,60.02584],[30.4684,60.02737],[30.46216,60.02861],[30.46823,60.03356],[30.44193,60.04095],[30.43761,60.03913],[30.43557,60.04204],[30.41565,60.04671],[30.41842,60.04955],[30.38811,60.05708],[30.38877,60.0588],[30.3854,60.05974],[30.37688,60.07858],[30.37353,60.08051],[30.37067,60.08772],[30.36698,60.09074],[30.34106,60.06082],[30.30768,60.06756],[30.28789,60.06474],[30.27899,60.06591],[30.27433,60.06872],[30.22278,60.05132],[30.21411,60.06127],[30.20223,60.06213],[30.19584,60.06047],[30.19332,60.0639],[30.13409,60.04874],[30.13405,60.04684],[30.1421,60.04515],[30.13832,60.04168],[30.14619,60.03472],[30.11994,60.03358],[30.0791,60.02717],[30.07963,60.00476],[30.07659,60.00277],[30.07009,60.00275],[30.06392,59.99669],[30.09143,59.99409],[30.09818,59.99221],[30.09719,59.99048],[30.15932,59.98744],[30.16215,59.98642],[30.16093,59.98321],[30.16615,59.98252],[30.16734,59.98409],[30.16215,59.98345],[30.16323,59.98575],[30.18144,59.98554],[30.18237,59.98895],[30.17876,59.9891],[30.18419,59.98967],[30.18636,59.98699],[30.18432,59.98598],[30.18765,59.98539],[30.18799,59.98313],[30.20372,59.97853],[30.2232,59.98282],[30.22655,59.97782],[30.21306,59.97633],[30.21029,59.97399],[30.21053,59.97087],[30.23722,59.96664],[30.23506,59.96526],[30.2361,59.96397],[30.23275,59.96156],[30.21246,59.96438],[30.19071,59.96115],[30.18318,59.95334],[30.19461,59.95052],[30.19045,59.94355],[30.1779,59.94403],[30.19108,59.93235],[30.20266,59.92873],[30.22736,59.92868],[30.22947,59.93273],[30.23188,59.93326],[30.23011,59.92999],[30.23483,59.92769],[30.23071,59.92672],[30.25885,59.91845],[30.26074,59.91592],[30.23455,59.91338],[30.21379,59.91611],[30.20726,59.90852],[30.21602,59.90577],[30.2161,59.90397],[30.19586,59.89319],[30.19332,59.88932],[30.16898,59.88831],[30.16789,59.8864],[30.17232,59.88418],[30.16592,59.8808],[30.16812,59.8796],[30.16152,59.87424],[30.17563,59.87035],[30.15563,59.87189],[30.14892,59.8661],[30.13953,59.86247],[30.11801,59.86279],[30.11707,59.85879],[30.11625,59.86298],[30.09852,59.86353],[30.0984,59.85533],[30.10057,59.85341],[30.09049,59.85285],[30.09154,59.83593],[30.08607,59.83461],[30.06974,59.83842],[30.07529,59.81523],[30.09097,59.81486],[30.10468,59.8173],[30.12769,59.80907],[30.12342,59.80446],[30.1049,59.80286],[30.10561,59.79736],[30.09878,59.7955],[30.09795,59.78393],[30.08393,59.7786],[30.08463,59.77573],[30.05638,59.76606],[30.04334,59.76418]]]}}]}