{"type":"FeatureCollection","features":[{"type":"Feature","properties":{"name":"Челябинск","osm":"relation/4442556","licence":"Data © OpenStreetMap contributors, ODbL 1.0. http://osm.org/copyright"},"geometry":{"type":"Polygon","coordinates":[[[61.1436,55.05351],[61.14548,55.05255],[61.14484,55.05172],[61.14715,55.04953],[61.15784,55.04683],[61.16138,55.04283],[61.16647,55.04023],[61.17079,55.04038],[61.17151,55.04162],[61.17594,55.04356],[61.17887,55.04734],[61.18076,55.04773],[61.18336,55.04586],[61.18881,55.04544],[61.1928,55.04123],[61.19844,55.03907],[61.22119,55.03677],[61.2257,55.03771],[61.23302,55.04195],[61.23605,55.04262],[61.23932,55.04573],[61.25101,55.04749],[61.31206,55.07821],[61.31483,55.0759],[61.31927,55.07814],[61.33054,55.07476],[61.33313,55.07189],[61.33208,55.06737],[61.32869,55.06741],[61.3301,55.06601],[61.3277,55.06576],[61.32214,55.05796],[61.3284,55.04889],[61.33368,55.0434],[61.33946,55.0399],[61.32599,55.03648],[61.3382,55.02629],[61.34877,55.02937],[61.354,55.02886],[61.35961,55.02511],[61.357,55.01674],[61.36471,55.01578],[61.36698,55.01692],[61.36961,55.02429],[61.37809,55.02471],[61.38448,55.02198],[61.38521,55.02136],[61.3849,55.01861],[61.38904,55.01449],[61.39251,55.01248],[61.3899,55.00661],[61.39069,55.00333],[61.39014,54.99986],[61.38846,54.99878],[61.38822,54.99746],[61.39144,54.991],[61.39313,54.99121],[61.42651,55.03831],[61.42374,55.03906],[61.44133,55.03673],[61.43908,55.03834],[61.4393,55.03936],[61.44402,55.04014],[61.49086,55.05943],[61.52924,55.07938],[61.54208,55.08646],[61.53993,55.08915],[61.55121,55.09687],[61.53944,55.10273],[61.53571,55.10373],[61.52974,55.10187],[61.51762,55.10524],[61.51745,55.10904],[61.52367,55.11207],[61.53766,55.11195],[61.54312,55.11832],[61.55069,55.1389],[61.55388,55.15411],[61.55617,55.16288],[61.55706,55.16504],[61.55784,55.16507],[61.55745,55.16584],[61.56515,55.16703],[61.57149,55.17151],[61.57867,55.17381],[61.58329,55.17649],[61.58494,55.17881],[61.59206,55.18148],[61.59151,55.18226],[61.58387,55.18081],[61.58036,55.1814],[61.57776,55.18321],[61.5772,55.18488],[61.55871,55.19277],[61.55774,55.19763],[61.55753,55.20086],[61.55862,55.20225],[61.5579,55.2029],[61.55735,55.21257],[61.55969,55.21576],[61.55635,55.22096],[61.55656,55.23284],[61.55296,55.23282],[61.55294,55.23146],[61.54405,55.23321],[61.53175,55.23369],[61.52936,55.23493],[61.52657,55.24025],[61.51769,55.24016],[61.51508,55.23901],[61.51116,55.23899],[61.50599,55.24061],[61.4958,55.24068],[61.49298,55.23914],[61.48734,55.24089],[61.48526,55.24032],[61.49367,55.25514],[61.52112,55.25937],[61.52538,55.26133],[61.54338,55.27921],[61.55226,55.2794],[61.55106,55.28366],[61.55159,55.29019],[61.54916,55.29325],[61.54577,55.30294],[61.53128,55.30471],[61.53165,55.30547],[61.5299,55.30572],[61.5295,55.30489],[61.52434,55.30548],[61.52485,55.30744],[61.51076,55.30974],[61.50142,55.30931],[61.50048,55.30796],[61.47573,55.31065],[61.47222,55.30952],[61.46662,55.31009],[61.46034,55.30122],[61.43983,55.30131],[61.44032,55.31068],[61.43522,55.31422],[61.43216,55.3198],[61.4018,55.32098],[61.39905,55.30481],[61.37841,55.30126],[61.37305,55.30583],[61.38104,55.30874],[61.38004,55.30965],[61.3721,55.3069],[61.37198,55.3099],[61.36842,55.30994],[61.36738,55.30918],[61.36764,55.3084],[61.36418,55.30959],[61.35561,55.30929],[61.35507,55.30987],[61.35977,55.31245],[61.35617,55.31552],[61.35154,55.31372],[61.35246,55.31265],[61.34872,55.31163],[61.35167,55.3083],[61.35098,55.30822],[61.35162,55.30775],[61.35035,55.30565],[61.35519,55.30287],[61.35583,55.301],[61.34802,55.29575],[61.34681,55.29375],[61.34717,55.29069],[61.34943,55.2877],[61.35276,55.28664],[61.35448,55.28406],[61.3545,55.27991],[61.35326,55.27788],[61.3598,55.27466],[61.36008,55.27344],[61.3583,55.26897],[61.36057,55.2658],[61.35505,55.26521],[61.34877,55.26625],[61.34568,55.26552],[61.34848,55.26078],[61.32747,55.26091],[61.32283,55.27033],[61.30206,55.26362],[61.27165,55.24833],[61.28394,55.23871],[61.2785,55.23592],[61.28284,55.23427],[61.28348,55.23369],[61.2818,55.23287],[61.28518,55.23046],[61.27227,55.22437],[61.26569,55.20735],[61.26604,55.20425],[61.26459,55.20466],[61.26082,55.19511],[61.24353,55.14247],[61.24427,55.14169],[61.25325,55.14142],[61.27359,55.14296],[61.28505,55.13998],[61.28433,55.13748],[61.28722,55.13552],[61.2885,55.13646],[61.29223,55.13483],[61.29974,55.12959],[61.29999,55.12725],[61.29826,55.12413],[61.29075,55.11565],[61.28553,55.11267],[61.28523,55.1114],[61.27959,55.10969],[61.27409,55.10567],[61.26349,55.1029],[61.26232,55.10217],[61.26179,55.10027],[61.25522,55.09527],[61.25088,55.09434],[61.25129,55.09339],[61.24423,55.08889],[61.24076,55.08533],[61.2414,55.08259],[61.23755,55.08268],[61.23675,55.08139],[61.23772,55.07994],[61.23558,55.07927],[61.23704,55.07482],[61.22877,55.06594],[61.22923,55.06473],[61.22566,55.05547],[61.22153,55.05072],[61.21425,55.04652],[61.20308,55.04692],[61.19785,55.04938],[61.19437,55.04971],[61.19001,55.05398],[61.18469,55.05401],[61.18108,55.05501],[61.17689,55.05373],[61.17317,55.05373],[61.17065,55.0549],[61.16455,55.05372],[61.15971,55.05386],[61.15988,55.0546],[61.15794,55.05511],[61.15638,55.0526],[61.15432,55.05237],[61.15302,55.05075],[61.14905,55.053],[61.1436,55.05351]]]}}]}