{"type":"FeatureCollection","features":[{"type":"Feature","properties":{"name":"Махачкала","osm":"relation/4632505","licence":"Data © OpenStreetMap contributors, ODbL 1.0. http://osm.org/copyright"},"geometry":{"type":"Polygon","coordinates":[[[47.3174,43.04263],[47.31757,43.04042],[47.31936,43.04042],[47.32021,43.04102],[47.32682,43.03651],[47.3299,43.03919],[47.33134,43.03843],[47.3206,43.02952],[47.3234,43.02704],[47.32577,43.02266],[47.32413,43.02177],[47.33793,43.01184],[47.34308,43.00939],[47.33597,43.00366],[47.32762,43.00519],[47.33968,43.0023],[47.34688,42.99927],[47.38569,42.97327],[47.39104,42.95894],[47.39052,42.95789],[47.38774,42.95909],[47.3857,42.9579],[47.38478,42.95868],[47.38303,42.95816],[47.38128,42.95618],[47.37905,42.95626],[47.37902,42.95547],[47.38106,42.95308],[47.38007,42.9516],[47.38577,42.94871],[47.39165,42.94803],[47.39658,42.94524],[47.39812,42.9428],[47.40022,42.94175],[47.40218,42.94103],[47.405,42.94188],[47.40597,42.94598],[47.40418,42.94714],[47.40379,42.95241],[47.40107,42.95396],[47.4027,42.95544],[47.40026,42.95816],[47.4013,42.95915],[47.40347,42.96009],[47.4043,42.95943],[47.40593,42.95969],[47.40832,42.95723],[47.40907,42.95783],[47.41018,42.95749],[47.41345,42.95523],[47.41292,42.95447],[47.4169,42.95285],[47.41757,42.95382],[47.42179,42.95182],[47.42699,42.95052],[47.42768,42.95266],[47.41933,42.9567],[47.41705,42.9596],[47.41778,42.95988],[47.42685,42.95566],[47.42768,42.95379],[47.43125,42.95382],[47.43416,42.95688],[47.43378,42.95768],[47.43204,42.95834],[47.43211,42.95997],[47.43018,42.96128],[47.42803,42.96171],[47.42957,42.96546],[47.43386,42.96807],[47.43756,42.96923],[47.43846,42.97092],[47.44074,42.97105],[47.43974,42.97337],[47.44689,42.97363],[47.44812,42.97237],[47.44981,42.97298],[47.45284,42.97269],[47.45727,42.97326],[47.46624,42.96708],[47.47101,42.95995],[47.4754,42.95786],[47.47789,42.95463],[47.48296,42.95202],[47.48394,42.94935],[47.48349,42.94686],[47.48185,42.94465],[47.48489,42.94235],[47.48972,42.94082],[47.49283,42.93837],[47.49971,42.93784],[47.50932,42.93387],[47.51212,42.93204],[47.51418,42.9265],[47.51023,42.91251],[47.52035,42.90757],[47.51881,42.90232],[47.52398,42.90186],[47.52856,42.89425],[47.52877,42.89492],[47.52984,42.89512],[47.53112,42.89472],[47.53138,42.89546],[47.53322,42.89463],[47.53402,42.89544],[47.53476,42.89471],[47.53555,42.89533],[47.53603,42.89469],[47.53957,42.89507],[47.54033,42.89568],[47.54,42.89829],[47.53415,42.90836],[47.5328,42.91219],[47.53928,42.91513],[47.53875,42.91606],[47.53968,42.9168],[47.53976,42.92007],[47.54219,42.92249],[47.54065,42.92555],[47.54181,42.9267],[47.58262,42.9023],[47.58622,42.9025],[47.5927,42.90577],[47.59394,42.89521],[47.59629,42.89251],[47.5971,42.8928],[47.59348,42.90668],[47.5942,42.90937],[47.58199,42.92132],[47.59033,42.92708],[47.59255,42.92527],[47.59318,42.92398],[47.59817,42.92042],[47.59934,42.91832],[47.60149,42.91684],[47.60332,42.91454],[47.60854,42.91145],[47.61125,42.91418],[47.6147,42.91255],[47.62068,42.91719],[47.61822,42.9197],[47.61648,42.92331],[47.61692,42.92187],[47.61637,42.92171],[47.61613,42.92232],[47.61428,42.92259],[47.61317,42.92356],[47.61443,42.92451],[47.61345,42.92604],[47.61373,42.92455],[47.61239,42.92443],[47.60876,42.92662],[47.60702,42.92645],[47.60388,42.9275],[47.59866,42.93032],[47.59272,42.93453],[47.57858,42.9513],[47.57254,42.95657],[47.57081,42.95685],[47.56271,42.96117],[47.55544,42.96412],[47.55492,42.96472],[47.55582,42.96584],[47.54877,42.96821],[47.54925,42.96876],[47.54718,42.96786],[47.54458,42.9689],[47.52877,42.97703],[47.52894,42.97806],[47.52745,42.97886],[47.5271,42.97859],[47.5286,42.97796],[47.528,42.97742],[47.52718,42.97784],[47.52732,42.97843],[47.52546,42.97851],[47.51344,42.98438],[47.50994,42.98881],[47.50686,42.99382],[47.50706,42.99446],[47.50639,42.99433],[47.50116,42.99971],[47.50079,42.99947],[47.50569,42.99468],[47.50719,42.9913],[47.50853,42.9903],[47.50881,42.98912],[47.50768,42.98774],[47.5046,42.98829],[47.50094,42.99001],[47.5014,42.99067],[47.50525,42.99166],[47.50357,42.99303],[47.49838,42.99194],[47.4932,42.99409],[47.49696,42.99565],[47.49584,42.99708],[47.49786,42.99801],[47.49408,43.00104],[47.49719,42.99791],[47.48914,42.99464],[47.48534,42.99568],[47.48456,42.99526],[47.48067,42.99689],[47.48502,42.99974],[47.48565,42.99961],[47.4854,42.99997],[47.4805,42.99698],[47.4778,42.99869],[47.47761,42.99913],[47.4794,42.99992],[47.47863,43.00063],[47.47875,42.99978],[47.4756,42.99884],[47.47403,42.99967],[47.47482,43.00056],[47.47617,43.00037],[47.4756,43.00065],[47.47489,43.00354],[47.46937,43.00463],[47.46865,43.00601],[47.4674,43.01162],[47.46566,43.01373],[47.46504,43.01571],[47.46402,43.02455],[47.4652,43.02552],[47.46358,43.02582],[47.46259,43.0269],[47.44913,43.02541],[47.44654,43.03068],[47.42944,43.03469],[47.428,43.0326],[47.4239,43.03456],[47.42648,43.03074],[47.4231,43.0293],[47.4215,43.02766],[47.42065,43.02596],[47.4211,43.02298],[47.42063,43.02199],[47.40874,43.02607],[47.41308,43.03299],[47.40912,43.03458],[47.41086,43.03832],[47.39671,43.04152],[47.39832,43.04463],[47.38631,43.05265],[47.37823,43.04674],[47.37215,43.03801],[47.34026,43.04879],[47.33757,43.04893],[47.32913,43.04748],[47.32559,43.0442],[47.32427,43.04515],[47.32411,43.04677],[47.32165,43.04564],[47.31877,43.04556],[47.3174,43.04263]]]}}]}