{"type":"FeatureCollection","features":[{"type":"Feature","properties":{"name":"Тамбов","osm":"relation/4637058","licence":"Data © OpenStreetMap contributors, ODbL 1.0. http://osm.org/copyright"},"geometry":{"type":"Polygon","coordinates":[[[41.32575,52.71081],[41.32683,52.70876],[41.3268,52.70828],[41.32939,52.70653],[41.32875,52.70566],[41.32819,52.70391],[41.32806,52.70219],[41.32753,52.7018],[41.3298,52.69972],[41.33141,52.6989],[41.33262,52.69694],[41.34111,52.69847],[41.34185,52.69834],[41.34332,52.69685],[41.35716,52.6952],[41.35839,52.69354],[41.36222,52.68647],[41.36377,52.6866],[41.3656,52.68209],[41.36754,52.68241],[41.37087,52.68001],[41.37889,52.68527],[41.38069,52.68606],[41.3819,52.68732],[41.38381,52.68859],[41.39724,52.69699],[41.39955,52.69809],[41.3995,52.69829],[41.4109,52.69921],[41.41092,52.69872],[41.41291,52.69834],[41.41409,52.69684],[41.41608,52.69629],[41.41791,52.69647],[41.41912,52.69589],[41.41977,52.69502],[41.42102,52.69452],[41.42161,52.695],[41.42296,52.69542],[41.42403,52.69554],[41.42613,52.6952],[41.43066,52.69779],[41.43229,52.6961],[41.43332,52.69674],[41.43318,52.69809],[41.43678,52.69748],[41.43704,52.69433],[41.44023,52.69534],[41.44014,52.69574],[41.44242,52.6962],[41.44263,52.69591],[41.44414,52.6963],[41.44625,52.69616],[41.44718,52.69544],[41.44667,52.69536],[41.4476,52.69326],[41.44694,52.69268],[41.44655,52.6909],[41.44704,52.68967],[41.44659,52.68826],[41.44773,52.68837],[41.44745,52.68443],[41.44794,52.68325],[41.45076,52.67935],[41.45157,52.67711],[41.45151,52.67493],[41.4507,52.67267],[41.4521,52.67258],[41.45245,52.67209],[41.45458,52.67275],[41.45641,52.67066],[41.46092,52.67232],[41.45932,52.67384],[41.45782,52.67392],[41.4579,52.67455],[41.45752,52.67494],[41.45645,52.67498],[41.45895,52.67589],[41.46022,52.67548],[41.46074,52.67466],[41.46111,52.67455],[41.46125,52.67426],[41.45998,52.67389],[41.46041,52.67339],[41.46092,52.67356],[41.46179,52.67263],[41.46358,52.67328],[41.4638,52.67297],[41.48126,52.67666],[41.47787,52.68019],[41.47494,52.68395],[41.4754,52.68419],[41.47615,52.68366],[41.47909,52.68299],[41.47982,52.68314],[41.48248,52.68273],[41.47863,52.69461],[41.47992,52.69455],[41.48084,52.69492],[41.48894,52.69432],[41.48918,52.69379],[41.49314,52.6947],[41.49448,52.69341],[41.49744,52.69301],[41.49769,52.69428],[41.50231,52.69669],[41.50427,52.69844],[41.50523,52.69982],[41.50659,52.70066],[41.50821,52.70124],[41.51067,52.70293],[41.5107,52.70324],[41.5119,52.70348],[41.51193,52.70387],[41.51333,52.70416],[41.51359,52.70902],[41.52878,52.71],[41.51785,52.71356],[41.51376,52.71449],[41.51506,52.71617],[41.5144,52.71733],[41.51425,52.71958],[41.51399,52.72005],[41.51316,52.72023],[41.51404,52.72317],[41.51523,52.72338],[41.5149,52.72385],[41.51565,52.72391],[41.51553,52.72425],[41.5151,52.72478],[41.51395,52.72483],[41.51207,52.72633],[41.51028,52.72631],[41.51035,52.72669],[41.51003,52.72673],[41.50929,52.72642],[41.50825,52.72791],[41.50618,52.7278],[41.50488,52.72811],[41.50389,52.72881],[41.50444,52.73051],[41.5036,52.7315],[41.50451,52.73175],[41.50506,52.73251],[41.50451,52.73368],[41.50504,52.73385],[41.50496,52.73433],[41.50591,52.73478],[41.50596,52.73573],[41.50558,52.73606],[41.50448,52.73603],[41.50331,52.73649],[41.5002,52.7368],[41.50023,52.73795],[41.50074,52.7387],[41.50184,52.73948],[41.50572,52.73982],[41.50713,52.74168],[41.5074,52.74387],[41.50698,52.74504],[41.50649,52.74558],[41.50589,52.74876],[41.50271,52.75245],[41.50266,52.7546],[41.49997,52.75853],[41.49866,52.75946],[41.49785,52.75957],[41.49517,52.75838],[41.49454,52.75863],[41.49407,52.75944],[41.493,52.76365],[41.49202,52.76359],[41.49146,52.76415],[41.49059,52.76443],[41.48978,52.76421],[41.48561,52.76415],[41.48281,52.76281],[41.48357,52.76048],[41.48339,52.76045],[41.48396,52.75753],[41.48295,52.75729],[41.48255,52.75759],[41.47993,52.75728],[41.47544,52.7577],[41.47463,52.75826],[41.47425,52.75896],[41.47387,52.75905],[41.47417,52.75916],[41.47418,52.75954],[41.47482,52.75965],[41.4756,52.76148],[41.47432,52.76174],[41.47401,52.76129],[41.47435,52.76121],[41.47422,52.76096],[41.4727,52.76117],[41.47178,52.75982],[41.47069,52.76015],[41.47011,52.75949],[41.46764,52.76049],[41.46617,52.76079],[41.46594,52.75892],[41.46088,52.75878],[41.45834,52.75886],[41.45756,52.75899],[41.45758,52.75919],[41.45316,52.75929],[41.45243,52.75922],[41.45246,52.75897],[41.449,52.75898],[41.44889,52.75875],[41.44742,52.75868],[41.44678,52.7584],[41.4443,52.76122],[41.44206,52.76569],[41.44195,52.76646],[41.45127,52.76806],[41.45139,52.76938],[41.45234,52.76937],[41.45292,52.77656],[41.43804,52.77386],[41.43644,52.77698],[41.4365,52.77762],[41.43177,52.78716],[41.4318,52.78773],[41.43145,52.78832],[41.43065,52.78833],[41.42125,52.78551],[41.42166,52.78493],[41.40206,52.77937],[41.39441,52.78548],[41.39247,52.78642],[41.38966,52.78724],[41.38641,52.78573],[41.3868,52.78546],[41.3849,52.78486],[41.38383,52.78507],[41.37776,52.78759],[41.37691,52.78749],[41.37617,52.78808],[41.376,52.78859],[41.3757,52.79169],[41.36351,52.79087],[41.38385,52.77501],[41.3609,52.76856],[41.36226,52.76576],[41.35929,52.76531],[41.36249,52.75226],[41.36451,52.74561],[41.36478,52.74368],[41.36436,52.7387],[41.36437,52.73062],[41.36576,52.72337],[41.368,52.71659],[41.35648,52.71392],[41.3534,52.71417],[41.35132,52.71244],[41.34666,52.7115],[41.34327,52.71027],[41.34299,52.70984],[41.34145,52.70957],[41.33569,52.71083],[41.33217,52.71043],[41.32642,52.71123],[41.32575,52.71081]]]}}]}