{"type":"FeatureCollection","features":[{"type":"Feature","properties":{"name":"Бахчисарай","osm":"relation/4655546","licence":"Data © OpenStreetMap contributors, ODbL 1.0. http://osm.org/copyright"},"geometry":{"type":"Polygon","coordinates":[[[33.81896,44.73607],[33.81999,44.73499],[33.82342,44.7369],[33.82764,44.73308],[33.82337,44.73059],[33.82002,44.72828],[33.8201,44.72728],[33.82067,44.72686],[33.8213,44.72737],[33.823,44.72644],[33.82356,44.72713],[33.82406,44.7274],[33.82619,44.72639],[33.82596,44.72555],[33.82434,44.72348],[33.82396,44.72282],[33.82225,44.72161],[33.82527,44.72047],[33.82626,44.722],[33.82788,44.72542],[33.83027,44.7238],[33.83196,44.72328],[33.83577,44.72328],[33.83624,44.7243],[33.83722,44.72506],[33.83919,44.72493],[33.84144,44.72614],[33.84133,44.72696],[33.8421,44.72719],[33.84386,44.72857],[33.84682,44.72851],[33.84771,44.73538],[33.84855,44.73604],[33.84953,44.73681],[33.85382,44.7365],[33.85391,44.73738],[33.85475,44.73744],[33.85496,44.73684],[33.86113,44.7367],[33.86211,44.73721],[33.86288,44.73719],[33.86194,44.73574],[33.86107,44.73428],[33.85932,44.73028],[33.85931,44.72926],[33.86089,44.72652],[33.86542,44.72215],[33.86648,44.72028],[33.86568,44.71842],[33.86456,44.71741],[33.86323,44.71649],[33.8625,44.71523],[33.8649,44.71437],[33.86575,44.71526],[33.8703,44.71375],[33.87355,44.71238],[33.87528,44.71194],[33.87945,44.71175],[33.88068,44.71132],[33.8842,44.7111],[33.88675,44.71143],[33.88752,44.71278],[33.8866,44.71419],[33.88412,44.71505],[33.88552,44.71629],[33.88811,44.71415],[33.89017,44.71179],[33.8862,44.70934],[33.88466,44.70877],[33.8819,44.70929],[33.88076,44.70852],[33.88002,44.70768],[33.88067,44.70551],[33.87937,44.70386],[33.87877,44.70309],[33.87867,44.70296],[33.87861,44.70288],[33.8769,44.7007],[33.88109,44.69587],[33.88522,44.69297],[33.89071,44.69266],[33.89538,44.69314],[33.89719,44.69385],[33.90116,44.69439],[33.90249,44.69454],[33.90427,44.69535],[33.9067,44.6957],[33.9101,44.69867],[33.91409,44.69846],[33.91544,44.70055],[33.91567,44.70182],[33.91748,44.70252],[33.91948,44.70226],[33.92077,44.70263],[33.92263,44.70208],[33.92405,44.70296],[33.92612,44.70985],[33.92674,44.71136],[33.93028,44.70887],[33.9308,44.70983],[33.9325,44.70976],[33.93382,44.71039],[33.93426,44.71131],[33.93591,44.71262],[33.93652,44.71412],[33.93805,44.71468],[33.93771,44.71548],[33.93674,44.7155],[33.93646,44.71563],[33.93647,44.71601],[33.93609,44.71605],[33.93625,44.71662],[33.93767,44.71657],[33.93793,44.71809],[33.93749,44.71834],[33.93715,44.71898],[33.93932,44.71895],[33.94059,44.71815],[33.9421,44.71809],[33.94363,44.7173],[33.94618,44.71798],[33.94675,44.71728],[33.94748,44.71726],[33.94766,44.71744],[33.95102,44.7174],[33.95222,44.71634],[33.95359,44.71645],[33.95377,44.71805],[33.95428,44.71805],[33.95479,44.71972],[33.95331,44.72284],[33.95466,44.72556],[33.95381,44.73],[33.95398,44.7327],[33.95325,44.73568],[33.95494,44.73718],[33.95349,44.73933],[33.95184,44.73886],[33.92707,44.74031],[33.92773,44.74208],[33.92806,44.74418],[33.9296,44.74675],[33.92706,44.74869],[33.9254,44.74872],[33.92401,44.74818],[33.91934,44.74948],[33.91916,44.75012],[33.91524,44.75074],[33.91964,44.75263],[33.92129,44.75255],[33.92312,44.75256],[33.92391,44.75508],[33.92009,44.75484],[33.91833,44.7547],[33.91577,44.75423],[33.91481,44.75292],[33.9117,44.75175],[33.91083,44.75189],[33.90994,44.74967],[33.90778,44.74914],[33.90592,44.74961],[33.90583,44.74963],[33.90404,44.74847],[33.90347,44.7481],[33.90253,44.74874],[33.90151,44.74809],[33.89894,44.7472],[33.89716,44.74766],[33.89911,44.74834],[33.8999,44.74998],[33.90103,44.7505],[33.90096,44.75105],[33.90478,44.75239],[33.90382,44.75271],[33.90415,44.75333],[33.9047,44.75368],[33.90468,44.75392],[33.90913,44.75583],[33.90923,44.76017],[33.90728,44.76099],[33.90374,44.76354],[33.9068,44.76202],[33.90816,44.76196],[33.90804,44.7626],[33.90639,44.76364],[33.90602,44.76437],[33.90263,44.76615],[33.89722,44.77012],[33.89315,44.77181],[33.89537,44.77404],[33.89386,44.77473],[33.89295,44.77485],[33.88583,44.7806],[33.87276,44.76635],[33.8668,44.77052],[33.87124,44.77367],[33.86955,44.77472],[33.87656,44.78021],[33.87848,44.78198],[33.87863,44.78312],[33.88112,44.78569],[33.87726,44.78398],[33.86884,44.77845],[33.86228,44.77599],[33.86102,44.77523],[33.86036,44.77588],[33.85957,44.7757],[33.85914,44.77691],[33.85829,44.77811],[33.85698,44.77819],[33.85563,44.77746],[33.85455,44.77756],[33.85392,44.77752],[33.85226,44.77715],[33.85075,44.77832],[33.84949,44.77818],[33.84817,44.77955],[33.84588,44.77985],[33.83693,44.77159],[33.83681,44.77053],[33.83945,44.76701],[33.843,44.76352],[33.84659,44.76519],[33.84806,44.76551],[33.84854,44.76571],[33.85031,44.76446],[33.84542,44.76195],[33.84465,44.76156],[33.83772,44.75946],[33.83819,44.75873],[33.83935,44.75828],[33.83867,44.7562],[33.84029,44.75636],[33.84018,44.75435],[33.83872,44.75437],[33.83788,44.75422],[33.83624,44.7534],[33.83339,44.75086],[33.83034,44.74731],[33.82902,44.74488],[33.82918,44.74323],[33.82861,44.74286],[33.82636,44.74209],[33.82352,44.73994],[33.82295,44.73896],[33.82219,44.73811],[33.8214,44.73745],[33.81896,44.73607]]]}}]}