{"type":"FeatureCollection","features":[{"type":"Feature","properties":{"name":"Голубинка","osm":"relation/4656110","licence":"Data © OpenStreetMap contributors, ODbL 1.0. http://osm.org/copyright"},"geometry":{"type":"Polygon","coordinates":[[[33.83373,44.54168],[33.83867,44.53973],[33.83946,44.53847],[33.84057,44.53495],[33.84015,44.53043],[33.84041,44.53011],[33.8495,44.53062],[33.85208,44.52948],[33.85727,44.52588],[33.84558,44.51967],[33.84566,44.51912],[33.84857,44.51816],[33.85315,44.5154],[33.86036,44.50676],[33.86255,44.50675],[33.86779,44.50776],[33.86891,44.5074],[33.87076,44.50541],[33.86858,44.50401],[33.86735,44.50254],[33.86725,44.50035],[33.86852,44.49796],[33.87363,44.49269],[33.88691,44.48221],[33.88852,44.48139],[33.89496,44.48006],[33.89715,44.47879],[33.89733,44.47731],[33.89422,44.47479],[33.89349,44.47323],[33.89559,44.47142],[33.89722,44.46922],[33.8979,44.467],[33.89993,44.46311],[33.90778,44.45134],[33.91219,44.44331],[33.91366,44.44143],[33.91479,44.43887],[33.924,44.42385],[33.9262,44.42133],[33.93572,44.42315],[33.93843,44.42426],[33.94554,44.42617],[33.9494,44.42861],[33.9513,44.4314],[33.9524,44.43232],[33.96936,44.43548],[33.97632,44.43824],[33.97984,44.44016],[33.99524,44.45355],[33.99882,44.45598],[33.99896,44.45964],[34.00062,44.46169],[34.00238,44.46565],[34.0032,44.47315],[34.00508,44.4739],[34.00964,44.47389],[34.0172,44.47509],[34.02958,44.47386],[34.03197,44.4738],[34.03275,44.47413],[34.03498,44.47597],[34.03551,44.47782],[34.03525,44.48029],[34.03621,44.4855],[34.03682,44.48685],[34.03961,44.49004],[34.04135,44.49088],[34.04311,44.49112],[34.04473,44.49213],[34.04359,44.49532],[34.04373,44.49671],[34.04743,44.49809],[34.0492,44.49943],[34.04265,44.50277],[34.04438,44.50301],[34.04231,44.50484],[34.03773,44.50478],[34.02785,44.508],[34.02568,44.50805],[34.02391,44.50882],[34.02249,44.51009],[34.02271,44.51185],[34.02324,44.51234],[34.02269,44.51278],[34.02315,44.51454],[34.0228,44.516],[34.02381,44.51798],[34.02285,44.51852],[34.02089,44.51867],[34.01882,44.51756],[34.00339,44.5171],[34.00101,44.52064],[34.00071,44.52218],[34.004,44.52298],[34.00829,44.52574],[34.01526,44.52804],[34.01736,44.52778],[34.01835,44.5288],[34.01941,44.52918],[34.02156,44.52866],[34.02276,44.52963],[34.02456,44.53],[34.02636,44.5314],[34.02969,44.53851],[34.01964,44.54375],[34.01919,44.54514],[34.01943,44.54769],[34.01488,44.5508],[34.01486,44.55145],[34.0136,44.55305],[34.0138,44.55542],[34.01125,44.55836],[34.01008,44.56646],[34.00708,44.56792],[34.00524,44.56806],[34.0044,44.56919],[34.00311,44.56986],[33.99597,44.56748],[33.99093,44.5686],[33.98921,44.56749],[33.98627,44.56801],[33.98045,44.56768],[33.97991,44.56848],[33.98084,44.57033],[33.97891,44.57036],[33.97723,44.56868],[33.97592,44.56931],[33.97454,44.56923],[33.9739,44.57034],[33.9704,44.57012],[33.96831,44.57286],[33.96737,44.57245],[33.96615,44.57346],[33.96404,44.57281],[33.96316,44.5748],[33.9558,44.57452],[33.95597,44.57236],[33.95472,44.57184],[33.95437,44.5726],[33.95323,44.57259],[33.95099,44.57336],[33.9487,44.57281],[33.94786,44.57403],[33.94931,44.57448],[33.95406,44.57391],[33.95191,44.57581],[33.94835,44.57735],[33.94607,44.57704],[33.94467,44.57911],[33.93965,44.57765],[33.93851,44.57974],[33.93932,44.57992],[33.93983,44.581],[33.94208,44.58278],[33.94573,44.58313],[33.94691,44.58371],[33.94913,44.58369],[33.95456,44.5851],[33.95522,44.58559],[33.95515,44.58659],[33.95418,44.58724],[33.95429,44.58777],[33.95373,44.58848],[33.95432,44.58901],[33.95462,44.59017],[33.95433,44.59077],[33.95467,44.59104],[33.95363,44.59273],[33.95538,44.59278],[33.95707,44.59231],[33.95839,44.59266],[33.95761,44.59346],[33.95822,44.59499],[33.95889,44.59514],[33.95804,44.59579],[33.95832,44.59924],[33.95875,44.59963],[33.9612,44.59988],[33.962,44.598],[33.96261,44.59768],[33.9667,44.59851],[33.96695,44.59904],[33.9666,44.59953],[33.9662,44.60384],[33.96489,44.60393],[33.96463,44.60475],[33.96527,44.60546],[33.96501,44.60645],[33.96638,44.60648],[33.96703,44.60596],[33.96758,44.60637],[33.9694,44.60527],[33.97908,44.60618],[33.98125,44.6079],[33.98177,44.61055],[33.9783,44.61118],[33.97843,44.61329],[33.97395,44.61592],[33.96944,44.61635],[33.96805,44.61722],[33.96426,44.61323],[33.95963,44.61566],[33.95901,44.61805],[33.95603,44.62002],[33.9538,44.61887],[33.95013,44.62019],[33.94847,44.61997],[33.94777,44.6193],[33.94549,44.62029],[33.94302,44.61805],[33.94151,44.61823],[33.9394,44.61762],[33.9388,44.61697],[33.93469,44.61748],[33.9329,44.61817],[33.93248,44.61692],[33.93074,44.61766],[33.92587,44.61591],[33.92447,44.61577],[33.91879,44.61661],[33.91376,44.61546],[33.9138,44.6145],[33.90693,44.61346],[33.90779,44.61207],[33.90348,44.61093],[33.90356,44.61034],[33.90201,44.61041],[33.90148,44.60958],[33.9011,44.61103],[33.90045,44.61035],[33.89622,44.6114],[33.8963,44.60972],[33.89523,44.60951],[33.89473,44.61015],[33.89159,44.61026],[33.8908,44.61198],[33.88859,44.61365],[33.8854,44.61289],[33.8853,44.61201],[33.87797,44.60816],[33.87863,44.60714],[33.87752,44.60648],[33.87657,44.60695],[33.87619,44.60634],[33.87766,44.60541],[33.87874,44.60608],[33.87914,44.60274],[33.87972,44.60268],[33.8803,44.60189],[33.8803,44.60011],[33.88181,44.59904],[33.88214,44.59688],[33.88392,44.59454],[33.88292,44.5943],[33.88366,44.59251],[33.88432,44.59241],[33.88436,44.58814],[33.88138,44.58444],[33.8808,44.5821],[33.87653,44.5777],[33.87647,44.57606],[33.87415,44.57506],[33.87387,44.57396],[33.87296,44.57363],[33.86921,44.56964],[33.86874,44.56643],[33.8661,44.56452],[33.86591,44.56256],[33.8678,44.56149],[33.86753,44.56043],[33.86655,44.56006],[33.86711,44.5596],[33.8657,44.55888],[33.86626,44.55812],[33.86508,44.55723],[33.86519,44.5563],[33.86169,44.55669],[33.85574,44.55277],[33.84887,44.55199],[33.84452,44.54913],[33.83951,44.54782],[33.83722,44.54878],[33.83633,44.54621],[33.83382,44.54254],[33.83373,44.54168]]]}}]}