{"type":"FeatureCollection","features":[{"type":"Feature","properties":{"name":"Курган","osm":"relation/4676636","licence":"Data © OpenStreetMap contributors, ODbL 1.0. http://osm.org/copyright"},"geometry":{"type":"Polygon","coordinates":[[[65.11718,55.4484],[65.11735,55.44513],[65.13266,55.44328],[65.13595,55.44259],[65.14013,55.4414],[65.1496,55.43621],[65.15468,55.43443],[65.16804,55.43099],[65.18287,55.42873],[65.18228,55.42687],[65.17513,55.41797],[65.16879,55.41389],[65.17758,55.39654],[65.17119,55.38545],[65.1864,55.38586],[65.1905,55.38655],[65.1712,55.37663],[65.15972,55.3728],[65.15807,55.36856],[65.16142,55.36808],[65.16556,55.3665],[65.16899,55.36558],[65.17556,55.3643],[65.1711,55.35553],[65.17043,55.35482],[65.15872,55.35034],[65.15323,55.34702],[65.15586,55.34123],[65.15533,55.33931],[65.15992,55.33648],[65.144,55.33576],[65.14657,55.33185],[65.16201,55.32527],[65.16977,55.32246],[65.18048,55.3242],[65.19697,55.3291],[65.20901,55.32803],[65.2147,55.34413],[65.21449,55.34686],[65.213,55.35027],[65.22787,55.35026],[65.22806,55.34782],[65.22895,55.34678],[65.22985,55.34448],[65.23966,55.34442],[65.23984,55.34514],[65.24116,55.34542],[65.25637,55.34506],[65.2585,55.34472],[65.25938,55.34188],[65.26127,55.33854],[65.26973,55.32997],[65.27415,55.32122],[65.27408,55.31306],[65.27492,55.31241],[65.27834,55.31108],[65.28073,55.30908],[65.28839,55.30671],[65.29228,55.30522],[65.29746,55.30233],[65.29769,55.29757],[65.29802,55.29596],[65.30192,55.29558],[65.30244,55.29431],[65.30033,55.29389],[65.30128,55.29086],[65.30159,55.29082],[65.30228,55.29193],[65.30714,55.29414],[65.31228,55.29385],[65.31117,55.29704],[65.30825,55.30176],[65.30689,55.30511],[65.30565,55.3093],[65.30478,55.31546],[65.30419,55.31751],[65.30238,55.31965],[65.30088,55.32072],[65.3012,55.32176],[65.30611,55.32255],[65.30707,55.32358],[65.30833,55.32628],[65.3064,55.32641],[65.30663,55.32859],[65.30786,55.32984],[65.3104,55.33168],[65.30938,55.33256],[65.31216,55.33525],[65.30325,55.33968],[65.30258,55.33914],[65.29843,55.34088],[65.29928,55.34146],[65.2977,55.34202],[65.30204,55.34532],[65.30428,55.34643],[65.30599,55.34833],[65.30132,55.35043],[65.30239,55.35105],[65.30521,55.3519],[65.30557,55.35303],[65.30698,55.35392],[65.31025,55.35714],[65.31029,55.35803],[65.30624,55.36139],[65.30778,55.36198],[65.31189,55.36182],[65.31363,55.36277],[65.3175,55.36002],[65.3213,55.35775],[65.32157,55.35785],[65.32177,55.35881],[65.32175,55.36114],[65.32256,55.36201],[65.32575,55.36074],[65.32591,55.36039],[65.32533,55.35962],[65.3262,55.35922],[65.3285,55.36003],[65.33802,55.36111],[65.34219,55.35984],[65.34727,55.35878],[65.34824,55.35735],[65.34813,55.35711],[65.34913,55.35657],[65.35254,55.35639],[65.35536,55.35871],[65.39213,55.38122],[65.39261,55.38178],[65.39215,55.38188],[65.39251,55.38287],[65.4276,55.38047],[65.42931,55.38667],[65.42972,55.38953],[65.42861,55.39039],[65.43007,55.39188],[65.43457,55.39375],[65.43693,55.39456],[65.44119,55.3935],[65.45242,55.39883],[65.45179,55.39933],[65.45599,55.40079],[65.46449,55.40148],[65.46905,55.40161],[65.46919,55.40134],[65.47381,55.4029],[65.48057,55.40648],[65.48275,55.40725],[65.50461,55.41],[65.50817,55.41022],[65.51229,55.40992],[65.52319,55.40839],[65.52314,55.40812],[65.526,55.4071],[65.53185,55.40619],[65.53165,55.40554],[65.53442,55.40509],[65.53494,55.40419],[65.53471,55.39944],[65.52965,55.39725],[65.52089,55.39463],[65.51968,55.39082],[65.5243,55.38929],[65.52889,55.38533],[65.53315,55.38117],[65.55066,55.38587],[65.57089,55.38824],[65.57268,55.38859],[65.57075,55.39177],[65.57119,55.39186],[65.5702,55.39398],[65.57041,55.39452],[65.57132,55.39535],[65.57262,55.396],[65.57853,55.39844],[65.58001,55.39974],[65.58033,55.40063],[65.58038,55.40154],[65.5798,55.40359],[65.57891,55.40468],[65.5755,55.40617],[65.58374,55.40873],[65.59593,55.41184],[65.60678,55.41455],[65.60693,55.41434],[65.61031,55.41496],[65.60936,55.41662],[65.61785,55.4242],[65.61987,55.4277],[65.62524,55.42874],[65.62864,55.42984],[65.64319,55.429],[65.66518,55.42929],[65.66671,55.42826],[65.66994,55.4299],[65.58089,55.45332],[65.57658,55.45378],[65.50972,55.45765],[65.50697,55.45796],[65.49976,55.45959],[65.4602,55.47329],[65.45189,55.47632],[65.44663,55.47867],[65.43906,55.48377],[65.44103,55.48454],[65.44469,55.48342],[65.44573,55.48338],[65.44674,55.48369],[65.44719,55.48475],[65.44585,55.48662],[65.44572,55.48771],[65.44618,55.48852],[65.44673,55.48874],[65.44801,55.4888],[65.44914,55.48834],[65.45261,55.48579],[65.45429,55.48576],[65.45504,55.48635],[65.45519,55.48695],[65.45498,55.48904],[65.45413,55.48959],[65.45135,55.49014],[65.45044,55.49071],[65.45048,55.49158],[65.45216,55.49239],[65.44069,55.49653],[65.43863,55.49493],[65.43458,55.49681],[65.43212,55.49756],[65.42701,55.49787],[65.42414,55.49734],[65.4214,55.49623],[65.41747,55.49413],[65.41396,55.49311],[65.4099,55.49255],[65.40549,55.4928],[65.40143,55.49366],[65.39073,55.49729],[65.39003,55.49808],[65.39018,55.4988],[65.3897,55.49893],[65.38865,55.49839],[65.38769,55.49836],[65.35332,55.5085],[65.35307,55.50869],[65.36888,55.51218],[65.37297,55.51597],[65.36832,55.52967],[65.36249,55.53188],[65.33207,55.53222],[65.31202,55.53344],[65.31221,55.52371],[65.31284,55.5207],[65.31189,55.51713],[65.30546,55.51685],[65.30036,55.51625],[65.29228,55.51461],[65.25349,55.50251],[65.25242,55.50238],[65.25091,55.50294],[65.25044,55.50278],[65.25067,55.50207],[65.24988,55.50139],[65.24482,55.49979],[65.24262,55.49948],[65.23813,55.49951],[65.23282,55.50024],[65.23128,55.5002],[65.23042,55.49868],[65.20352,55.49658],[65.1992,55.49969],[65.19529,55.4982],[65.1993,55.49622],[65.19656,55.4963],[65.18512,55.49529],[65.15027,55.49461],[65.12763,55.48256],[65.13074,55.47241],[65.12082,55.47168],[65.13612,55.46531],[65.13049,55.46328],[65.13677,55.45747],[65.13692,55.45198],[65.11718,55.4484]]]}}]}