{"type":"FeatureCollection","features":[{"type":"Feature","properties":{"name":"Якутск","osm":"relation/5325621","licence":"Data © OpenStreetMap contributors, ODbL 1.0. http://osm.org/copyright"},"geometry":{"type":"Polygon","coordinates":[[[129.52362,61.92546],[129.54235,61.92162],[129.54299,61.92094],[129.54181,61.91883],[129.53224,61.91219],[129.53306,61.91094],[129.52859,61.90799],[129.52919,61.90772],[129.54095,61.91243],[129.54177,61.9133],[129.57185,61.92366],[129.58507,61.92906],[129.58902,61.92999],[129.59867,61.93598],[129.60194,61.93633],[129.61292,61.94206],[129.64337,61.95529],[129.64595,61.95503],[129.65562,61.95746],[129.66118,61.95843],[129.66513,61.95727],[129.66672,61.95819],[129.66732,61.95791],[129.6706,61.95949],[129.67146,61.9605],[129.67065,61.96061],[129.67174,61.9632],[129.67421,61.96679],[129.67451,61.96873],[129.67401,61.96978],[129.67393,61.97157],[129.67462,61.97303],[129.67593,61.97444],[129.67759,61.97522],[129.6818,61.97604],[129.68081,61.97667],[129.67958,61.97662],[129.67761,61.97725],[129.67644,61.97863],[129.68144,61.97996],[129.68723,61.98218],[129.70857,61.99451],[129.7094,61.9939],[129.71237,61.99341],[129.70916,61.98976],[129.70738,61.98543],[129.70762,61.98219],[129.71109,61.97993],[129.71283,61.98146],[129.71721,61.98345],[129.73364,61.9895],[129.76446,61.99851],[129.77235,62.00127],[129.77643,62.00495],[129.77931,62.00997],[129.7772,62.01557],[129.77707,62.01742],[129.77896,62.01899],[129.78321,62.02038],[129.79372,62.02135],[129.79617,62.02235],[129.79909,62.02443],[129.80124,62.02843],[129.80643,62.03039],[129.81038,62.03322],[129.80965,62.03612],[129.81214,62.04483],[129.81162,62.04946],[129.81046,62.05189],[129.81256,62.05537],[129.81441,62.05718],[129.82205,62.0602],[129.82265,62.06408],[129.82141,62.06794],[129.81244,62.07699],[129.81252,62.07797],[129.81201,62.07893],[129.81235,62.07944],[129.81188,62.0806],[129.81192,62.08287],[129.81042,62.08321],[129.81033,62.08631],[129.80965,62.08824],[129.81222,62.09237],[129.81231,62.09619],[129.81342,62.09663],[129.81306,62.09755],[129.81235,62.09783],[129.81224,62.09912],[129.81042,62.10144],[129.81231,62.10601],[129.81435,62.10848],[129.82076,62.11113],[129.83471,62.11301],[129.83731,62.11372],[129.84692,62.1177],[129.85224,62.12195],[129.85447,62.12493],[129.8546,62.12826],[129.84132,62.12867],[129.84179,62.1342],[129.84085,62.13461],[129.84029,62.13434],[129.83276,62.13489],[129.82574,62.13245],[129.82553,62.12963],[129.8234,62.12734],[129.82186,62.12736],[129.82149,62.12801],[129.82209,62.1294],[129.82456,62.13229],[129.8246,62.13307],[129.82196,62.13398],[129.81977,62.13391],[129.81947,62.13437],[129.81664,62.13495],[129.79692,62.13248],[129.79634,62.1328],[129.79695,62.13311],[129.79614,62.13421],[129.79567,62.13359],[129.79581,62.13306],[129.79504,62.13292],[129.7919,62.13373],[129.79162,62.13323],[129.79056,62.13303],[129.78854,62.13424],[129.78746,62.1359],[129.788,62.13655],[129.78761,62.13721],[129.78864,62.13774],[129.78677,62.13768],[129.78683,62.13801],[129.7853,62.13831],[129.78494,62.13882],[129.78373,62.13911],[129.78429,62.13948],[129.78407,62.13978],[129.78277,62.13887],[129.78277,62.13827],[129.78147,62.13771],[129.7812,62.13684],[129.77936,62.13669],[129.77804,62.13588],[129.77513,62.13587],[129.77626,62.14782],[129.77712,62.15179],[129.77836,62.15426],[129.78064,62.15708],[129.79759,62.17035],[129.7987,62.17223],[129.79883,62.17436],[129.79506,62.17442],[129.79364,62.17764],[129.78776,62.17748],[129.78016,62.18149],[129.77849,62.18207],[129.7742,62.18253],[129.77214,62.18331],[129.76922,62.18547],[129.76283,62.18437],[129.75629,62.18438],[129.74296,62.18303],[129.73892,62.17628],[129.74315,62.17374],[129.74787,62.17358],[129.74813,62.17335],[129.74738,62.16994],[129.74085,62.16813],[129.73008,62.1628],[129.72961,62.1621],[129.72756,62.16131],[129.72691,62.16061],[129.7256,62.16033],[129.72319,62.1583],[129.72394,62.15334],[129.72598,62.15103],[129.72678,62.14946],[129.72444,62.14658],[129.72358,62.14285],[129.72437,62.13608],[129.72418,62.1311],[129.72181,62.12775],[129.71781,62.12471],[129.71478,62.12425],[129.71338,62.12525],[129.71141,62.12539],[129.71071,62.12605],[129.70771,62.12616],[129.70641,62.12579],[129.6929,62.12915],[129.68762,62.12556],[129.69296,62.12377],[129.69895,62.12327],[129.70427,62.12231],[129.71068,62.11971],[129.71555,62.11701],[129.71671,62.1156],[129.71592,62.11085],[129.71684,62.11076],[129.71589,62.11061],[129.71386,62.10508],[129.70798,62.09812],[129.70326,62.09539],[129.70118,62.09177],[129.69927,62.09052],[129.69847,62.08924],[129.69659,62.08782],[129.69581,62.08783],[129.69635,62.0876],[129.69187,62.08371],[129.68534,62.07948],[129.68528,62.07809],[129.68024,62.0737],[129.67873,62.07314],[129.67635,62.07145],[129.67467,62.07089],[129.67376,62.06949],[129.66791,62.0662],[129.66542,62.06381],[129.66193,62.06205],[129.656,62.06001],[129.65618,62.05978],[129.65336,62.05838],[129.64879,62.0569],[129.64638,62.05557],[129.63256,62.05003],[129.6324,62.05197],[129.62591,62.05151],[129.62762,62.04914],[129.63019,62.04799],[129.62877,62.04694],[129.62866,62.04628],[129.62677,62.04621],[129.62555,62.04504],[129.62236,62.04469],[129.62211,62.04435],[129.62287,62.04398],[129.61878,62.04164],[129.61106,62.03626],[129.58192,62.04328],[129.56313,62.02794],[129.59953,62.01287],[129.59833,62.00082],[129.59975,61.99766],[129.60552,61.98876],[129.6061,61.982],[129.60528,61.98196],[129.60597,61.98009],[129.60537,61.97686],[129.60335,61.97348],[129.60228,61.97367],[129.60142,61.97299],[129.60222,61.97275],[129.59761,61.96892],[129.59787,61.96812],[129.59391,61.96259],[129.59373,61.96004],[129.58346,61.95483],[129.5772,61.95277],[129.57941,61.95124],[129.57739,61.94933],[129.5764,61.94954],[129.57254,61.94585],[129.56984,61.94709],[129.56803,61.94724],[129.56527,61.94464],[129.56288,61.94063],[129.55044,61.92962],[129.5458,61.92922],[129.54306,61.92978],[129.53834,61.92916],[129.53263,61.92962],[129.52911,61.92936],[129.52362,61.92546]]]}}]}