{"type":"FeatureCollection","features":[{"type":"Feature","properties":{"name":"Вилюйск","osm":"relation/5387995","licence":"Data © OpenStreetMap contributors, ODbL 1.0. http://osm.org/copyright"},"geometry":{"type":"Polygon","coordinates":[[[121.32269,63.77203],[121.32362,63.77075],[121.32861,63.76839],[121.33372,63.76808],[121.3494,63.76438],[121.35601,63.7592],[121.35532,63.75699],[121.34963,63.75627],[121.34951,63.75519],[121.35416,63.75309],[121.36124,63.75278],[121.37482,63.75114],[121.38887,63.7458],[121.39468,63.74539],[121.40037,63.74436],[121.40791,63.74497],[121.41383,63.74456],[121.42475,63.74518],[121.43137,63.74456],[121.43852,63.74478],[121.44017,63.74355],[121.44854,63.74449],[121.46151,63.74434],[121.47842,63.74558],[121.47005,63.72371],[121.46184,63.69614],[121.47481,63.69425],[121.48926,63.69331],[121.49829,63.6936],[121.50453,63.6928],[121.51291,63.69265],[121.52292,63.69411],[121.53162,63.69323],[121.56561,63.69222],[121.57694,63.69229],[121.71027,63.65347],[121.7136,63.65377],[121.71523,63.65511],[121.71639,63.65748],[121.71441,63.65959],[121.71975,63.66191],[121.71836,63.66515],[121.72184,63.66634],[121.72231,63.6683],[121.72637,63.6702],[121.73148,63.67108],[121.73276,63.67345],[121.73531,63.67463],[121.73636,63.67623],[121.7338,63.67756],[121.73264,63.67993],[121.7338,63.68215],[121.73322,63.68601],[121.75331,63.69553],[121.75726,63.7],[121.7614,63.70053],[121.76403,63.70206],[121.76436,63.70395],[121.76633,63.70627],[121.76551,63.70882],[121.90305,63.73655],[121.91838,63.73957],[121.9187,63.74146],[121.92133,63.74364],[121.92002,63.74618],[121.92133,63.75133],[121.92429,63.75642],[121.92265,63.75751],[121.91903,63.75772],[121.90836,63.76223],[121.90114,63.7631],[121.90163,63.76549],[121.89818,63.76658],[121.88882,63.76622],[121.88652,63.76752],[121.88882,63.76999],[121.88307,63.77572],[121.87782,63.77855],[121.87273,63.77928],[121.86386,63.77906],[121.84022,63.78327],[121.83463,63.7861],[121.82462,63.78893],[121.81592,63.78958],[121.80771,63.78827],[121.80065,63.78864],[121.79473,63.79147],[121.79227,63.79386],[121.79326,63.79669],[121.7926,63.79944],[121.78899,63.80372],[121.77437,63.81155],[121.77257,63.81415],[121.76616,63.81647],[121.76084,63.82126],[121.75242,63.81917],[121.74487,63.81825],[121.73535,63.81835],[121.72571,63.81692],[121.71468,63.81349],[121.70946,63.81082],[121.69572,63.80081],[121.67389,63.78553],[121.65206,63.77394],[121.63465,63.76891],[121.6228,63.76624],[121.6164,63.76549],[121.60689,63.76437],[121.6019,63.76378],[121.58565,63.76378],[121.56893,63.76665],[121.56757,63.76659],[121.56385,63.76642],[121.56059,63.76627],[121.55314,63.76593],[121.5419,63.76498],[121.53441,63.76436],[121.52538,63.76472],[121.51749,63.76334],[121.49894,63.76342],[121.46988,63.76799],[121.45543,63.76864],[121.42275,63.76828],[121.4106,63.76944],[121.39369,63.77554],[121.38219,63.77829],[121.3505,63.77953],[121.34649,63.77742],[121.33361,63.77362],[121.33012,63.77372],[121.32513,63.773],[121.32269,63.77203]]]}}]}