{"type":"FeatureCollection","features":[{"type":"Feature","properties":{"name":"Екатеринбург","osm":"relation/6564910","licence":"Data © OpenStreetMap contributors, ODbL 1.0. http://osm.org/copyright"},"geometry":{"type":"Polygon","coordinates":[[[60.00708,56.80588],[60.02378,56.79882],[60.02081,56.80329],[60.02508,56.80635],[60.03393,56.80502],[60.04462,56.80951],[60.05569,56.80505],[60.06327,56.80728],[60.06025,56.81043],[60.06122,56.8143],[60.0708,56.81093],[60.07064,56.80718],[60.07788,56.80335],[60.07318,56.8002],[60.06354,56.80263],[60.06451,56.79621],[60.05412,56.79092],[60.05718,56.7843],[60.06746,56.78335],[60.0715,56.78949],[60.07655,56.78958],[60.08788,56.78082],[60.09634,56.77823],[60.11389,56.77975],[60.11934,56.77486],[60.11679,56.77317],[60.1183,56.77082],[60.16692,56.74991],[60.16939,56.74401],[60.16635,56.74238],[60.18144,56.73095],[60.18747,56.73298],[60.2047,56.72635],[60.23542,56.72195],[60.25546,56.71492],[60.25339,56.71016],[60.26285,56.70157],[60.26232,56.69631],[60.27097,56.69461],[60.26443,56.68509],[60.28484,56.68318],[60.29355,56.66931],[60.3204,56.66425],[60.32413,56.65555],[60.34243,56.65396],[60.34608,56.65794],[60.35241,56.65611],[60.43336,56.67129],[60.42892,56.66411],[60.43402,56.66253],[60.40851,56.64878],[60.41223,56.64744],[60.40797,56.64332],[60.44886,56.62613],[60.43825,56.61577],[60.49767,56.6031],[60.50001,56.60828],[60.51991,56.61117],[60.52306,56.60701],[60.50838,56.60543],[60.53126,56.60305],[60.54135,56.59374],[60.54347,56.59885],[60.53299,56.60787],[60.53478,56.61274],[60.54194,56.61197],[60.54329,56.61538],[60.55877,56.6137],[60.5559,56.60497],[60.56177,56.60318],[60.58412,56.60787],[60.5766,56.60957],[60.58151,56.62331],[60.64301,56.60657],[60.6525,56.61938],[60.6298,56.62194],[60.62044,56.63112],[60.61417,56.62797],[60.60925,56.63071],[60.61498,56.63415],[60.61972,56.63166],[60.61624,56.63484],[60.62049,56.63707],[60.62292,56.64409],[60.60777,56.6467],[60.60501,56.64279],[60.59913,56.64227],[60.6054,56.63458],[60.59178,56.6332],[60.59208,56.62709],[60.58157,56.62343],[60.58463,56.62742],[60.56786,56.63588],[60.57343,56.64053],[60.56011,56.64367],[60.56738,56.64959],[60.57169,56.64767],[60.57018,56.64565],[60.57748,56.64409],[60.58011,56.64735],[60.59031,56.64577],[60.58977,56.64283],[60.59356,56.64079],[60.59837,56.64398],[60.59446,56.65434],[60.60005,56.64907],[60.608,56.64712],[60.61101,56.6533],[60.6554,56.65128],[60.65695,56.67441],[60.73666,56.69779],[60.73636,56.70011],[60.75277,56.69499],[60.77883,56.69472],[60.77907,56.69963],[60.78397,56.70103],[60.76879,56.70078],[60.76504,56.69479],[60.75205,56.69586],[60.7485,56.70346],[60.73791,56.71202],[60.74464,56.71635],[60.73746,56.72262],[60.73708,56.7274],[60.71943,56.73069],[60.73356,56.7387],[60.74294,56.73291],[60.75085,56.73235],[60.76862,56.74647],[60.77334,56.74525],[60.77245,56.74146],[60.7783,56.73922],[60.77918,56.73387],[60.78517,56.72991],[60.82078,56.7159],[60.84493,56.72112],[60.87356,56.69574],[60.91402,56.71644],[60.89015,56.72523],[60.86557,56.72582],[60.87898,56.73839],[60.88355,56.75343],[60.89719,56.76152],[60.91187,56.76172],[60.92094,56.7652],[60.91481,56.76468],[60.94328,56.8403],[60.77097,56.85787],[60.77157,56.86014],[60.78961,56.86221],[60.79184,56.86596],[60.74183,56.87303],[60.74635,56.88948],[60.7232,56.89201],[60.72358,56.89991],[60.73483,56.90346],[60.7313,56.90518],[60.73552,56.90555],[60.74003,56.91887],[60.73636,56.91932],[60.73948,56.92116],[60.73928,56.92865],[60.72257,56.93471],[60.71636,56.9487],[60.73663,56.9581],[60.75328,56.95701],[60.75205,56.96343],[60.75416,56.96052],[60.75677,56.96224],[60.75771,56.96486],[60.75481,56.96517],[60.75861,56.97561],[60.74384,56.97535],[60.75009,56.9758],[60.74785,56.96999],[60.74178,56.9705],[60.74022,56.9676],[60.73405,56.97012],[60.73645,56.97423],[60.72338,56.97432],[60.72498,56.97922],[60.69132,56.98269],[60.6886,56.97407],[60.66944,56.97578],[60.67167,56.95883],[60.66321,56.95481],[60.66666,56.95348],[60.65674,56.9434],[60.62503,56.94416],[60.61059,56.94105],[60.57763,56.94329],[60.51622,56.93713],[60.51112,56.93945],[60.5046,56.93469],[60.47292,56.92577],[60.48543,56.91874],[60.47818,56.91475],[60.47122,56.91599],[60.47055,56.91911],[60.46722,56.91554],[60.41357,56.91903],[60.40312,56.92692],[60.37185,56.93191],[60.37354,56.94062],[60.35576,56.94252],[60.36092,56.96154],[60.32652,56.9647],[60.31189,56.9073],[60.27949,56.90999],[60.26054,56.85368],[60.26598,56.85442],[60.27109,56.8479],[60.31441,56.84431],[60.32604,56.83539],[60.331,56.83523],[60.31068,56.77193],[60.19218,56.7829],[60.17983,56.77215],[60.17258,56.77226],[60.17272,56.77487],[60.16802,56.77338],[60.16418,56.77616],[60.16554,56.78085],[60.15946,56.7808],[60.16186,56.78246],[60.15817,56.784],[60.15982,56.7885],[60.15421,56.79184],[60.15785,56.79395],[60.15693,56.79771],[60.15207,56.80022],[60.15392,56.80216],[60.14952,56.80197],[60.15389,56.80511],[60.147,56.80564],[60.14291,56.8128],[60.12727,56.81056],[60.13835,56.81423],[60.12841,56.8113],[60.13473,56.81364],[60.11519,56.8157],[60.11125,56.81145],[60.10556,56.81142],[60.10516,56.81501],[60.10926,56.8188],[60.10533,56.82103],[60.08988,56.81705],[60.09097,56.82028],[60.07013,56.82381],[60.06054,56.82082],[60.05342,56.81068],[60.04223,56.81266],[60.02139,56.80991],[60.01406,56.80482],[60.01103,56.80777],[60.00708,56.80588]]]}}]}