{"type":"FeatureCollection","features":[{"type":"Feature","properties":{"name":"Ставрополь","osm":"relation/6712557","licence":"Data © OpenStreetMap contributors, ODbL 1.0. http://osm.org/copyright"},"geometry":{"type":"Polygon","coordinates":[[[41.84783,44.95518],[41.85842,44.95288],[41.86732,44.94888],[41.86825,44.94949],[41.86826,44.95358],[41.86341,44.95638],[41.86342,44.96349],[41.87473,44.97099],[41.88023,44.97615],[41.89638,44.97885],[41.88998,44.97565],[41.90797,44.97038],[41.91665,44.96899],[41.91687,44.96958],[41.91519,44.96985],[41.91696,44.97292],[41.91262,44.97309],[41.8961,44.97779],[41.89514,44.97813],[41.8975,44.97953],[41.90982,44.97816],[41.91038,44.9767],[41.91496,44.9737],[41.91499,44.97433],[41.91835,44.97376],[41.91954,44.98085],[41.92396,44.98107],[41.93069,44.97828],[41.92875,44.97558],[41.93082,44.9748],[41.93237,44.97536],[41.93149,44.97873],[41.93388,44.97722],[41.93522,44.97734],[41.93411,44.97902],[41.94126,44.97986],[41.93879,44.97383],[41.94567,44.97515],[41.94493,44.97678],[41.94546,44.97914],[41.9472,44.97864],[41.94672,44.97776],[41.94766,44.97738],[41.94817,44.97818],[41.9506,44.97703],[41.95264,44.97759],[41.95275,44.97634],[41.94694,44.97178],[41.94994,44.97003],[41.95386,44.97346],[41.95412,44.97653],[41.9577,44.97729],[41.96034,44.97265],[41.96462,44.97042],[41.96561,44.97147],[41.96249,44.97347],[41.96341,44.97538],[41.97047,44.97376],[41.97283,44.97489],[41.97527,44.97464],[41.97645,44.97652],[41.96312,44.9811],[41.965,44.98219],[41.9675,44.98675],[41.96707,44.98723],[41.98009,44.98548],[41.9811,44.98792],[41.9831,44.98796],[41.98619,44.98957],[41.98409,44.99066],[41.98458,44.99212],[41.99076,44.99053],[41.98898,44.98363],[41.99499,44.98178],[41.98069,44.98501],[41.97152,44.98599],[41.97066,44.98429],[41.96913,44.98383],[41.98744,44.98078],[41.98428,44.97403],[41.99559,44.97053],[41.99596,44.9714],[41.99781,44.97078],[41.99798,44.96973],[42.01418,44.96447],[42.01904,44.97338],[41.99899,44.97838],[42.00003,44.98019],[41.99953,44.98085],[42.00091,44.98211],[42.00619,44.99357],[42.01864,44.98946],[42.02001,44.99199],[42.01613,44.99309],[42.01791,44.99556],[42.01112,44.99713],[42.00812,44.99391],[42.0066,44.99371],[42.01096,44.99907],[42.01551,45.00043],[42.02046,44.99872],[42.0205,45.00072],[42.02353,45.00166],[42.02402,44.99985],[42.02946,44.99333],[42.05823,44.9727],[42.06099,44.97268],[42.06829,44.97795],[42.05779,44.98584],[42.05172,44.98727],[42.04831,44.98991],[42.0484,44.99193],[42.03974,44.99857],[42.03321,44.99451],[42.03181,44.99466],[42.03028,44.99965],[42.03298,45.00651],[42.03407,45.00674],[42.03574,45.01035],[42.03782,45.01056],[42.03854,45.01215],[42.03759,45.0143],[42.05081,45.02012],[42.05967,45.02649],[42.05941,45.02742],[42.04694,45.02475],[42.04551,45.02709],[42.04907,45.02804],[42.04767,45.02932],[42.05088,45.02996],[42.05206,45.03135],[42.06928,45.03473],[42.07235,45.03768],[42.08266,45.04373],[42.07321,45.04747],[42.07267,45.04852],[42.07029,45.04862],[42.07027,45.04765],[42.06486,45.0483],[42.06449,45.04763],[42.05228,45.0465],[42.05735,45.05662],[42.0634,45.05661],[42.06343,45.05534],[42.0655,45.0556],[42.06546,45.05488],[42.06681,45.05458],[42.06854,45.05453],[42.06839,45.05651],[42.07393,45.05608],[42.07852,45.06603],[42.07466,45.07133],[42.07933,45.07338],[42.08371,45.07398],[42.08424,45.08419],[42.08071,45.08378],[42.07729,45.08548],[42.07624,45.08703],[42.07272,45.08767],[42.07321,45.08875],[42.07645,45.08795],[42.07782,45.0897],[42.08121,45.08941],[42.0834,45.09458],[42.07936,45.09568],[42.06733,45.09658],[42.0618,45.09909],[42.05591,45.10035],[42.05623,45.10111],[42.03905,45.10476],[42.03873,45.10405],[42.03012,45.10677],[42.03079,45.10265],[42.03425,45.09825],[42.05846,45.08792],[42.0559,45.08612],[42.05271,45.08577],[42.0461,45.08684],[42.04117,45.08926],[42.0356,45.09006],[42.03573,45.08666],[42.02431,45.08474],[42.02516,45.08296],[42.01737,45.08217],[42.01693,45.08599],[42.00708,45.08437],[42.00268,45.08464],[42.0025,45.08015],[42.00124,45.07922],[42.00107,45.0757],[41.99781,45.07716],[41.99663,45.07622],[41.99442,45.07627],[41.99353,45.07885],[41.99071,45.08082],[41.97675,45.08075],[41.97548,45.08346],[41.9719,45.08487],[41.97127,45.08747],[41.98377,45.0899],[41.98697,45.09103],[41.98831,45.09263],[41.98754,45.0949],[41.98385,45.0944],[41.98205,45.09536],[41.9849,45.0994],[41.98278,45.10366],[41.98238,45.10655],[41.97185,45.1054],[41.96776,45.11279],[41.96671,45.10997],[41.95636,45.11302],[41.94879,45.10132],[41.94881,45.09928],[41.91961,45.09623],[41.92452,45.09332],[41.92772,45.08784],[41.9273,45.08227],[41.92139,45.07197],[41.9234,45.07096],[41.92004,45.06867],[41.91419,45.06781],[41.91349,45.0661],[41.91414,45.06449],[41.90526,45.06471],[41.90222,45.06272],[41.90181,45.06128],[41.89667,45.05872],[41.89922,45.05704],[41.89715,45.05529],[41.89459,45.04881],[41.89788,45.0442],[41.89893,45.03689],[41.89783,45.02893],[41.88138,45.03172],[41.87779,45.02995],[41.87615,45.03121],[41.87341,45.02988],[41.87682,45.02799],[41.87658,45.02638],[41.87369,45.02735],[41.87161,45.02529],[41.86076,45.02161],[41.8606,45.01968],[41.85814,45.01744],[41.85438,45.0091],[41.8703,45.00971],[41.89421,45.00202],[41.8964,44.99953],[41.8992,44.99826],[41.8994,44.99968],[41.90095,45.00024],[41.90323,44.9997],[41.90809,44.99744],[41.90727,44.99689],[41.91054,44.99519],[41.91412,44.99523],[41.92127,44.99356],[41.92104,44.99295],[41.91173,44.99291],[41.90977,44.98568],[41.89591,44.97911],[41.87967,44.97626],[41.87032,44.96791],[41.86339,44.96394],[41.86286,44.96052],[41.86048,44.96055],[41.85923,44.95812],[41.84783,44.95518]]]}}]}