{"type":"FeatureCollection","features":[{"type":"Feature","properties":{"name":"Томск","osm":"relation/7261645","licence":"Data © OpenStreetMap contributors, ODbL 1.0. http://osm.org/copyright"},"geometry":{"type":"Polygon","coordinates":[[[84.82752,56.54592],[84.83023,56.54439],[84.83976,56.54288],[84.84178,56.542],[84.84219,56.54086],[84.84177,56.54014],[84.83085,56.53608],[84.82981,56.5351],[84.82963,56.53341],[84.83691,56.53121],[84.84084,56.52737],[84.84512,56.52711],[84.84794,56.526],[84.84873,56.52484],[84.84882,56.52081],[84.84986,56.5188],[84.8521,56.51676],[84.85495,56.51594],[84.85968,56.51719],[84.86207,56.51673],[84.86245,56.51499],[84.86121,56.50941],[84.8636,56.50707],[84.87538,56.50447],[84.88237,56.50191],[84.89485,56.5012],[84.89628,56.50192],[84.8983,56.50157],[84.89914,56.50233],[84.90142,56.50245],[84.90408,56.50119],[84.90431,56.49947],[84.90726,56.49814],[84.90888,56.49604],[84.91126,56.49557],[84.9116,56.49734],[84.91284,56.49741],[84.91515,56.4943],[84.91453,56.49092],[84.91191,56.48902],[84.90534,56.48915],[84.897,56.48607],[84.8938,56.48306],[84.89315,56.48092],[84.89377,56.47892],[84.89423,56.47818],[84.89802,56.47724],[84.90079,56.47565],[84.91265,56.4622],[84.91154,56.46233],[84.90799,56.4607],[84.91909,56.45564],[84.92045,56.45454],[84.91852,56.45155],[84.91861,56.45081],[84.91912,56.44946],[84.9241,56.44604],[84.92421,56.44451],[84.92094,56.44413],[84.9213,56.44218],[84.92479,56.44231],[84.92557,56.43922],[84.9283,56.43933],[84.93088,56.44056],[84.93414,56.44066],[84.93586,56.43942],[84.94255,56.44056],[84.95148,56.43572],[84.95474,56.43107],[84.95646,56.42519],[84.95568,56.42412],[84.9583,56.42212],[84.96605,56.40207],[84.96907,56.40271],[84.97585,56.40253],[84.97978,56.40304],[84.98045,56.40262],[84.97839,56.39988],[84.98391,56.39993],[84.99272,56.40105],[84.99313,56.40276],[84.99432,56.4034],[84.99401,56.40422],[84.99461,56.40444],[84.99777,56.4039],[85.00119,56.40479],[85.00392,56.40431],[85.00329,56.40545],[85.00434,56.40597],[85.0233,56.41187],[85.02894,56.41155],[85.03317,56.41036],[85.0345,56.40846],[85.03437,56.40671],[85.04407,56.4093],[85.04662,56.40835],[85.04581,56.40772],[85.05033,56.4054],[85.05169,56.40619],[85.06796,56.3981],[85.07625,56.39563],[85.0634,56.39063],[85.06123,56.38789],[85.05958,56.38868],[85.05535,56.38919],[85.04688,56.38762],[85.04669,56.38677],[85.05192,56.38187],[85.05466,56.38176],[85.06284,56.37937],[85.07933,56.38064],[85.08247,56.38139],[85.08214,56.38231],[85.08352,56.38495],[85.08489,56.38559],[85.08686,56.38491],[85.09502,56.388],[85.1002,56.39243],[85.08001,56.3952],[85.07564,56.39649],[85.06156,56.40342],[85.06203,56.40376],[85.05934,56.40696],[85.05309,56.41005],[85.05389,56.41179],[85.04747,56.41837],[85.03468,56.41827],[85.03126,56.41775],[85.00299,56.43173],[85.00423,56.43249],[85.00913,56.44292],[85.01879,56.4413],[85.02141,56.44173],[85.0197,56.44798],[85.0247,56.4486],[85.0284,56.44826],[85.03016,56.44636],[85.03248,56.44549],[85.03861,56.43956],[85.04626,56.44422],[85.03914,56.44888],[85.04094,56.45028],[85.03894,56.45267],[85.04097,56.45934],[85.04431,56.46495],[85.05768,56.46431],[85.05682,56.46305],[85.05702,56.46214],[85.0587,56.46187],[85.06407,56.46438],[85.06479,56.4642],[85.0649,56.4634],[85.06662,56.46328],[85.07323,56.46041],[85.07566,56.46234],[85.08493,56.46209],[85.09112,56.46314],[85.10161,56.45823],[85.10222,56.45438],[85.10542,56.45413],[85.12034,56.45903],[85.12501,56.45808],[85.12649,56.45698],[85.14418,56.46373],[85.1459,56.46484],[85.14505,56.46782],[85.14956,56.46883],[85.1476,56.47147],[85.13862,56.47944],[85.14272,56.48145],[85.13457,56.48286],[85.13158,56.48456],[85.13016,56.48655],[85.13061,56.48759],[85.13192,56.4884],[85.13298,56.50155],[85.13659,56.50517],[85.13846,56.50628],[85.14258,56.50733],[85.13927,56.51046],[85.1315,56.51052],[85.11024,56.51231],[85.11134,56.51321],[85.11102,56.51711],[85.10976,56.5172],[85.11032,56.52098],[85.10896,56.52101],[85.10805,56.52336],[85.10333,56.5242],[85.10738,56.527],[85.10679,56.53028],[85.12008,56.53496],[85.11591,56.53715],[85.09924,56.53996],[85.09213,56.54247],[85.08404,56.54272],[85.08458,56.54021],[85.07587,56.53342],[85.0635,56.54191],[85.06145,56.5439],[85.04523,56.53914],[85.03849,56.54711],[85.03226,56.54568],[84.9991,56.5539],[84.98164,56.54768],[84.9776,56.54451],[84.96891,56.54541],[84.96591,56.54233],[84.96557,56.53976],[84.96131,56.53978],[84.96005,56.55288],[84.94612,56.55701],[84.92909,56.56332],[84.92667,56.56207],[84.9215,56.56518],[84.92181,56.56863],[84.91148,56.57008],[84.91106,56.57059],[84.91087,56.56653],[84.91206,56.56372],[84.91169,56.56287],[84.91313,56.55981],[84.91631,56.55639],[84.92404,56.55022],[84.92584,56.54884],[84.92735,56.54878],[84.92957,56.5468],[84.9308,56.54544],[84.93224,56.54131],[84.93408,56.54042],[84.93347,56.53996],[84.93211,56.54051],[84.93276,56.53891],[84.93144,56.53516],[84.93197,56.53456],[84.9309,56.53396],[84.93076,56.53267],[84.92624,56.52785],[84.89781,56.52112],[84.89857,56.51915],[84.88685,56.51818],[84.87062,56.52153],[84.8685,56.52248],[84.86723,56.52414],[84.86714,56.52591],[84.86881,56.52789],[84.85981,56.53064],[84.86697,56.53286],[84.87055,56.53294],[84.87437,56.53385],[84.88083,56.53642],[84.87805,56.54132],[84.87595,56.54357],[84.87421,56.5444],[84.87294,56.54789],[84.86922,56.55017],[84.86534,56.54883],[84.86313,56.54678],[84.861,56.54613],[84.85883,56.54458],[84.85656,56.54514],[84.85484,56.54766],[84.85345,56.54837],[84.8493,56.54848],[84.84212,56.54979],[84.83665,56.5477],[84.82832,56.54678],[84.82752,56.54592]]]}}]}