{"type":"FeatureCollection","features":[{"type":"Feature","properties":{"name":"Краснодар","osm":"relation/7373058","licence":"Data © OpenStreetMap contributors, ODbL 1.0. http://osm.org/copyright"},"geometry":{"type":"Polygon","coordinates":[[[38.77111,45.05861],[38.77686,45.0569],[38.78301,45.0561],[38.80733,45.05404],[38.82093,45.05186],[38.82275,45.05248],[38.82805,45.05074],[38.83206,45.051],[38.83223,45.05053],[38.82883,45.04926],[38.82626,45.03825],[38.82962,45.03288],[38.83082,45.03252],[38.83138,45.03179],[38.82108,45.02957],[38.8213,45.01205],[38.83052,45.00582],[38.8324,45.00541],[38.83453,45.00536],[38.83758,45.00603],[38.84311,45.00802],[38.84838,45.00773],[38.84992,45.00698],[38.85489,45.00213],[38.85757,45.00092],[38.86038,45.00162],[38.86342,45.00375],[38.86487,45.00531],[38.86589,45.00663],[38.86625,45.01031],[38.86608,45.0119],[38.86479,45.01327],[38.85978,45.01685],[38.85529,45.02122],[38.85355,45.0249],[38.8536,45.02634],[38.85464,45.02978],[38.85691,45.03277],[38.85836,45.03363],[38.86084,45.03427],[38.86565,45.03502],[38.86758,45.03495],[38.87397,45.03621],[38.87798,45.03802],[38.88057,45.03987],[38.88813,45.04872],[38.8977,45.05379],[38.90148,45.05393],[38.90767,45.05217],[38.90826,45.05159],[38.90927,45.04814],[38.90942,45.04445],[38.90898,45.0422],[38.90021,45.03167],[38.8993,45.02703],[38.89922,45.0238],[38.89977,45.02245],[38.90131,45.02155],[38.90716,45.02227],[38.91369,45.0256],[38.92503,45.02957],[38.93018,45.0329],[38.93836,45.03563],[38.94386,45.03629],[38.94995,45.03617],[38.95308,45.03553],[38.9564,45.03357],[38.95729,45.03244],[38.95812,45.02982],[38.95793,45.02826],[38.95616,45.0261],[38.95109,45.02305],[38.94864,45.02081],[38.94741,45.0187],[38.94714,45.01655],[38.94847,45.01141],[38.95046,45.00846],[38.95187,45.00543],[38.95223,45.0008],[38.95349,44.9982],[38.95958,44.99377],[38.9629,44.99208],[38.96468,44.99144],[38.96958,44.99189],[38.97092,44.99282],[38.9715,44.9941],[38.971,45.00111],[38.97345,45.00738],[38.97504,45.0089],[38.97845,45.01039],[38.98435,45.01023],[38.99099,45.00569],[38.99777,45.00331],[39.00618,45.00407],[39.00956,45.00308],[39.01312,45.00407],[39.01423,45.00398],[39.01818,45.00165],[39.0194,44.99973],[39.01806,44.99701],[39.01588,44.99541],[39.01571,44.99447],[39.0164,44.99199],[39.01885,44.98724],[39.01983,44.98292],[39.01976,44.97946],[39.01857,44.97302],[39.02038,44.96908],[39.02246,44.96796],[39.02544,44.96845],[39.02862,44.97011],[39.031,44.97331],[39.03361,44.98021],[39.04148,44.98487],[39.04703,44.98435],[39.04901,44.98339],[39.05055,44.9823],[39.05593,44.97583],[39.05994,44.97429],[39.07031,44.97554],[39.07597,44.97872],[39.07642,44.97999],[39.07604,44.98055],[39.07602,44.98328],[39.0777,44.98802],[39.07869,44.9886],[39.07986,44.98886],[39.0855,44.98686],[39.08698,44.98675],[39.09886,44.98808],[39.10088,44.98888],[39.10346,44.99163],[39.10851,44.99528],[39.11515,44.99789],[39.11886,44.99836],[39.12141,44.99807],[39.12263,44.99746],[39.12358,44.99584],[39.12774,44.99503],[39.13021,44.99532],[39.13492,44.99812],[39.13171,45.00262],[39.13471,45.00369],[39.1339,45.00479],[39.13471,45.00508],[39.13403,45.00614],[39.13332,45.00588],[39.1328,45.00671],[39.13104,45.00609],[39.13043,45.00706],[39.13367,45.0082],[39.13247,45.01007],[39.13007,45.00932],[39.12943,45.0103],[39.12683,45.00951],[39.12661,45.00995],[39.13258,45.01176],[39.12905,45.01812],[39.13273,45.01923],[39.13046,45.02308],[39.13193,45.02342],[39.13185,45.02385],[39.13397,45.02413],[39.13328,45.02568],[39.13686,45.02772],[39.13762,45.02911],[39.13721,45.03148],[39.13943,45.03176],[39.13945,45.03265],[39.14012,45.0327],[39.1395,45.03566],[39.13995,45.03556],[39.14036,45.03666],[39.13846,45.03653],[39.13804,45.03907],[39.14019,45.03931],[39.13997,45.04004],[39.14148,45.04029],[39.14127,45.04126],[39.15238,45.04603],[39.15196,45.04715],[39.14183,45.04555],[39.1362,45.04524],[39.13618,45.05398],[39.1359,45.05405],[39.13584,45.0556],[39.13103,45.05557],[39.13238,45.05893],[39.12517,45.05879],[39.12514,45.06595],[39.13558,45.06598],[39.1358,45.0669],[39.13541,45.09247],[39.1339,45.09599],[39.13154,45.09874],[39.12345,45.09363],[39.12416,45.09352],[39.12445,45.08404],[39.10716,45.08406],[39.09226,45.07482],[39.08971,45.08073],[39.08153,45.09631],[39.0813,45.11655],[39.07666,45.11656],[39.07645,45.13222],[39.07435,45.13222],[39.07423,45.15088],[39.07314,45.151],[39.05952,45.15038],[39.05852,45.14972],[39.0591,45.13201],[39.04156,45.13177],[39.0371,45.13386],[39.02793,45.13682],[39.02491,45.13515],[39.02561,45.13441],[39.02511,45.13417],[39.02441,45.13488],[39.02345,45.13435],[39.02341,45.13327],[39.02274,45.13334],[39.02259,45.1326],[39.00768,45.12557],[39.00626,45.12652],[38.99879,45.12758],[39.00246,45.14408],[39.00171,45.14344],[38.99973,45.14344],[38.99958,45.14642],[38.99902,45.14638],[38.99902,45.14317],[38.99725,45.14318],[38.99689,45.14601],[38.99276,45.14582],[38.99264,45.1439],[38.98413,45.14416],[38.98447,45.14831],[38.96734,45.14847],[38.96711,45.15207],[38.96061,45.152],[38.96061,45.15148],[38.96014,45.15148],[38.96019,45.15306],[38.958,45.15313],[38.9578,45.14855],[38.91804,45.14879],[38.91601,45.14995],[38.91411,45.14825],[38.91988,45.14577],[38.92065,45.14471],[38.91833,45.14339],[38.90595,45.13041],[38.90544,45.13034],[38.90048,45.13335],[38.85777,45.15401],[38.83306,45.12803],[38.83533,45.12568],[38.80402,45.09163],[38.78453,45.07162],[38.78127,45.06936],[38.77111,45.05861]]]}}]}