{"type":"FeatureCollection","features":[{"type":"Feature","properties":{"name":"Магадан","osm":"relation/7619051","licence":"Data © OpenStreetMap contributors, ODbL 1.0. http://osm.org/copyright"},"geometry":{"type":"Polygon","coordinates":[[[150.60396,59.62963],[150.60492,59.60303],[150.60912,59.56369],[150.6107,59.5424],[150.62618,59.54583],[150.63531,59.54881],[150.64174,59.54928],[150.64452,59.54892],[150.65103,59.54974],[150.65674,59.55117],[150.66001,59.55247],[150.66102,59.55329],[150.66464,59.55427],[150.66802,59.55454],[150.67193,59.55578],[150.67515,59.55809],[150.68614,59.56284],[150.69608,59.56312],[150.71106,59.5621],[150.71105,59.56167],[150.71205,59.56165],[150.71207,59.56214],[150.71503,59.56223],[150.71533,59.5618],[150.72725,59.56371],[150.73763,59.56335],[150.7508,59.56472],[150.75358,59.56433],[150.75732,59.56467],[150.76138,59.56412],[150.766,59.5645],[150.76874,59.56366],[150.77078,59.5636],[150.77299,59.56245],[150.77604,59.55804],[150.77535,59.55754],[150.7765,59.55747],[150.77779,59.55671],[150.7804,59.55214],[150.78246,59.54768],[150.78334,59.5432],[150.7831,59.5414],[150.78219,59.54136],[150.78202,59.5406],[150.78122,59.54101],[150.77692,59.54069],[150.77534,59.54146],[150.77506,59.54132],[150.77591,59.54083],[150.77422,59.54073],[150.77547,59.5403],[150.77662,59.53927],[150.77319,59.53858],[150.77109,59.5373],[150.76985,59.53821],[150.77038,59.5385],[150.76911,59.53852],[150.7708,59.53694],[150.77011,59.53658],[150.76979,59.53577],[150.76811,59.53412],[150.76423,59.53161],[150.75832,59.52996],[150.75663,59.52965],[150.75277,59.52985],[150.75336,59.52938],[150.75218,59.52972],[150.7526,59.52913],[150.75034,59.52854],[150.74307,59.5291],[150.73789,59.52855],[150.73713,59.52887],[150.73727,59.53039],[150.73671,59.53051],[150.73639,59.52917],[150.73729,59.52787],[150.7322,59.52624],[150.73489,59.52315],[150.75764,59.52306],[150.7621,59.52427],[150.7766,59.52945],[150.78996,59.53027],[150.83548,59.50965],[150.87194,59.49019],[150.86243,59.49111],[150.85209,59.4886],[150.84625,59.48407],[150.84922,59.48314],[150.8653,59.48635],[150.87147,59.48547],[150.8782,59.48674],[150.90334,59.47302],[150.93686,59.47675],[150.94077,59.47255],[150.9435,59.47434],[150.95126,59.47793],[150.95807,59.47926],[150.96096,59.48084],[150.96076,59.48211],[150.9596,59.4828],[150.95519,59.48278],[150.95162,59.48389],[150.94901,59.48394],[150.93459,59.48596],[150.91617,59.48575],[150.91504,59.48626],[150.91335,59.48805],[150.91191,59.49045],[150.9112,59.4926],[150.91167,59.49412],[150.91487,59.4959],[150.91458,59.49689],[150.91533,59.49855],[150.91919,59.49865],[150.92048,59.50118],[150.92165,59.50221],[150.92549,59.50352],[150.9286,59.50354],[150.9336,59.50582],[150.93705,59.50624],[150.93767,59.50589],[150.93802,59.50477],[150.93855,59.50476],[150.93808,59.50602],[150.93661,59.50683],[150.93654,59.50771],[150.93729,59.50891],[150.93883,59.51007],[150.93831,59.51075],[150.93829,59.51166],[150.93976,59.51435],[150.94479,59.52053],[150.94403,59.52145],[150.94232,59.52178],[150.93067,59.52087],[150.92662,59.52151],[150.92209,59.52371],[150.91441,59.52581],[150.90705,59.53054],[150.9019,59.53205],[150.90024,59.53478],[150.89724,59.53623],[150.89597,59.5389],[150.89353,59.53993],[150.89158,59.54174],[150.89114,59.54355],[150.89141,59.54544],[150.89103,59.54559],[150.89147,59.54741],[150.89121,59.54782],[150.89228,59.55061],[150.90166,59.55926],[150.9072,59.56236],[150.91472,59.56572],[150.91682,59.56606],[150.91846,59.56433],[150.92485,59.56069],[150.9251,59.56035],[150.92458,59.56025],[150.92458,59.55984],[150.92684,59.55891],[150.92947,59.55839],[150.93239,59.55868],[150.93792,59.55714],[150.94244,59.55724],[150.95133,59.55994],[150.95617,59.56031],[150.95888,59.55976],[150.96618,59.56292],[150.98989,59.56898],[150.9952,59.56969],[150.99993,59.56915],[151.00034,59.56857],[151.00116,59.56836],[151.00454,59.56882],[151.00425,59.56973],[151.00471,59.57019],[151.00429,59.57124],[151.00591,59.57221],[151.00712,59.57239],[151.00785,59.57323],[151.00971,59.57369],[151.02304,59.5757],[151.02752,59.57586],[151.0319,59.57473],[151.03404,59.57501],[151.0355,59.57575],[151.00299,59.60952],[151.00502,59.61173],[150.99448,59.614],[150.9872,59.61662],[150.98033,59.61833],[150.96762,59.62343],[150.96774,59.6269],[150.9597,59.63237],[150.96199,59.63762],[150.97895,59.64397],[150.9786,59.64646],[150.95177,59.64554],[150.95952,59.65343],[150.95447,59.6561],[150.95125,59.65586],[150.95195,59.66873],[150.94731,59.68708],[150.94866,59.69072],[150.95054,59.69922],[150.95336,59.70597],[150.95647,59.70559],[150.9658,59.70337],[150.99686,59.70509],[150.99662,59.71068],[150.99486,59.71376],[150.99386,59.7145],[150.99046,59.71578],[150.98515,59.71678],[150.97338,59.71742],[150.96554,59.71897],[150.95932,59.71859],[150.92621,59.72618],[150.92765,59.72665],[150.92624,59.72754],[150.92318,59.72678],[150.8985,59.73013],[150.90023,59.73198],[150.8938,59.7334],[150.88909,59.73195],[150.85532,59.74318],[150.84288,59.74016],[150.83184,59.73217],[150.83739,59.72687],[150.85832,59.71912],[150.87399,59.71882],[150.90631,59.69579],[150.90581,59.69494],[150.90739,59.69395],[150.90839,59.69426],[150.90945,59.69355],[150.90278,59.65611],[150.88652,59.65485],[150.87164,59.65236],[150.86674,59.64713],[150.85641,59.64731],[150.85042,59.64665],[150.84276,59.64855],[150.83918,59.64852],[150.83431,59.6479],[150.82826,59.64615],[150.79914,59.65164],[150.71437,59.65138],[150.70116,59.64931],[150.64017,59.63254],[150.60396,59.62963]]]}}]}