{"type":"FeatureCollection","features":[{"type":"Feature","properties":{"name":"Белгород","osm":"relation/7790937","licence":"Data © OpenStreetMap contributors, ODbL 1.0. http://osm.org/copyright"},"geometry":{"type":"Polygon","coordinates":[[[36.44467,50.59525],[36.44567,50.59205],[36.45506,50.57947],[36.45829,50.57381],[36.46545,50.55873],[36.46717,50.55671],[36.47409,50.55371],[36.47644,50.55142],[36.47729,50.54907],[36.47777,50.5434],[36.47927,50.54374],[36.48407,50.54758],[36.49364,50.55313],[36.50944,50.56356],[36.51095,50.56222],[36.50795,50.56041],[36.50858,50.55836],[36.50547,50.55808],[36.50242,50.55595],[36.50702,50.55244],[36.50444,50.55099],[36.50837,50.54872],[36.51228,50.55105],[36.51275,50.55057],[36.51142,50.54965],[36.51988,50.55054],[36.52218,50.55041],[36.52287,50.54954],[36.52839,50.55173],[36.52848,50.55261],[36.53094,50.55325],[36.53139,50.55246],[36.53412,50.55274],[36.53862,50.55748],[36.54095,50.55772],[36.5469,50.5546],[36.55021,50.5538],[36.55323,50.55528],[36.55921,50.55592],[36.56521,50.55368],[36.5756,50.55371],[36.57537,50.5527],[36.57598,50.55218],[36.58049,50.55385],[36.58661,50.55836],[36.58639,50.55763],[36.58829,50.5587],[36.5902,50.55639],[36.59208,50.55559],[36.59109,50.55469],[36.59207,50.5549],[36.59301,50.55424],[36.59327,50.55184],[36.59091,50.55096],[36.59337,50.55126],[36.59448,50.55083],[36.59496,50.54983],[36.598,50.54992],[36.59617,50.54733],[36.59352,50.54616],[36.59297,50.54436],[36.60039,50.54483],[36.61816,50.54814],[36.6187,50.5447],[36.62173,50.53898],[36.62154,50.53798],[36.62309,50.53626],[36.62687,50.52888],[36.62391,50.52734],[36.62655,50.5272],[36.62701,50.52508],[36.6301,50.52176],[36.6342,50.52075],[36.63582,50.51965],[36.63997,50.52166],[36.64126,50.5212],[36.64174,50.51918],[36.64504,50.51633],[36.64745,50.51153],[36.64906,50.50993],[36.64773,50.50786],[36.64943,50.5052],[36.65616,50.50573],[36.66131,50.50763],[36.66695,50.51091],[36.66814,50.51259],[36.66942,50.51636],[36.66937,50.51942],[36.67255,50.52515],[36.66797,50.52825],[36.66307,50.53367],[36.6615,50.5344],[36.66061,50.53779],[36.66256,50.54049],[36.66568,50.53974],[36.66928,50.54571],[36.66879,50.5483],[36.68034,50.54951],[36.67758,50.55862],[36.67216,50.55834],[36.66912,50.57005],[36.67368,50.57056],[36.67757,50.5861],[36.68823,50.58516],[36.68878,50.58646],[36.7079,50.58488],[36.70829,50.58539],[36.71001,50.58528],[36.72242,50.58296],[36.7223,50.58354],[36.71642,50.58688],[36.71768,50.58839],[36.71677,50.5896],[36.71818,50.59106],[36.71349,50.59209],[36.71151,50.59184],[36.70941,50.59296],[36.71082,50.59375],[36.71127,50.59511],[36.71052,50.59586],[36.70127,50.59815],[36.67721,50.60221],[36.67171,50.60389],[36.66108,50.60426],[36.66056,50.60803],[36.66275,50.60918],[36.66399,50.60921],[36.66414,50.60832],[36.66907,50.60859],[36.66898,50.61029],[36.66413,50.61028],[36.66511,50.61216],[36.66117,50.61246],[36.66116,50.61484],[36.65756,50.61926],[36.65612,50.62276],[36.64704,50.62806],[36.64793,50.63218],[36.65072,50.63443],[36.64989,50.63604],[36.64221,50.63392],[36.63855,50.62906],[36.63613,50.62426],[36.63526,50.62393],[36.63198,50.62391],[36.62563,50.62572],[36.61978,50.62892],[36.6202,50.63117],[36.61609,50.63071],[36.61434,50.62994],[36.61339,50.62809],[36.61226,50.63114],[36.60949,50.63222],[36.60994,50.63956],[36.59179,50.64515],[36.59119,50.64551],[36.59132,50.64618],[36.59076,50.64549],[36.57493,50.65067],[36.57473,50.655],[36.57192,50.65484],[36.5717,50.65107],[36.56898,50.65187],[36.5676,50.6509],[36.56806,50.65072],[36.56768,50.65011],[36.56978,50.6494],[36.57099,50.6459],[36.56893,50.64528],[36.56482,50.65636],[36.5632,50.6559],[36.56266,50.65647],[36.55702,50.65487],[36.55728,50.65449],[36.55045,50.65217],[36.5449,50.65496],[36.54345,50.65314],[36.54071,50.65158],[36.53855,50.65118],[36.53803,50.65256],[36.53976,50.65762],[36.54144,50.6602],[36.54029,50.66151],[36.54127,50.66696],[36.52659,50.66428],[36.5186,50.664],[36.5164,50.66222],[36.51467,50.66204],[36.51486,50.66104],[36.51368,50.65927],[36.50927,50.66004],[36.5083,50.65956],[36.51303,50.65781],[36.51051,50.65562],[36.50991,50.65323],[36.50851,50.65205],[36.50364,50.65203],[36.50157,50.65277],[36.49853,50.65168],[36.50626,50.64978],[36.50577,50.64739],[36.50427,50.64708],[36.50497,50.64639],[36.5047,50.64486],[36.50535,50.64333],[36.49697,50.6427],[36.4966,50.64121],[36.49468,50.64099],[36.49308,50.63986],[36.49387,50.63855],[36.48953,50.63652],[36.48826,50.63491],[36.48155,50.63037],[36.48062,50.62752],[36.47932,50.62632],[36.48047,50.6257],[36.47932,50.62324],[36.48396,50.62046],[36.48188,50.61821],[36.48219,50.61701],[36.48466,50.61898],[36.49035,50.61768],[36.48804,50.61421],[36.48785,50.61217],[36.48829,50.6117],[36.49255,50.61061],[36.49432,50.61173],[36.49483,50.61237],[36.49448,50.61399],[36.49296,50.61589],[36.49505,50.61651],[36.50061,50.61536],[36.49873,50.61399],[36.49789,50.61211],[36.49542,50.61057],[36.49581,50.61019],[36.50342,50.61411],[36.50575,50.61339],[36.51039,50.61314],[36.5114,50.61126],[36.51101,50.60998],[36.50777,50.60771],[36.49275,50.60167],[36.49017,50.5989],[36.48685,50.59993],[36.47971,50.60055],[36.46563,50.59822],[36.46509,50.59885],[36.46572,50.60065],[36.46708,50.60071],[36.46768,50.60133],[36.46786,50.60229],[36.46686,50.6031],[36.46001,50.60397],[36.45735,50.60272],[36.45435,50.60445],[36.44683,50.59923],[36.44482,50.59648],[36.44467,50.59525]]]}}]}