{"type":"FeatureCollection","features":[{"type":"Feature","properties":{"name":"Черкесск","osm":"relation/8245965","licence":"Data © OpenStreetMap contributors, ODbL 1.0. http://osm.org/copyright"},"geometry":{"type":"Polygon","coordinates":[[[42.01391,44.17574],[42.02438,44.17534],[42.03931,44.1753],[42.0603,44.17681],[42.07626,44.17582],[42.07925,44.17563],[42.08129,44.18314],[42.08777,44.20714],[42.08682,44.22521],[42.09821,44.24551],[42.10452,44.25344],[42.09683,44.25387],[42.07378,44.26412],[42.06489,44.25848],[42.05931,44.26221],[42.05394,44.26486],[42.05021,44.27392],[42.04631,44.27533],[42.0451,44.27317],[42.04493,44.27288],[42.04136,44.26653],[42.04073,44.26541],[42.03986,44.26385],[42.03675,44.25832],[42.03544,44.256],[42.03375,44.24736],[42.03696,44.23608],[42.0378,44.23543],[42.03589,44.23183],[42.0349,44.2298],[42.03282,44.22584],[42.03238,44.22376],[42.0313,44.21876],[42.03125,44.21855],[42.03121,44.21835],[42.03118,44.21819],[42.03113,44.21802],[42.03107,44.21777],[42.03063,44.21743],[42.0293,44.21735],[42.02698,44.2176],[42.02519,44.21772],[42.02342,44.21795],[42.02194,44.2182],[42.02057,44.2183],[42.02009,44.21827],[42.01866,44.21767],[42.01774,44.21447],[42.02014,44.21418],[42.02053,44.21398],[42.02056,44.21229],[42.02114,44.21212],[42.0213,44.21156],[42.02144,44.21098],[42.02118,44.20953],[42.02096,44.20795],[42.02088,44.2056],[42.02087,44.20501],[42.02068,44.2046],[42.02039,44.20343],[42.02004,44.20248],[42.0211,44.20223],[42.02243,44.20219],[42.0251,44.20232],[42.02685,44.1963],[42.02498,44.19201],[42.02298,44.18793],[42.01802,44.18177],[42.01391,44.17574]]]}}]}