{"type":"FeatureCollection","features":[{"type":"Feature","properties":{"name":"Нальчик","osm":"relation/8787138","licence":"Data © OpenStreetMap contributors, ODbL 1.0. http://osm.org/copyright"},"geometry":{"type":"Polygon","coordinates":[[[43.54111,43.44833],[43.54391,43.44471],[43.54634,43.44479],[43.55195,43.44604],[43.56182,43.45118],[43.56471,43.45001],[43.56627,43.44857],[43.56334,43.44559],[43.56128,43.44624],[43.55895,43.44487],[43.55753,43.44598],[43.55223,43.4423],[43.556,43.43935],[43.55514,43.43915],[43.55593,43.43801],[43.55025,43.43693],[43.55055,43.43608],[43.55363,43.43645],[43.55493,43.43468],[43.55741,43.43543],[43.56296,43.43248],[43.56375,43.4346],[43.5708,43.44255],[43.57681,43.44565],[43.5825,43.44672],[43.58936,43.45042],[43.59228,43.45524],[43.59587,43.4553],[43.59537,43.45894],[43.59924,43.4588],[43.60053,43.46062],[43.59958,43.4619],[43.6039,43.46415],[43.60503,43.46596],[43.60756,43.46555],[43.60955,43.46333],[43.61232,43.46336],[43.60788,43.46239],[43.6081,43.46144],[43.6059,43.459],[43.61127,43.45839],[43.61106,43.46109],[43.61254,43.46327],[43.61614,43.46445],[43.61466,43.46066],[43.61803,43.46004],[43.61857,43.46184],[43.62072,43.46207],[43.62058,43.46425],[43.62301,43.46412],[43.62154,43.46378],[43.62166,43.46215],[43.62499,43.46241],[43.62496,43.4665],[43.62842,43.46642],[43.62854,43.46773],[43.63311,43.46854],[43.6363,43.46357],[43.63597,43.46019],[43.63804,43.46075],[43.63731,43.46221],[43.63859,43.46314],[43.63998,43.46269],[43.64101,43.46551],[43.64537,43.4651],[43.64378,43.45734],[43.63927,43.44779],[43.64029,43.4468],[43.64042,43.44295],[43.63918,43.44145],[43.63929,43.4389],[43.64052,43.43863],[43.64039,43.43761],[43.64164,43.43769],[43.64076,43.43863],[43.6448,43.44441],[43.64797,43.44611],[43.6472,43.44655],[43.64898,43.44691],[43.64952,43.44778],[43.64838,43.44788],[43.6493,43.44815],[43.64897,43.4462],[43.64705,43.44442],[43.64544,43.44454],[43.64325,43.44013],[43.64179,43.4396],[43.64193,43.43871],[43.6459,43.43786],[43.64618,43.4412],[43.64539,43.44205],[43.6465,43.4424],[43.64671,43.43836],[43.64766,43.43804],[43.64656,43.43635],[43.64802,43.43637],[43.64966,43.44117],[43.65325,43.43874],[43.65387,43.44014],[43.65686,43.43959],[43.65765,43.4404],[43.6561,43.44212],[43.65589,43.44527],[43.65341,43.44591],[43.65593,43.44857],[43.65683,43.44841],[43.65709,43.44964],[43.6622,43.45027],[43.66879,43.45548],[43.66144,43.45657],[43.66004,43.46236],[43.66108,43.46632],[43.66191,43.46721],[43.66568,43.46519],[43.66495,43.46367],[43.66347,43.46386],[43.66258,43.46058],[43.66856,43.45987],[43.66925,43.46262],[43.67208,43.46249],[43.67269,43.46402],[43.66973,43.46473],[43.66924,43.46304],[43.66635,43.46339],[43.66535,43.46579],[43.66624,43.46661],[43.66994,43.46559],[43.67086,43.46816],[43.67359,43.4692],[43.67787,43.46706],[43.67914,43.46901],[43.67181,43.47344],[43.66744,43.47478],[43.66972,43.4763],[43.6698,43.47762],[43.66884,43.47818],[43.66652,43.48522],[43.66246,43.48451],[43.66236,43.48609],[43.66081,43.48573],[43.65946,43.48811],[43.65846,43.48708],[43.65437,43.48625],[43.65404,43.48708],[43.65115,43.48676],[43.65044,43.48786],[43.65487,43.49106],[43.65721,43.49133],[43.65921,43.49366],[43.6676,43.49814],[43.67196,43.50192],[43.67389,43.5025],[43.67815,43.50154],[43.68076,43.50237],[43.68149,43.50296],[43.67702,43.50964],[43.68421,43.51239],[43.68382,43.5129],[43.69164,43.51659],[43.6916,43.5186],[43.68034,43.53395],[43.68624,43.53624],[43.67965,43.54437],[43.67313,43.53929],[43.67142,43.53511],[43.66685,43.52894],[43.66206,43.52514],[43.65815,43.52333],[43.65308,43.51834],[43.64937,43.52284],[43.6461,43.5215],[43.64452,43.52439],[43.6302,43.51953],[43.62754,43.52065],[43.62612,43.5239],[43.62472,43.5237],[43.62426,43.52498],[43.62241,43.52456],[43.62136,43.52578],[43.61887,43.52585],[43.61704,43.52377],[43.61306,43.52174],[43.60666,43.52112],[43.60731,43.51932],[43.60602,43.51803],[43.59473,43.51209],[43.60088,43.51248],[43.60294,43.51143],[43.60332,43.51008],[43.60363,43.50713],[43.60179,43.50599],[43.59818,43.50811],[43.59439,43.50473],[43.59679,43.50328],[43.59588,43.5025],[43.59171,43.50489],[43.58939,43.50257],[43.58779,43.50424],[43.58,43.50385],[43.57292,43.49933],[43.5719,43.50015],[43.5711,43.49964],[43.57271,43.49835],[43.57202,43.4969],[43.57341,43.49573],[43.57405,43.49613],[43.57446,43.49495],[43.57163,43.49384],[43.57227,43.49261],[43.5672,43.48537],[43.56013,43.48804],[43.55483,43.4876],[43.55487,43.48673],[43.55644,43.48649],[43.55604,43.48535],[43.55776,43.48538],[43.55843,43.48449],[43.56214,43.4852],[43.56736,43.48387],[43.56748,43.48132],[43.56671,43.48123],[43.5657,43.47876],[43.56243,43.47639],[43.5618,43.47338],[43.56467,43.47314],[43.56377,43.47061],[43.56469,43.47053],[43.56216,43.46891],[43.56499,43.46954],[43.56605,43.46813],[43.56789,43.46812],[43.56781,43.46704],[43.56076,43.46184],[43.55404,43.4587],[43.55161,43.45887],[43.55169,43.45775],[43.55353,43.45703],[43.55308,43.45596],[43.54938,43.45645],[43.54754,43.45235],[43.54111,43.44833]]]}}]}