{"type":"FeatureCollection","features":[{"type":"Feature","properties":{"name":"Владикавказ","osm":"relation/8901223","licence":"Data © OpenStreetMap contributors, ODbL 1.0. http://osm.org/copyright"},"geometry":{"type":"Polygon","coordinates":[[[44.60434,43.05479],[44.607,43.05345],[44.60664,43.05323],[44.60679,43.0531],[44.60595,43.05107],[44.60478,43.04861],[44.60732,43.0473],[44.61821,43.04239],[44.61915,43.04014],[44.61685,43.03878],[44.61468,43.0375],[44.61858,43.0352],[44.61511,43.0324],[44.61967,43.03094],[44.62073,43.03326],[44.62288,43.03556],[44.62401,43.03493],[44.62455,43.03381],[44.62678,43.03277],[44.62879,43.03327],[44.6278,43.02968],[44.62397,43.01486],[44.6356,43.00884],[44.63981,43.00381],[44.66352,42.99627],[44.66583,42.98995],[44.66143,42.98856],[44.6649,42.98543],[44.66655,42.98371],[44.66789,42.98383],[44.66715,42.98704],[44.6751,42.98868],[44.67496,42.98341],[44.67888,42.9838],[44.67926,42.98325],[44.68237,42.98409],[44.68315,42.98414],[44.68476,42.98425],[44.68502,42.98127],[44.68369,42.9771],[44.68301,42.97495],[44.6834,42.97421],[44.68766,42.9704],[44.68976,42.97053],[44.69207,42.97688],[44.69467,42.983],[44.69973,43.00527],[44.70217,43.01008],[44.70938,43.01215],[44.7158,43.018],[44.71599,43.02796],[44.71732,43.02837],[44.7177,43.03179],[44.72092,43.03234],[44.72725,43.0336],[44.72591,43.0439],[44.73633,43.0463],[44.74032,43.04722],[44.74044,43.04907],[44.74056,43.05092],[44.74085,43.05175],[44.74124,43.0525],[44.74126,43.05594],[44.73915,43.05539],[44.73887,43.05466],[44.73723,43.05427],[44.72903,43.05246],[44.72751,43.05217],[44.7236,43.05224],[44.7235,43.05224],[44.72242,43.05316],[44.72097,43.05548],[44.71657,43.05871],[44.71667,43.06139],[44.7106,43.06161],[44.70998,43.06205],[44.70756,43.0658],[44.6948,43.07563],[44.69403,43.07811],[44.69071,43.08047],[44.68837,43.0814],[44.68946,43.08715],[44.68504,43.08754],[44.68054,43.08751],[44.68065,43.08594],[44.68059,43.0844],[44.67194,43.08489],[44.66963,43.08502],[44.66938,43.085],[44.66876,43.08504],[44.66162,43.08558],[44.66017,43.08593],[44.65834,43.08597],[44.65736,43.08604],[44.65197,43.08617],[44.64977,43.08621],[44.64469,43.08678],[44.64146,43.08449],[44.65117,43.07858],[44.65241,43.07758],[44.65384,43.07583],[44.65851,43.06908],[44.66006,43.06554],[44.65861,43.06517],[44.65873,43.06474],[44.65872,43.06443],[44.65811,43.06431],[44.65815,43.06384],[44.65426,43.06325],[44.65427,43.06306],[44.65271,43.06291],[44.65246,43.0628],[44.65254,43.06245],[44.64674,43.06234],[44.64642,43.06234],[44.64642,43.0626],[44.64633,43.0626],[44.64634,43.06282],[44.64467,43.06292],[44.63904,43.06569],[44.63878,43.06541],[44.63803,43.06575],[44.63757,43.06541],[44.63727,43.06549],[44.63659,43.06545],[44.63616,43.06566],[44.63134,43.06446],[44.62968,43.06523],[44.63002,43.06565],[44.62778,43.06594],[44.62703,43.06583],[44.62642,43.0656],[44.62497,43.06466],[44.62376,43.06408],[44.61688,43.06033],[44.60795,43.05531],[44.60636,43.05605],[44.60434,43.05479]]]}}]}