{"type":"FeatureCollection","features":[{"type":"Feature","properties":{"name":"Тверь","osm":"relation/930950","licence":"Data © OpenStreetMap contributors, ODbL 1.0. http://osm.org/copyright"},"geometry":{"type":"Polygon","coordinates":[[[35.72142,56.83594],[35.72237,56.83513],[35.72763,56.83538],[35.72397,56.82606],[35.7273,56.82531],[35.731,56.81914],[35.74334,56.81609],[35.75882,56.81646],[35.75997,56.81719],[35.76168,56.81766],[35.76799,56.82204],[35.77017,56.823],[35.7901,56.8265],[35.7978,56.82828],[35.79995,56.83238],[35.80353,56.83185],[35.81173,56.83072],[35.81288,56.83038],[35.81936,56.82953],[35.82337,56.8295],[35.82896,56.82872],[35.83035,56.82833],[35.83113,56.82821],[35.82801,56.82603],[35.82612,56.82596],[35.82483,56.82627],[35.82432,56.82605],[35.82413,56.82567],[35.82414,56.82498],[35.82879,56.82287],[35.83272,56.82044],[35.8388,56.82701],[35.84166,56.82668],[35.84222,56.82629],[35.85109,56.82523],[35.85697,56.82264],[35.85848,56.82269],[35.86097,56.82154],[35.86627,56.82112],[35.87389,56.82036],[35.87282,56.81981],[35.87251,56.81951],[35.87225,56.81887],[35.87222,56.81855],[35.87226,56.81818],[35.87232,56.81789],[35.87271,56.81659],[35.87414,56.81444],[35.87439,56.81328],[35.87193,56.80837],[35.88164,56.80096],[35.89036,56.79354],[35.89996,56.79374],[35.91018,56.7971],[35.90932,56.80016],[35.92058,56.80272],[35.92103,56.80233],[35.92117,56.80202],[35.92366,56.80125],[35.92458,56.80109],[35.92534,56.80083],[35.92596,56.8005],[35.92651,56.80014],[35.92903,56.79766],[35.93538,56.79938],[35.94933,56.79971],[35.9585,56.80237],[35.95444,56.80509],[35.95487,56.80673],[35.95737,56.8092],[35.99468,56.79473],[36.00053,56.79237],[36.00533,56.79004],[36.01004,56.78711],[36.01167,56.78517],[36.01413,56.78332],[36.0437,56.78378],[36.04695,56.78849],[36.05157,56.79147],[36.05554,56.79572],[36.0465,56.79839],[36.04717,56.79996],[36.04832,56.80065],[36.04981,56.80269],[36.03508,56.80615],[36.03593,56.80729],[36.02738,56.80971],[36.01279,56.81211],[36.00859,56.8134],[36.00518,56.81489],[35.99788,56.81945],[36.0036,56.82226],[36.00552,56.82191],[36.00671,56.82292],[36.00395,56.82608],[36.0074,56.82559],[36.00393,56.83105],[36.011,56.83957],[36.01068,56.84032],[36.01042,56.84437],[36.02078,56.85098],[36.02218,56.85182],[36.02037,56.85273],[36.01676,56.85437],[36.01471,56.855],[36.01285,56.85534],[36.00621,56.85622],[36.00431,56.85666],[36.00056,56.85837],[35.99346,56.86153],[35.99349,56.86262],[35.99893,56.86636],[36.00228,56.87107],[35.99998,56.87336],[35.99065,56.87823],[35.98763,56.87806],[35.9866,56.87868],[35.98474,56.8789],[35.98407,56.87903],[35.98263,56.87942],[35.9824,56.87943],[35.98124,56.87929],[35.96694,56.88962],[35.96752,56.88986],[35.96664,56.89042],[35.96596,56.89042],[35.96415,56.89162],[35.96459,56.89259],[35.96274,56.89351],[35.95877,56.89358],[35.94623,56.89543],[35.94441,56.89592],[35.94216,56.8987],[35.93886,56.90101],[35.93191,56.90307],[35.92933,56.90326],[35.92918,56.89635],[35.93005,56.89569],[35.93004,56.89566],[35.92913,56.89574],[35.92916,56.89588],[35.92858,56.89593],[35.9285,56.89552],[35.92999,56.89542],[35.92948,56.89287],[35.9283,56.89289],[35.92821,56.89134],[35.92657,56.88959],[35.92353,56.88768],[35.92308,56.88936],[35.92181,56.88932],[35.92075,56.89214],[35.92141,56.89222],[35.92112,56.89392],[35.92116,56.89567],[35.92213,56.89707],[35.92262,56.89816],[35.92326,56.8997],[35.92302,56.90146],[35.92069,56.90426],[35.91855,56.90668],[35.91761,56.90842],[35.91856,56.91226],[35.91593,56.91525],[35.91522,56.91633],[35.91475,56.91936],[35.91429,56.92005],[35.91175,56.92167],[35.91098,56.92253],[35.91085,56.92403],[35.91031,56.92527],[35.9095,56.92642],[35.90699,56.93028],[35.9062,56.93121],[35.90113,56.93606],[35.89603,56.93499],[35.90152,56.92998],[35.90215,56.92909],[35.90055,56.92866],[35.89954,56.929],[35.89811,56.92869],[35.89701,56.92902],[35.89598,56.92914],[35.89506,56.92949],[35.89622,56.92636],[35.89218,56.92639],[35.89201,56.92547],[35.88286,56.92524],[35.88274,56.91927],[35.8787,56.91757],[35.87458,56.91705],[35.87564,56.91604],[35.86962,56.91369],[35.87773,56.90682],[35.8847,56.90761],[35.88926,56.90194],[35.88934,56.90128],[35.88567,56.89334],[35.87895,56.89429],[35.87455,56.89844],[35.86716,56.89526],[35.86508,56.8972],[35.86555,56.8985],[35.86057,56.90097],[35.85781,56.89821],[35.85764,56.8961],[35.85751,56.89592],[35.85751,56.89576],[35.85762,56.89548],[35.85402,56.89428],[35.84366,56.9045],[35.83487,56.90788],[35.83024,56.90939],[35.82499,56.90999],[35.81594,56.90657],[35.81455,56.9061],[35.81188,56.90512],[35.81136,56.9048],[35.81056,56.90447],[35.80367,56.90244],[35.80628,56.90025],[35.80696,56.89964],[35.80373,56.89928],[35.80113,56.89829],[35.80487,56.8958],[35.80391,56.8953],[35.80145,56.89383],[35.79986,56.89495],[35.79271,56.89299],[35.79065,56.89505],[35.78924,56.89582],[35.78788,56.89633],[35.78685,56.89784],[35.78502,56.89751],[35.78446,56.89775],[35.78236,56.89673],[35.78034,56.8926],[35.781,56.89192],[35.78119,56.89135],[35.78556,56.88829],[35.78515,56.88781],[35.79191,56.88516],[35.7929,56.8851],[35.79327,56.88465],[35.79462,56.88459],[35.79674,56.88556],[35.79776,56.88538],[35.7968,56.8845],[35.7984,56.88426],[35.79776,56.88234],[35.79728,56.88182],[35.80332,56.88091],[35.80263,56.88056],[35.80221,56.88009],[35.80206,56.87929],[35.80306,56.87919],[35.80478,56.87887],[35.80686,56.87809],[35.80369,56.87502],[35.80319,56.8739],[35.80165,56.87258],[35.80008,56.87209],[35.79907,56.87206],[35.79742,56.86911],[35.79685,56.86646],[35.79623,56.86559],[35.79423,56.86485],[35.79384,56.86269],[35.79433,56.86168],[35.79378,56.86056],[35.79193,56.85878],[35.79139,56.85745],[35.78937,56.8581],[35.78957,56.85686],[35.7902,56.85405],[35.78766,56.85368],[35.78162,56.85315],[35.78162,56.85261],[35.77715,56.8528],[35.77693,56.85489],[35.76791,56.85278],[35.76626,56.85275],[35.76588,56.85241],[35.76497,56.85248],[35.76352,56.85147],[35.76324,56.85038],[35.7628,56.8501],[35.76317,56.84985],[35.76595,56.85003],[35.76619,56.84805],[35.75782,56.84668],[35.75065,56.84466],[35.73923,56.84059],[35.74048,56.8384],[35.73552,56.83713],[35.72979,56.83652],[35.72719,56.83715],[35.72526,56.83715],[35.72156,56.83654],[35.72142,56.83594]]]}}]}