{"type":"FeatureCollection","features":[{"type":"Feature","properties":{"name":"Оренбург","osm":"way/166155507","licence":"Data © OpenStreetMap contributors, ODbL 1.0. http://osm.org/copyright"},"geometry":{"type":"Polygon","coordinates":[[[55.01519,51.71634],[55.03547,51.71165],[55.04626,51.70734],[55.07044,51.70154],[55.07589,51.69793],[55.07317,51.69586],[55.07244,51.69398],[55.07335,51.69258],[55.07302,51.69118],[55.07339,51.68951],[55.07323,51.68896],[55.07197,51.6884],[55.07203,51.68789],[55.07475,51.68867],[55.07714,51.68659],[55.07942,51.68552],[55.12638,51.68358],[55.12731,51.6832],[55.12615,51.6851],[55.12468,51.69171],[55.12398,51.70019],[55.11973,51.70305],[55.12071,51.7109],[55.1315,51.71063],[55.13181,51.71151],[55.13239,51.71151],[55.13249,51.71235],[55.1425,51.71173],[55.14276,51.71394],[55.14046,51.71956],[55.13223,51.72022],[55.13359,51.72549],[55.13226,51.73247],[55.127,51.73307],[55.12309,51.73493],[55.12223,51.73651],[55.1226,51.73838],[55.1237,51.7401],[55.13364,51.74495],[55.13344,51.75064],[55.13448,51.75127],[55.13587,51.75033],[55.13633,51.74845],[55.13464,51.74474],[55.13497,51.744],[55.13567,51.74392],[55.13721,51.74222],[55.13745,51.74133],[55.13848,51.74176],[55.13824,51.74195],[55.13907,51.7423],[55.1389,51.74254],[55.14142,51.74374],[55.14038,51.74432],[55.14128,51.74489],[55.14252,51.74475],[55.14322,51.74612],[55.14418,51.74648],[55.14848,51.74408],[55.14958,51.74312],[55.15083,51.741],[55.15081,51.73995],[55.15015,51.73891],[55.14551,51.73723],[55.14511,51.73782],[55.14402,51.73794],[55.14376,51.73857],[55.14434,51.73896],[55.14413,51.73926],[55.14227,51.73862],[55.13776,51.73856],[55.13778,51.7378],[55.14077,51.73604],[55.14311,51.73522],[55.14538,51.73496],[55.152,51.73255],[55.15344,51.73101],[55.15498,51.73132],[55.15622,51.72941],[55.15438,51.72851],[55.15539,51.72762],[55.15601,51.72795],[55.15696,51.7275],[55.1612,51.72697],[55.16411,51.72739],[55.17226,51.73135],[55.1746,51.73197],[55.17778,51.73517],[55.17531,51.7389],[55.17719,51.74104],[55.18115,51.7422],[55.18749,51.74155],[55.19738,51.73519],[55.19994,51.73404],[55.2032,51.73326],[55.20237,51.7369],[55.20276,51.73858],[55.20464,51.74117],[55.20642,51.74209],[55.21154,51.74259],[55.22053,51.7416],[55.2274,51.74535],[55.23509,51.74404],[55.23968,51.7448],[55.24001,51.74539],[55.23966,51.74779],[55.23772,51.74885],[55.23732,51.74984],[55.23825,51.75187],[55.23943,51.75282],[55.24111,51.75354],[55.24258,51.75363],[55.24238,51.75563],[55.24517,51.75668],[55.24416,51.75827],[55.24595,51.75977],[55.24876,51.76458],[55.25065,51.76631],[55.24998,51.76736],[55.24979,51.76928],[55.25152,51.76949],[55.25163,51.7706],[55.2509,51.7706],[55.25068,51.7741],[55.25076,51.77466],[55.25192,51.77485],[55.25201,51.78143],[55.25167,51.78903],[55.23512,51.78935],[55.23844,51.79328],[55.23982,51.79598],[55.24003,51.79728],[55.24141,51.79844],[55.23888,51.79995],[55.25319,51.80743],[55.25722,51.81035],[55.2562,51.81138],[55.2578,51.8128],[55.26794,51.81801],[55.275,51.83048],[55.31041,51.83079],[55.38723,51.83039],[55.38747,51.83219],[55.39521,51.83687],[55.3927,51.84747],[55.39407,51.85558],[55.391,51.87172],[55.39055,51.88098],[55.39083,51.88891],[55.37849,51.88913],[55.37771,51.89796],[55.31595,51.89761],[55.3166,51.89647],[55.32085,51.89468],[55.32155,51.89295],[55.32136,51.88249],[55.3141,51.88247],[55.31387,51.87565],[55.28475,51.8756],[55.22019,51.87753],[55.21842,51.88021],[55.20566,51.88677],[55.20773,51.89013],[55.20521,51.89087],[55.20486,51.89164],[55.20412,51.89169],[55.20563,51.89378],[55.2204,51.90043],[55.21423,51.90423],[55.2203,51.90815],[55.22077,51.90789],[55.22157,51.90834],[55.22223,51.90794],[55.25179,51.92671],[55.25699,51.92937],[55.26469,51.93166],[55.2634,51.93385],[55.25758,51.93225],[55.25737,51.93256],[55.2531,51.93116],[55.25068,51.92988],[55.21976,51.9097],[55.22074,51.909],[55.2179,51.90743],[55.21812,51.90727],[55.21348,51.90436],[55.21313,51.90456],[55.21104,51.90324],[55.21031,51.90363],[55.19208,51.89146],[55.16424,51.89766],[55.1623,51.89707],[55.1604,51.89768],[55.15884,51.89924],[55.15473,51.89866],[55.15201,51.89415],[55.14318,51.89644],[55.14129,51.89734],[55.14289,51.89837],[55.12221,51.90563],[55.12387,51.90028],[55.12378,51.89753],[55.11855,51.89544],[55.11286,51.88928],[55.11456,51.88677],[55.11311,51.88444],[55.11,51.88554],[55.10279,51.88161],[55.09898,51.88147],[55.09843,51.87981],[55.09298,51.87827],[55.07358,51.86849],[55.08702,51.8476],[55.08599,51.84079],[55.07801,51.83407],[55.04897,51.8235],[55.04806,51.81067],[55.04313,51.80917],[55.03514,51.80775],[55.02254,51.80935],[55.0203,51.80787],[55.02619,51.80189],[55.01955,51.79301],[55.01926,51.78958],[55.02021,51.78716],[55.02316,51.78473],[55.03518,51.78069],[55.03751,51.778],[55.03598,51.77564],[55.03185,51.77146],[55.02731,51.77074],[55.02541,51.7671],[55.02781,51.76411],[55.03881,51.7607],[55.04085,51.75517],[55.04797,51.75121],[55.05736,51.74959],[55.06275,51.74494],[55.06731,51.74194],[55.06428,51.73808],[55.05849,51.73789],[55.05276,51.73993],[55.05208,51.7408],[55.04876,51.74172],[55.04672,51.74304],[55.04538,51.74686],[55.04329,51.74607],[55.04447,51.74421],[55.04333,51.74371],[55.03961,51.74453],[55.03968,51.7449],[55.03724,51.74584],[55.03688,51.74664],[55.03737,51.74809],[55.03691,51.74816],[55.03534,51.74521],[55.03567,51.74308],[55.03769,51.74164],[55.04328,51.7398],[55.04463,51.73796],[55.04471,51.73502],[55.04255,51.73255],[55.04242,51.7305],[55.04484,51.72853],[55.05047,51.72689],[55.0559,51.72595],[55.05902,51.72616],[55.05993,51.72069],[55.03177,51.71735],[55.01519,51.71634]]]}}]}